{
"type": "FeatureCollection",
"name": "arunachal_pradesh",
"crs": { "type": "name", "properties": { "name": "urn:ogc:def:crs:OGC:1.3:CRS84" } },
"features": [
{ "type": "Feature", "properties": { "dt_code": "249", "district": "Upper Subansiri", "st_code": "12", "year": "2011_c", "st_nm": "Arunachal Pradesh" }, "geometry": { "type": "Polygon", "coordinates": [ [ [ 94.401727916503773, 28.338607681921161 ], [ 94.403365738061993, 28.328000821175049 ], [ 94.377706533649814, 28.308908471832048 ], [ 94.374976831052777, 28.294907415647184 ], [ 94.39408474923205, 28.263511107838696 ], [ 94.417014251047192, 28.254177070382116 ], [ 94.383165938843888, 28.257995540250718 ], [ 94.368971485339287, 28.244418758495694 ], [ 94.36787960430047, 28.211749627397673 ], [ 94.356414853392906, 28.198597120072495 ], [ 94.391355046635013, 28.142168620903188 ], [ 94.391900987154429, 28.082770200724966 ], [ 94.467240778832718, 28.048828246337411 ], [ 94.48416493493437, 28.021674682827367 ], [ 94.484710875453786, 28.021674682827367 ], [ 94.513099782463001, 28.0153105663797 ], [ 94.513099782463001, 28.0153105663797 ], [ 94.513099782463001, 28.0153105663797 ], [ 94.532207700642275, 27.986035630720433 ], [ 94.525656414409383, 27.960154890499926 ], [ 94.53275364116169, 27.945305285455369 ], [ 94.558412845573855, 27.902453568041082 ], [ 94.592807098296561, 27.890149609575595 ], [ 94.592807098296561, 27.890149609575595 ], [ 94.593353038815962, 27.890149609575595 ], [ 94.594990860374196, 27.87063298580275 ], [ 94.589531455180108, 27.866390241504305 ], [ 94.588985514660706, 27.861723222776014 ], [ 94.582434228427815, 27.860026125056638 ], [ 94.44431127701759, 27.828629817248149 ], [ 94.4383059313041, 27.812931663343907 ], [ 94.382074057805085, 27.797233509439661 ], [ 94.335123173135997, 27.760321634043194 ], [ 94.334577232616581, 27.760321634043194 ], [ 94.318199017034345, 27.773049866938528 ], [ 94.318199017034345, 27.773474141368375 ], [ 94.271248132365258, 27.809537467905152 ], [ 94.193178638089918, 27.811658840054371 ], [ 94.192086757051101, 27.836691031415192 ], [ 94.15987626640603, 27.843903696722549 ], [ 94.148957456017868, 27.865965967074459 ], [ 94.074163604858981, 27.849419264310527 ], [ 94.047412519407985, 27.911787605497658 ], [ 94.068158259145491, 27.939365443437548 ], [ 94.023391136554039, 27.956336420631324 ], [ 94.010834504607644, 27.956336420631324 ], [ 93.998823813180678, 27.965670458087903 ], [ 93.967705203574411, 27.977974416553391 ], [ 93.961699857860935, 27.97882296541308 ], [ 93.94914322591454, 27.980520063132456 ], [ 93.940954118123429, 28.000460961335147 ], [ 93.912565211114213, 28.012764919800635 ], [ 93.909835508517176, 28.029311622564567 ], [ 93.873803434236237, 28.053495265065699 ], [ 93.874895315275054, 28.073011888838543 ], [ 93.854695516056964, 28.081497377435433 ], [ 93.880900660988544, 28.107802392085787 ], [ 93.876533136833288, 28.120954899410965 ], [ 93.892365411896122, 28.128591839148164 ], [ 93.846506408265839, 28.207931157529075 ], [ 93.839955122032947, 28.236781818758494 ], [ 93.765707211393462, 28.263086833408849 ], [ 93.701832170622723, 28.308059922972362 ], [ 93.679994549846413, 28.322060979157229 ], [ 93.660340691147724, 28.304665727533607 ], [ 93.627584259983237, 28.306787099682829 ], [ 93.611751984920417, 28.271996596435585 ], [ 93.611751984920417, 28.271572322005738 ], [ 93.603016936609876, 28.269450949856516 ], [ 93.560979516615461, 28.260541186829784 ], [ 93.554974170901986, 28.259268363540251 ], [ 93.479634379223683, 28.281330633892161 ], [ 93.456704877408541, 28.272420870865428 ], [ 93.455067055850321, 28.271572322005738 ], [ 93.453429234292088, 28.273693694154961 ], [ 93.428861910918741, 28.28302773161154 ], [ 93.425040327282886, 28.282603457181693 ], [ 93.423402505724653, 28.285149103760762 ], [ 93.408662111700636, 28.306787099682829 ], [ 93.38627855040491, 28.306362825252982 ], [ 93.384094788327275, 28.310605569551427 ], [ 93.378635383133201, 28.311454118411117 ], [ 93.370446275342076, 28.32630372345567 ], [ 93.360619345992731, 28.329697918894428 ], [ 93.360619345992731, 28.343698975079292 ], [ 93.336597963138786, 28.353457286965714 ], [ 93.294014602624969, 28.340304779640537 ], [ 93.282549851717391, 28.364912696571515 ], [ 93.253615004188774, 28.361942775562603 ], [ 93.223042335101923, 28.334364937622716 ], [ 93.22413421614074, 28.342426151789759 ], [ 93.233415204970683, 28.400127474248603 ], [ 93.183188677185143, 28.432372330916781 ], [ 93.237236788606538, 28.482436713638425 ], [ 93.278182327562135, 28.504498983990334 ], [ 93.307663115610168, 28.566018776317776 ], [ 93.30220371041608, 28.599112181845644 ], [ 93.330046676905894, 28.608021944872377 ], [ 93.339327665735823, 28.639842527110709 ], [ 93.414121516894724, 28.652570760006043 ], [ 93.447969829098014, 28.675905853647485 ], [ 93.46871556883552, 28.651722211146353 ], [ 93.493282892208882, 28.683542793384685 ], [ 93.535866252722698, 28.658510602023863 ], [ 93.622124854789163, 28.657237778734331 ], [ 93.733496720748391, 28.68863408654282 ], [ 93.777171962301026, 28.667844639480442 ], [ 93.845960467746437, 28.706877887026128 ], [ 93.92130025942474, 28.669541737199818 ], [ 93.962245798380337, 28.712393454614109 ], [ 93.989542824350735, 28.68778553768313 ], [ 94.023391136554039, 28.65129793671651 ], [ 94.005921039932971, 28.621598726627397 ], [ 94.001553515777715, 28.577898460353421 ], [ 94.07143390226193, 28.539289487237578 ], [ 94.097093106674109, 28.536319566228666 ], [ 94.108557857581673, 28.52146996118411 ], [ 94.114563203295162, 28.475648322760911 ], [ 94.148411515498466, 28.439584996224134 ], [ 94.157692504328395, 28.434917977495846 ], [ 94.168611314716557, 28.432796605346624 ], [ 94.219383783021499, 28.436190800785379 ], [ 94.231394474448479, 28.428129586618336 ], [ 94.241767344317225, 28.446797661531491 ], [ 94.292539812622167, 28.428978135478026 ], [ 94.308372087685001, 28.417098451442381 ], [ 94.301820801452109, 28.395884729950158 ], [ 94.308372087685001, 28.375519557317627 ], [ 94.329663767941909, 28.357700031264159 ], [ 94.36787960430047, 28.353033012535871 ], [ 94.368971485339287, 28.352184463676181 ], [ 94.385895641440939, 28.336062035342092 ], [ 94.401181975984358, 28.340304779640537 ], [ 94.401727916503773, 28.338607681921161 ] ] ] } },
{ "type": "Feature", "properties": { "dt_code": "260", "district": "Anjaw", "st_code": "12", "year": "2011_c", "st_nm": "Arunachal Pradesh" }, "geometry": { "type": "Polygon", "coordinates": [ [ [ 96.861189956436746, 27.630917932940644 ], [ 96.848633324490365, 27.624129542063134 ], [ 96.78257452164199, 27.642373342546442 ], [ 96.765650365540353, 27.61818970004531 ], [ 96.764558484501535, 27.616916876755777 ], [ 96.717607599832448, 27.648737458994109 ], [ 96.705596908405468, 27.650858831143331 ], [ 96.700137503211394, 27.660617143029754 ], [ 96.648819094387036, 27.673769650354931 ], [ 96.639538105557108, 27.681830864521974 ], [ 96.629165235688347, 27.684800785530886 ], [ 96.624251771013675, 27.694559097417308 ], [ 96.619338306339003, 27.70346886044404 ], [ 96.616062663222564, 27.709408702461864 ], [ 96.619884246858419, 27.714075721190152 ], [ 96.64008404607651, 27.737835089261441 ], [ 96.615516722703148, 27.770079945929616 ], [ 96.612787020106111, 27.773898415798218 ], [ 96.631894938285384, 27.810386016764838 ], [ 96.613878901144929, 27.857480478477569 ], [ 96.586035934655115, 27.853237734179128 ], [ 96.528712180117282, 27.900756470321703 ], [ 96.416248433119236, 27.923243015103459 ], [ 96.391681109745875, 27.975004495544479 ], [ 96.287952411058356, 28.061980753662588 ], [ 96.282493005864282, 28.072163339978854 ], [ 96.273212017034339, 28.091255689321855 ], [ 96.327260128455734, 28.13113748572723 ], [ 96.335449236246859, 28.172292105422141 ], [ 96.295595578330065, 28.249085777223986 ], [ 96.301600924043555, 28.283876280471226 ], [ 96.337087057805078, 28.339456230780847 ], [ 96.3114278533929, 28.365336971001359 ], [ 96.30542250767941, 28.369579715299803 ], [ 96.306514388718227, 28.371276813019183 ], [ 96.30378468612119, 28.373822459598248 ], [ 96.313611615470535, 28.38358077148467 ], [ 96.369297548450149, 28.389096339072648 ], [ 96.378032596760676, 28.358972854553691 ], [ 96.390589228707057, 28.357275756834316 ], [ 96.397686455459365, 28.339456230780847 ], [ 96.410789027925162, 28.341577602930069 ], [ 96.421161897793908, 28.345820347228514 ], [ 96.430442886623837, 28.386550692493582 ], [ 96.456648031555432, 28.414128530433469 ], [ 96.508512380899191, 28.412855707143937 ], [ 96.577846826864004, 28.457828796707446 ], [ 96.663013547891651, 28.460374443286511 ], [ 96.749272149958102, 28.415825628152845 ], [ 96.780390759564369, 28.364488422141669 ], [ 96.849725205529182, 28.361942775562603 ], [ 96.89667609019827, 28.379762301616068 ], [ 96.923427175649252, 28.338607681921161 ], [ 96.993853502652883, 28.309332746261894 ], [ 97.020058647584463, 28.31951533257816 ], [ 97.049539435632497, 28.351335914816492 ], [ 97.089939034068692, 28.362791324422293 ], [ 97.149446550684161, 28.327152272315359 ], [ 97.171284171460485, 28.291937494638272 ], [ 97.221510699246011, 28.292361769068116 ], [ 97.238434855347663, 28.26775385213714 ], [ 97.27938039430326, 28.268602400996826 ], [ 97.309953063390111, 28.243994484065851 ], [ 97.371644342083215, 28.217689469415497 ], [ 97.39730354649538, 28.185444612747318 ], [ 97.368914639486178, 28.192233003624828 ], [ 97.327423160011165, 28.154896853798519 ], [ 97.321417814297675, 28.140047248753966 ], [ 97.33561226780229, 28.111196587524542 ], [ 97.306677420273658, 28.084891572874188 ], [ 97.304493658196023, 28.068769144540099 ], [ 97.327969100530566, 28.056889460504454 ], [ 97.370006520524981, 28.061980753662588 ], [ 97.364547115330907, 28.044161227609123 ], [ 97.373282163641434, 28.0305844458541 ], [ 97.411498, 28.0153105663797 ], [ 97.387476617146049, 28.003430882344055 ], [ 97.374374044680252, 27.977550142123548 ], [ 97.371644342083215, 27.935546973568947 ], [ 97.383655033510195, 27.917727447515482 ], [ 97.374919985199654, 27.909241958918592 ], [ 97.385292855068414, 27.887603962996526 ], [ 97.360725531695053, 27.876148553390728 ], [ 97.339433851438145, 27.88505831641746 ], [ 97.317050290142419, 27.880815572119015 ], [ 97.320325933258857, 27.903302116900768 ], [ 97.305039598715439, 27.921121642954237 ], [ 97.252629308852278, 27.901180744751549 ], [ 97.156543777436468, 27.814204486633439 ], [ 97.098674082379219, 27.784929550974173 ], [ 97.087755271991057, 27.73401661939284 ], [ 97.061550127059476, 27.748441950007553 ], [ 97.047355673554861, 27.739107912550974 ], [ 97.031523398492041, 27.749290498867239 ], [ 96.985664394861772, 27.686073608820418 ], [ 96.98293469226472, 27.666556985047574 ], [ 96.934891926556816, 27.661465691889443 ], [ 96.903773316950563, 27.613946955746865 ], [ 96.861189956436746, 27.630917932940644 ] ] ] } },
{ "type": "Feature", "properties": { "dt_code": "253", "district": "Changlang", "st_code": "12", "year": "2011_c", "st_nm": "Arunachal Pradesh" }, "geometry": { "type": "Polygon", "coordinates": [ [ [ 96.700137503211394, 27.660617143029754 ], [ 96.705596908405468, 27.650858831143331 ], [ 96.717607599832448, 27.648737458994109 ], [ 96.764558484501535, 27.616916876755777 ], [ 96.765650365540353, 27.61818970004531 ], [ 96.78257452164199, 27.642373342546442 ], [ 96.848633324490365, 27.624129542063134 ], [ 96.861189956436746, 27.630917932940644 ], [ 96.89667609019827, 27.616068327896087 ], [ 96.890124803965364, 27.579580726929468 ], [ 96.908140841105833, 27.579580726929468 ], [ 96.906503019547614, 27.544365949252377 ], [ 96.935437867076232, 27.5083026227156 ], [ 96.910324603183469, 27.486664626793534 ], [ 96.903227376431161, 27.452722672405979 ], [ 96.932162223959779, 27.431508950913759 ], [ 96.934891926556816, 27.41538652257967 ], [ 96.962188952527228, 27.40180974082465 ], [ 96.962188952527228, 27.372959079595226 ], [ 96.990031919017028, 27.344108418365806 ], [ 96.998221026808153, 27.318651952575138 ], [ 97.028247755375588, 27.308469366258873 ], [ 97.054998840826585, 27.265193374414739 ], [ 97.088301212510473, 27.238888359764385 ], [ 97.090484974588094, 27.21343189397372 ], [ 97.163641004188776, 27.142153789759856 ], [ 97.16145724211114, 27.123061440416855 ], [ 97.137981799776597, 27.091665132608366 ], [ 97.100311903937438, 27.109060384231988 ], [ 97.097036260821, 27.0967564257665 ], [ 97.063187948617696, 27.091665132608366 ], [ 97.030431517453223, 27.131546929013744 ], [ 96.992761621614065, 27.140032417610634 ], [ 96.984026573303538, 27.154457748225344 ], [ 96.901589554872942, 27.168458804410211 ], [ 96.860098075397929, 27.189672525902431 ], [ 96.854638670203855, 27.210886247394654 ], [ 96.885757279810107, 27.22700867572874 ], [ 96.885211339290692, 27.259253532396919 ], [ 96.846995502932131, 27.271557490862406 ], [ 96.848087383970949, 27.290225565775561 ], [ 96.796768975146605, 27.345805516085182 ], [ 96.703959086847249, 27.372110530735537 ], [ 96.697953741133759, 27.357685200120827 ], [ 96.605689793353804, 27.365746414287873 ], [ 96.590949399329787, 27.347926888234404 ], [ 96.596408804523875, 27.333501557619694 ], [ 96.551095741413008, 27.318227678145295 ], [ 96.523798715442609, 27.286407095906963 ], [ 96.507420499860373, 27.299135328802294 ], [ 96.457739912594249, 27.306772268539497 ], [ 96.386221704551801, 27.284709998187584 ], [ 96.305968448198826, 27.294044035644163 ], [ 96.274303898073157, 27.283437174898051 ], [ 96.27157419547612, 27.271557490862406 ], [ 96.228444894442887, 27.278770156169763 ], [ 96.185315593409655, 27.249070946080653 ], [ 96.15528886484222, 27.248222397220964 ], [ 96.089776002513261, 27.223190205860142 ], [ 96.022079378106667, 27.179489939586166 ], [ 96.010068686679688, 27.142153789759856 ], [ 95.967485326165871, 27.098453523485876 ], [ 95.945647705389547, 27.051359061773145 ], [ 95.904156225914548, 27.039055103307657 ], [ 95.870307913711244, 27.013174363087145 ], [ 95.83100019631388, 27.007658795499168 ], [ 95.802065348785248, 27.014871460806525 ], [ 95.755114464116161, 26.953775942908926 ], [ 95.760027928790834, 26.936804965715147 ], [ 95.748017237363854, 26.926198104969039 ], [ 95.744741594247415, 26.896074620450083 ], [ 95.716352687238199, 26.879103643256304 ], [ 95.679228731918457, 26.896074620450083 ], [ 95.684688137112531, 26.903711560187283 ], [ 95.693969125942473, 26.91771261637215 ], [ 95.680866553476676, 26.985172250717415 ], [ 95.642650717118116, 26.990687818305393 ], [ 95.631185966210552, 27.011052990937923 ], [ 95.629002204132917, 27.026751144842169 ], [ 95.649747943870423, 27.063238745808789 ], [ 95.638829133482261, 27.100150621205255 ], [ 95.663396456855622, 27.125182812566077 ], [ 95.667763981010893, 27.171852999848966 ], [ 95.640466955040495, 27.193066721341186 ], [ 95.633915668807589, 27.230402871167495 ], [ 95.681412493996092, 27.252040867089562 ], [ 95.720174270874054, 27.249495220510497 ], [ 95.742011891650378, 27.266890472134119 ], [ 95.779681787489523, 27.269860393143031 ], [ 95.800973467746431, 27.284285723757741 ], [ 95.804795051382285, 27.273254588581786 ], [ 95.859389103323096, 27.287255644766653 ], [ 95.856113460206643, 27.271133216432563 ], [ 95.892145534487568, 27.255435062528317 ], [ 95.904156225914548, 27.274103137441475 ], [ 95.89705899916224, 27.282164351608518 ], [ 95.959842158894162, 27.311015012837938 ], [ 95.95492869421949, 27.317803403715452 ], [ 95.975674433956996, 27.324591794592962 ], [ 95.965301564088236, 27.327985990031717 ], [ 95.989322946942195, 27.356412376831294 ], [ 96.01498215135436, 27.368292060866938 ], [ 95.983317601228705, 27.411992327140915 ], [ 95.970215028762908, 27.414962248149827 ], [ 95.96912314772409, 27.428114755475004 ], [ 95.954382753700074, 27.419629266878115 ], [ 95.941280181234291, 27.43744879293158 ], [ 95.907977809550403, 27.434478871922671 ], [ 95.885594248254677, 27.398415545385895 ], [ 95.88286454565764, 27.435327420782357 ], [ 95.857205341245461, 27.420053541307958 ], [ 95.859935043842498, 27.408173857272317 ], [ 95.844648709299079, 27.421750639027337 ], [ 95.853383757609606, 27.456965416704424 ], [ 95.87085385423066, 27.466723728590846 ], [ 95.874129497347099, 27.493453017671047 ], [ 95.886686129293494, 27.497271487539646 ], [ 95.875767318905332, 27.512545367014045 ], [ 95.874129497347099, 27.544365949252377 ], [ 95.874129497347099, 27.544365949252377 ], [ 95.874129497347099, 27.546911595831446 ], [ 96.001879578888577, 27.556669907717868 ], [ 96.061387095504045, 27.606310016009665 ], [ 96.125808076794186, 27.619462523334843 ], [ 96.132905303546494, 27.606310016009665 ], [ 96.224623310807033, 27.568125317323666 ], [ 96.293957756771846, 27.558791279867091 ], [ 96.307606269757045, 27.566852494034134 ], [ 96.3114278533929, 27.569822415043046 ], [ 96.372573191566602, 27.644918989125511 ], [ 96.38349200195475, 27.638979147107687 ], [ 96.39386487182351, 27.648737458994109 ], [ 96.43972387545378, 27.652555928862711 ], [ 96.452280507400161, 27.641100519256909 ], [ 96.480123473889975, 27.646191812415044 ], [ 96.518885250767937, 27.636857774958465 ], [ 96.58221435101926, 27.655950124301466 ], [ 96.640629986595911, 27.627948011931732 ], [ 96.682121466070924, 27.654677301011933 ], [ 96.700137503211394, 27.660617143029754 ] ] ] } },
{ "type": "Feature", "properties": { "dt_code": "245", "district": "Tawang", "st_code": "12", "year": "2011_c", "st_nm": "Arunachal Pradesh" }, "geometry": { "type": "Polygon", "coordinates": [ [ [ 92.013784084613235, 27.490058822232292 ], [ 91.980481712929347, 27.464602356441624 ], [ 91.940628055012567, 27.460359612143179 ], [ 91.850547869310248, 27.482421882495093 ], [ 91.829802129572741, 27.468845100740069 ], [ 91.721705906729966, 27.470117924029601 ], [ 91.712424917900023, 27.490907371091978 ], [ 91.691679178162516, 27.50236278069778 ], [ 91.65510116336219, 27.482846156924936 ], [ 91.622344732197703, 27.512969641443892 ], [ 91.611425921809555, 27.541396028243469 ], [ 91.596139587266123, 27.539274656094246 ], [ 91.563929096621052, 27.584247745657756 ], [ 91.578123550125667, 27.608431388158888 ], [ 91.560107512985198, 27.633463579519709 ], [ 91.598323349343758, 27.692437725268086 ], [ 91.626166315833558, 27.706014507023109 ], [ 91.641998590896392, 27.764988652771486 ], [ 91.630533839988829, 27.800627704878416 ], [ 91.601053051940795, 27.82099287751095 ], [ 91.567750680256907, 27.815477309922972 ], [ 91.546459, 27.855783380758194 ], [ 91.664382152192118, 27.858329027337259 ], [ 91.711878977380621, 27.81335593777375 ], [ 91.760467683607928, 27.801051979308262 ], [ 91.826526486456302, 27.810386016764838 ], [ 91.862558560737227, 27.736986540401752 ], [ 91.880574597877683, 27.721712660927352 ], [ 91.910055385925716, 27.725955405225797 ], [ 91.920428255794462, 27.714924270049842 ], [ 91.947179341245459, 27.728501051804862 ], [ 91.957552211114219, 27.750563322156772 ], [ 91.985941118123421, 27.769655671499773 ], [ 92.057459326165869, 27.759048810753661 ], [ 92.157912381736949, 27.836691031415192 ], [ 92.202133563808985, 27.856631929617883 ], [ 92.256727615749796, 27.861723222776014 ], [ 92.309137905612957, 27.778989708956352 ], [ 92.381202054174807, 27.794687862860595 ], [ 92.38447769729126, 27.815053035493129 ], [ 92.408499080145205, 27.821841426370639 ], [ 92.445077094945546, 27.800203430448573 ], [ 92.46855253728009, 27.814628761063283 ], [ 92.461455310527782, 27.784929550974173 ], [ 92.46090937000838, 27.781959629965261 ], [ 92.459817488969563, 27.781535355535418 ], [ 92.412866604300476, 27.755654615314906 ], [ 92.413412544819877, 27.708984428032018 ], [ 92.393212745601787, 27.672496827065398 ], [ 92.342986217816247, 27.672496827065398 ], [ 92.269830188215579, 27.648313184564266 ], [ 92.244716924322816, 27.650858831143331 ], [ 92.22233336302709, 27.627099463072042 ], [ 92.22233336302709, 27.60291582057091 ], [ 92.209230790561293, 27.580429275789154 ], [ 92.151907036023459, 27.577459354780245 ], [ 92.112053378106665, 27.525273599909379 ], [ 92.049270218374758, 27.51678811131249 ], [ 92.013784084613235, 27.491331645521825 ], [ 92.013784084613235, 27.490058822232292 ] ] ] } },
{ "type": "Feature", "properties": { "dt_code": "248", "district": "Papum Pare", "st_code": "12", "year": "2011_c", "st_nm": "Arunachal Pradesh" }, "geometry": { "type": "Polygon", "coordinates": [ [ [ 93.942045999162247, 27.511272543724512 ], [ 94.045228757330349, 27.499392859688868 ], [ 94.068704199664893, 27.482421882495093 ], [ 94.105828154984636, 27.493453017671047 ], [ 94.150595277576087, 27.530364893067514 ], [ 94.190994876012283, 27.535880460655491 ], [ 94.205189329516898, 27.5312134419272 ], [ 94.219929723540901, 27.504908427276845 ], [ 94.156600623289577, 27.474784942757893 ], [ 94.159330325886614, 27.461632435432712 ], [ 94.0894499394024, 27.407325308412627 ], [ 94.059969151354366, 27.361503669989428 ], [ 93.991180645908955, 27.32841026446156 ], [ 93.806106809829657, 27.148942180637366 ], [ 93.805560869310241, 27.137062496601722 ], [ 93.797917702038532, 27.136638222171875 ], [ 93.82521472800893, 27.116697323969188 ], [ 93.837771359955312, 27.085301016160699 ], [ 93.829036311644785, 27.067057215677391 ], [ 93.810474333984914, 27.067481490107234 ], [ 93.80337710723262, 27.058147452650658 ], [ 93.793550177883276, 27.072572783265368 ], [ 93.800101464116167, 27.058147452650658 ], [ 93.783723248533931, 27.051359061773145 ], [ 93.78099354593688, 27.065784392387858 ], [ 93.778263843339843, 27.049237689623922 ], [ 93.770620676068134, 27.061965922519256 ], [ 93.767345032951681, 27.0394793777375 ], [ 93.723123850879645, 27.020811302824345 ], [ 93.697464646467466, 26.994082013744148 ], [ 93.697464646467466, 26.994082013744148 ], [ 93.67671890672996, 26.979232408699591 ], [ 93.66470821530298, 26.968625547953479 ], [ 93.661432572186541, 26.968201273523636 ], [ 93.474174974029594, 26.937229240144994 ], [ 93.47035339039374, 26.936804965715147 ], [ 93.469261509354922, 26.937653514574837 ], [ 93.448515769617416, 26.950806021900014 ], [ 93.39828924183189, 26.957170138347681 ], [ 93.391192015079582, 26.958442961637214 ], [ 93.387370431443728, 26.967352724663947 ], [ 93.380819145210836, 26.984747976287569 ], [ 93.339873606255239, 26.992809190454615 ], [ 93.339873606255239, 26.992809190454615 ], [ 93.342603308852276, 27.036509456728592 ], [ 93.312576580284841, 27.079361174142878 ], [ 93.292922721586152, 27.078088350853346 ], [ 93.272176981848645, 27.10354481664401 ], [ 93.212123524713761, 27.117545872828877 ], [ 93.212123524713761, 27.117545872828877 ], [ 93.214307286791396, 27.137911045461411 ], [ 93.311484699246023, 27.172701548708655 ], [ 93.273814803406864, 27.210886247394654 ], [ 93.22577203769896, 27.201127935508232 ], [ 93.21976669198547, 27.199855112218696 ], [ 93.220858573024287, 27.211734796254341 ], [ 93.22413421614074, 27.23464561546594 ], [ 93.22413421614074, 27.235069889895787 ], [ 93.22413421614074, 27.235069889895787 ], [ 93.233961145490085, 27.238039810904695 ], [ 93.22577203769896, 27.252040867089562 ], [ 93.294014602624969, 27.289801291345718 ], [ 93.288009256911479, 27.327561715601874 ], [ 93.303295591454898, 27.341138497356894 ], [ 93.319673807037134, 27.347926888234404 ], [ 93.330046676905894, 27.354715279111915 ], [ 93.373721918458529, 27.369989158586314 ], [ 93.370446275342076, 27.414962248149827 ], [ 93.369900334822674, 27.414962248149827 ], [ 93.330046676905894, 27.442540086089714 ], [ 93.314760342362462, 27.441267262800181 ], [ 93.327316974308843, 27.460783886573026 ], [ 93.320765688075952, 27.48708890122338 ], [ 93.294014602624969, 27.521455130040778 ], [ 93.330592617425296, 27.556245633288022 ], [ 93.300019948338445, 27.578732178069778 ], [ 93.28200391119799, 27.577035080350399 ], [ 93.284187673275625, 27.588066215526354 ], [ 93.271631041329229, 27.594854606403867 ], [ 93.228501740296011, 27.602491546141067 ], [ 93.229047680815412, 27.603340095000753 ], [ 93.291284900027918, 27.657647222020842 ], [ 93.329500736386478, 27.669526906056486 ], [ 93.51457457246579, 27.650010282283642 ], [ 93.542963479475006, 27.621583895484065 ], [ 93.544601301033225, 27.619886797764689 ], [ 93.562617338173695, 27.602067271711221 ], [ 93.617757330633893, 27.53206199078689 ], [ 93.607384460765147, 27.49387729210089 ], [ 93.568076743367769, 27.471815021748981 ], [ 93.557157932979607, 27.437873067361426 ], [ 93.578449613236529, 27.434903146352514 ], [ 93.600287234012839, 27.367443512007249 ], [ 93.612843865959221, 27.357260925690984 ], [ 93.63085990309969, 27.360230846699896 ], [ 93.665800096341798, 27.33604720419876 ], [ 93.740593947500699, 27.352593906962696 ], [ 93.784815129572749, 27.350472534813473 ], [ 93.806652750349059, 27.37126198187585 ], [ 93.826852549567164, 27.358109474550673 ], [ 93.835587597877691, 27.363625042138651 ], [ 93.827398490086566, 27.424720560036249 ], [ 93.849782051382292, 27.440418713940492 ], [ 93.852511753979329, 27.465026630871471 ], [ 93.888543828260254, 27.491331645521825 ], [ 93.942045999162247, 27.511272543724512 ] ] ] } },
{ "type": "Feature", "properties": { "dt_code": "254", "district": "Tirap", "st_code": "12", "year": "2011_c", "st_nm": "Arunachal Pradesh" }, "geometry": { "type": "Polygon", "coordinates": [ [ [ 95.633915668807589, 27.230402871167495 ], [ 95.640466955040495, 27.193066721341186 ], [ 95.667763981010893, 27.171852999848966 ], [ 95.663396456855622, 27.125182812566077 ], [ 95.638829133482261, 27.100150621205255 ], [ 95.649747943870423, 27.063238745808789 ], [ 95.629002204132917, 27.026751144842169 ], [ 95.631185966210552, 27.011052990937923 ], [ 95.642650717118116, 26.990687818305393 ], [ 95.680866553476676, 26.985172250717415 ], [ 95.693969125942473, 26.91771261637215 ], [ 95.684688137112531, 26.903711560187283 ], [ 95.667218040491477, 26.902863011327593 ], [ 95.631731906729954, 26.873588075668327 ], [ 95.626818442055281, 26.842616042289684 ], [ 95.60825646439541, 26.813341106630418 ], [ 95.569494687517448, 26.81631102763933 ], [ 95.543289542585867, 26.835403376982327 ], [ 95.505619646746709, 26.799764324875397 ], [ 95.49633865791678, 26.818008125358705 ], [ 95.505073706227307, 26.876557996677239 ], [ 95.440652724937166, 26.867223959220659 ], [ 95.394793721306897, 26.901165913608217 ], [ 95.378961446244062, 26.912621323214015 ], [ 95.3680426358559, 26.935532142425615 ], [ 95.377323624685843, 27.008931618788701 ], [ 95.360399468584191, 27.03269098685999 ], [ 95.388788375593407, 27.044570670895634 ], [ 95.387150554035188, 27.084452467301013 ], [ 95.374593922088792, 27.092937955897899 ], [ 95.376777684166427, 27.095907876906811 ], [ 95.376231743647025, 27.0967564257665 ], [ 95.378961446244062, 27.098453523485876 ], [ 95.397523423903934, 27.110757481951367 ], [ 95.434101438704275, 27.126031361425767 ], [ 95.439560843898349, 27.126031361425767 ], [ 95.441198665456568, 27.129001282434675 ], [ 95.448841832728277, 27.132395477873434 ], [ 95.453209356883548, 27.129425556864522 ], [ 95.455393118961183, 27.134941124452499 ], [ 95.461944405194075, 27.149790729497056 ], [ 95.453209356883548, 27.157427669234256 ], [ 95.466311929349345, 27.181611311735388 ], [ 95.458668762077622, 27.207492051955896 ], [ 95.469041631946382, 27.22106883371092 ], [ 95.484327966489801, 27.241434006343454 ], [ 95.491425193242108, 27.243979652922519 ], [ 95.503435884669088, 27.248646671650807 ], [ 95.508895289863162, 27.261799178975984 ], [ 95.535100434794742, 27.264344825555053 ], [ 95.579321616866793, 27.235918438755476 ], [ 95.596791713487846, 27.224463029149675 ], [ 95.598975475565481, 27.223190205860142 ], [ 95.608802404914826, 27.226584401298897 ], [ 95.633915668807589, 27.230402871167495 ] ] ] } },
{ "type": "Feature", "properties": { "dt_code": "251", "district": "East Siang", "st_code": "12", "year": "2011_c", "st_nm": "Arunachal Pradesh" }, "geometry": { "type": "Polygon", "coordinates": [ [ [ 95.519268159731908, 27.883361218698081 ], [ 95.519268159731908, 27.883361218698081 ], [ 95.514900635576652, 27.879967023259326 ], [ 95.379507386763464, 27.839236677994261 ], [ 95.308535119240432, 27.868087339223681 ], [ 95.249027602624963, 27.850267813170216 ], [ 95.209173944708184, 27.837963854704729 ], [ 95.136563855626918, 27.815901584352815 ], [ 95.115272175370009, 27.856631929617883 ], [ 95.120731580564083, 27.903302116900768 ], [ 95.071596933817361, 27.916030349796102 ], [ 95.089067030438414, 27.967791830237125 ], [ 95.067229409662104, 28.023371780546746 ], [ 95.115272175370009, 28.024220329406432 ], [ 95.205352361072329, 28.052646716206013 ], [ 95.240292554314436, 28.047131148618032 ], [ 95.288881260541743, 28.090407140462165 ], [ 95.295432546774634, 28.120954899410965 ], [ 95.250665424183182, 28.150229835070231 ], [ 95.227735922368055, 28.155745402658209 ], [ 95.26977334236247, 28.197324296782963 ], [ 95.303075714046358, 28.202415589941097 ], [ 95.305259476123979, 28.224053585863164 ], [ 95.34183749092432, 28.244843032925541 ], [ 95.346205015079576, 28.283876280471226 ], [ 95.383328970399333, 28.312302667270806 ], [ 95.384420851438136, 28.312302667270806 ], [ 95.389334316112809, 28.307635648542515 ], [ 95.436831141301312, 28.313999764990182 ], [ 95.455393118961183, 28.277512164023562 ], [ 95.465220048310528, 28.257571265820872 ], [ 95.465220048310528, 28.257571265820872 ], [ 95.47613885869869, 28.261814010119316 ], [ 95.535100434794742, 28.284724829330916 ], [ 95.537284196872378, 28.283452006041383 ], [ 95.562943401284556, 28.256298442531339 ], [ 95.564035282323374, 28.255025619241806 ], [ 95.562943401284556, 28.066223497961033 ], [ 95.560213698687519, 28.051373892916477 ], [ 95.53018697012007, 28.0000366869053 ], [ 95.502889944149672, 27.952942225192569 ], [ 95.500706182072037, 27.949972304183657 ], [ 95.501798063110854, 27.946153834315059 ], [ 95.519268159731908, 27.883361218698081 ] ] ] } },
{ "type": "Feature", "properties": { "dt_code": "259", "district": "Lohit", "st_code": "12", "year": "2011_c", "st_nm": "Arunachal Pradesh" }, "geometry": { "type": "Polygon", "coordinates": [ [ [ 96.30542250767941, 28.369579715299803 ], [ 96.3114278533929, 28.365336971001359 ], [ 96.337087057805078, 28.339456230780847 ], [ 96.301600924043555, 28.283876280471226 ], [ 96.295595578330065, 28.249085777223986 ], [ 96.335449236246859, 28.172292105422141 ], [ 96.327260128455734, 28.13113748572723 ], [ 96.273212017034339, 28.091255689321855 ], [ 96.282493005864282, 28.072163339978854 ], [ 96.287952411058356, 28.061980753662588 ], [ 96.391681109745875, 27.975004495544479 ], [ 96.416248433119236, 27.923243015103459 ], [ 96.528712180117282, 27.900756470321703 ], [ 96.586035934655115, 27.853237734179128 ], [ 96.613878901144929, 27.857480478477569 ], [ 96.631894938285384, 27.810386016764838 ], [ 96.612787020106111, 27.773898415798218 ], [ 96.615516722703148, 27.770079945929616 ], [ 96.64008404607651, 27.737835089261441 ], [ 96.619884246858419, 27.714075721190152 ], [ 96.616062663222564, 27.709408702461864 ], [ 96.619338306339003, 27.70346886044404 ], [ 96.624251771013675, 27.694559097417308 ], [ 96.629165235688347, 27.684800785530886 ], [ 96.639538105557108, 27.681830864521974 ], [ 96.648819094387036, 27.673769650354931 ], [ 96.700137503211394, 27.660617143029754 ], [ 96.682121466070924, 27.654677301011933 ], [ 96.640629986595911, 27.627948011931732 ], [ 96.58221435101926, 27.655950124301466 ], [ 96.518885250767937, 27.636857774958465 ], [ 96.480123473889975, 27.646191812415044 ], [ 96.452280507400161, 27.641100519256909 ], [ 96.43972387545378, 27.652555928862711 ], [ 96.39386487182351, 27.648737458994109 ], [ 96.38349200195475, 27.638979147107687 ], [ 96.372573191566602, 27.644918989125511 ], [ 96.3114278533929, 27.569822415043046 ], [ 96.285222708461319, 27.59527888083371 ], [ 96.291773994694211, 27.627948011931732 ], [ 96.269936373917901, 27.651707380003021 ], [ 96.260655385087958, 27.71959128877813 ], [ 96.273212017034339, 27.787899471983085 ], [ 96.207699154705381, 27.87742137668026 ], [ 96.023171259145485, 27.850267813170216 ], [ 95.804795051382285, 27.736137991542062 ], [ 95.770946739178996, 27.729773875094395 ], [ 95.774222382295449, 27.731895247243617 ], [ 95.779135846970121, 27.733592344962997 ], [ 95.779135846970121, 27.734865168252529 ], [ 95.775860203853668, 27.753533243165684 ], [ 95.812984159173411, 27.798506332729193 ], [ 95.837551482546772, 27.809961742334995 ], [ 95.837551482546772, 27.810386016764838 ], [ 95.838097423066174, 27.810386016764838 ], [ 95.837551482546772, 27.824387072949705 ], [ 95.870307913711244, 27.832872561546594 ], [ 95.87085385423066, 27.833296835976437 ], [ 95.915620976822112, 27.883785493127927 ], [ 95.924901965652055, 27.881664120978705 ], [ 95.915620976822112, 27.889301060715905 ], [ 95.937458597598436, 27.898210823742637 ], [ 95.929815430326727, 27.902877842470925 ], [ 95.952744932141854, 27.920273094094547 ], [ 95.952744932141854, 27.920273094094547 ], [ 95.952744932141854, 27.920697368524394 ], [ 95.948923348506, 27.938092620148012 ], [ 95.954382753700074, 27.944032462165836 ], [ 95.96912314772409, 27.960154890499926 ], [ 95.969669088243506, 27.960154890499926 ], [ 95.986593244345144, 27.958457792780546 ], [ 96.013890270315557, 27.995369668177013 ], [ 96.019895616029032, 28.040767032170368 ], [ 96.057019571348775, 28.085740121733878 ], [ 96.058657392907008, 28.087437219453253 ], [ 96.058657392907008, 28.0878614938831 ], [ 96.059749273945826, 28.091679963751698 ], [ 96.070668084333974, 28.120954899410965 ], [ 96.070668084333974, 28.12350054599003 ], [ 96.069030262775755, 28.167625086693853 ], [ 96.067938381736937, 28.190535905905453 ], [ 96.089776002513261, 28.191384454765142 ], [ 96.100694812901423, 28.190111631475609 ], [ 96.142186292376422, 28.170170733272919 ], [ 96.21534232197709, 28.230841976740674 ], [ 96.267752611840265, 28.238903190907717 ], [ 96.238271823792232, 28.299574434375472 ], [ 96.290136173135991, 28.344547523938981 ], [ 96.30542250767941, 28.369579715299803 ] ] ] } },
{ "type": "Feature", "properties": { "dt_code": "256", "district": "Kurung Kumey", "st_code": "12", "year": "2011_c", "st_nm": "Arunachal Pradesh" }, "geometry": { "type": "Polygon", "coordinates": [ [ [ 93.22413421614074, 28.342426151789759 ], [ 93.223042335101923, 28.334364937622716 ], [ 93.253615004188774, 28.361942775562603 ], [ 93.282549851717391, 28.364912696571515 ], [ 93.294014602624969, 28.340304779640537 ], [ 93.336597963138786, 28.353457286965714 ], [ 93.360619345992731, 28.343698975079292 ], [ 93.360619345992731, 28.329697918894428 ], [ 93.370446275342076, 28.32630372345567 ], [ 93.378635383133201, 28.311454118411117 ], [ 93.384094788327275, 28.310605569551427 ], [ 93.38627855040491, 28.306362825252982 ], [ 93.408662111700636, 28.306787099682829 ], [ 93.423402505724653, 28.285149103760762 ], [ 93.425040327282886, 28.282603457181693 ], [ 93.428861910918741, 28.28302773161154 ], [ 93.453429234292088, 28.273693694154961 ], [ 93.455067055850321, 28.271572322005738 ], [ 93.456704877408541, 28.272420870865428 ], [ 93.457250817927957, 28.271996596435585 ], [ 93.446877948059196, 28.200294217791875 ], [ 93.459980520524994, 28.112893685243922 ], [ 93.486185665456574, 28.103559647787343 ], [ 93.505839524155263, 28.069193418969945 ], [ 93.570260505445404, 28.057313734934301 ], [ 93.587730602066458, 27.977550142123548 ], [ 93.618303271153309, 27.953790774052258 ], [ 93.584454958950005, 27.905847763479837 ], [ 93.601925055571073, 27.907544861199213 ], [ 93.592098126221728, 27.833296835976437 ], [ 93.509661107791118, 27.742926382419572 ], [ 93.532590609606245, 27.722136935357195 ], [ 93.537504074280918, 27.673769650354931 ], [ 93.51457457246579, 27.650010282283642 ], [ 93.329500736386478, 27.669526906056486 ], [ 93.291284900027918, 27.657647222020842 ], [ 93.229047680815412, 27.603340095000753 ], [ 93.238874610164757, 27.613946955746865 ], [ 93.229593621334814, 27.646191812415044 ], [ 93.195199368612123, 27.674618199214621 ], [ 93.223588275621339, 27.710681525751397 ], [ 93.201204714325598, 27.731895247243617 ], [ 93.225226097179558, 27.760321634043194 ], [ 93.238874610164757, 27.800627704878416 ], [ 93.202842535883832, 27.839660952424104 ], [ 93.199020952247977, 27.844327971152392 ], [ 93.197383130689744, 27.843055147862859 ], [ 93.176091450432835, 27.821417151940793 ], [ 93.130778387321982, 27.822265700800482 ], [ 93.09583819407986, 27.809113193475305 ], [ 93.074546513822952, 27.82693271952877 ], [ 92.978460982407142, 27.823962798519862 ], [ 92.944066729684437, 27.850692087600059 ], [ 92.931510097738055, 27.87826992553995 ], [ 92.931510097738055, 27.924940112822835 ], [ 92.865451294889695, 27.945729559885212 ], [ 92.859991889695607, 27.958033518350703 ], [ 92.859991889695607, 27.958033518350703 ], [ 92.859991889695607, 27.958457792780546 ], [ 92.756809131527504, 27.957609243920857 ], [ 92.734425570231778, 27.976701593263858 ], [ 92.74097685646467, 27.989005551729345 ], [ 92.710950127897235, 28.032705818003322 ], [ 92.66290736218933, 28.067496321250566 ], [ 92.68911250712091, 28.125621918139252 ], [ 92.801576254118956, 28.20199131551125 ], [ 92.817954469701192, 28.201142766651564 ], [ 92.829965161128172, 28.171019282132608 ], [ 92.89711584501535, 28.204112687660473 ], [ 92.914585941636417, 28.234660446609272 ], [ 92.966450290980177, 28.261389735689473 ], [ 93.001936424741686, 28.230417702310831 ], [ 93.03578473694499, 28.262662558979006 ], [ 93.02541186707623, 28.302968629814227 ], [ 93.096930075118678, 28.306787099682829 ], [ 93.126410863166711, 28.32630372345567 ], [ 93.195745309131524, 28.317393960428937 ], [ 93.22413421614074, 28.342426151789759 ] ] ] } },
{ "type": "Feature", "properties": { "dt_code": "255", "district": "Lower Subansiri", "st_code": "12", "year": "2011_c", "st_nm": "Arunachal Pradesh" }, "geometry": { "type": "Polygon", "coordinates": [ [ [ 93.942045999162247, 27.511272543724512 ], [ 93.888543828260254, 27.491331645521825 ], [ 93.852511753979329, 27.465026630871471 ], [ 93.849782051382292, 27.440418713940492 ], [ 93.827398490086566, 27.424720560036249 ], [ 93.835587597877691, 27.363625042138651 ], [ 93.826852549567164, 27.358109474550673 ], [ 93.806652750349059, 27.37126198187585 ], [ 93.784815129572749, 27.350472534813473 ], [ 93.740593947500699, 27.352593906962696 ], [ 93.665800096341798, 27.33604720419876 ], [ 93.63085990309969, 27.360230846699896 ], [ 93.612843865959221, 27.357260925690984 ], [ 93.600287234012839, 27.367443512007249 ], [ 93.578449613236529, 27.434903146352514 ], [ 93.557157932979607, 27.437873067361426 ], [ 93.568076743367769, 27.471815021748981 ], [ 93.607384460765147, 27.49387729210089 ], [ 93.617757330633893, 27.53206199078689 ], [ 93.562617338173695, 27.602067271711221 ], [ 93.544601301033225, 27.619886797764689 ], [ 93.542963479475006, 27.621583895484065 ], [ 93.577357732197711, 27.61734115118562 ], [ 93.67671890672996, 27.684800785530886 ], [ 93.70892939737503, 27.686073608820418 ], [ 93.767890973471097, 27.730198149524242 ], [ 93.768436913990499, 27.789596569702461 ], [ 93.864522445406308, 27.817174407642351 ], [ 93.890181649818487, 27.82014432865126 ], [ 93.907651746439541, 27.797233509439661 ], [ 93.890727590337889, 27.742926382419572 ], [ 93.919662437866521, 27.723409758646731 ], [ 93.925667783579996, 27.659344319740221 ], [ 93.941500058642831, 27.637282049388311 ], [ 94.053417865121475, 27.608007113729045 ], [ 94.049050340966204, 27.582550647938376 ], [ 94.106374095504052, 27.554124261138799 ], [ 94.106374095504052, 27.543941674822534 ], [ 94.071979842781346, 27.515515288022957 ], [ 93.942045999162247, 27.511272543724512 ] ] ] } },
{ "type": "Feature", "properties": { "dt_code": "247", "district": "East Kameng", "st_code": "12", "year": "2011_c", "st_nm": "Arunachal Pradesh" }, "geometry": { "type": "Polygon", "coordinates": [ [ [ 92.46090937000838, 27.781959629965261 ], [ 92.461455310527782, 27.784929550974173 ], [ 92.46855253728009, 27.814628761063283 ], [ 92.502946790002795, 27.840933775713637 ], [ 92.545530150516612, 27.816750133212505 ], [ 92.561908366098848, 27.820568603081107 ], [ 92.606675488690314, 27.876997102250414 ], [ 92.670550529461039, 27.89948364703217 ], [ 92.734425570231778, 27.976701593263858 ], [ 92.756809131527504, 27.957609243920857 ], [ 92.859991889695607, 27.958457792780546 ], [ 92.859991889695607, 27.958033518350703 ], [ 92.859991889695607, 27.958033518350703 ], [ 92.865451294889695, 27.945729559885212 ], [ 92.931510097738055, 27.924940112822835 ], [ 92.931510097738055, 27.87826992553995 ], [ 92.944066729684437, 27.850692087600059 ], [ 92.978460982407142, 27.823962798519862 ], [ 93.074546513822952, 27.82693271952877 ], [ 93.09583819407986, 27.809113193475305 ], [ 93.130778387321982, 27.822265700800482 ], [ 93.176091450432835, 27.821417151940793 ], [ 93.197383130689744, 27.843055147862859 ], [ 93.199020952247977, 27.844327971152392 ], [ 93.202842535883832, 27.839660952424104 ], [ 93.238874610164757, 27.800627704878416 ], [ 93.225226097179558, 27.760321634043194 ], [ 93.201204714325598, 27.731895247243617 ], [ 93.223588275621339, 27.710681525751397 ], [ 93.195199368612123, 27.674618199214621 ], [ 93.229593621334814, 27.646191812415044 ], [ 93.238874610164757, 27.613946955746865 ], [ 93.229047680815412, 27.603340095000753 ], [ 93.228501740296011, 27.602491546141067 ], [ 93.271631041329229, 27.594854606403867 ], [ 93.284187673275625, 27.588066215526354 ], [ 93.28200391119799, 27.577035080350399 ], [ 93.300019948338445, 27.578732178069778 ], [ 93.330592617425296, 27.556245633288022 ], [ 93.294014602624969, 27.521455130040778 ], [ 93.320765688075952, 27.48708890122338 ], [ 93.327316974308843, 27.460783886573026 ], [ 93.314760342362462, 27.441267262800181 ], [ 93.330046676905894, 27.442540086089714 ], [ 93.369900334822674, 27.414962248149827 ], [ 93.370446275342076, 27.414962248149827 ], [ 93.373721918458529, 27.369989158586314 ], [ 93.330046676905894, 27.354715279111915 ], [ 93.299474007819043, 27.399688368675427 ], [ 93.195199368612123, 27.378050372753361 ], [ 93.165172640044673, 27.311439287267785 ], [ 93.002482365261102, 27.249495220510497 ], [ 92.984466328120632, 27.219796010421387 ], [ 93.009579592013395, 27.200703661078386 ], [ 93.072362751745317, 27.203249307657455 ], [ 93.080551859536442, 27.186702604893519 ], [ 93.069087108628878, 27.171004450989276 ], [ 93.01176335409103, 27.142578064189699 ], [ 92.958261183189052, 27.158276218093942 ], [ 92.89547802345713, 27.13409257559281 ], [ 92.85726218709857, 27.140032417610634 ], [ 92.839246149958115, 27.131971203443587 ], [ 92.828327339569952, 27.161670413532697 ], [ 92.808673480871263, 27.176944293007097 ], [ 92.808673480871263, 27.177792841866786 ], [ 92.814678826584753, 27.17609574414741 ], [ 92.809219421390665, 27.200703661078386 ], [ 92.833786744764026, 27.21428044283341 ], [ 92.828327339569952, 27.224463029149675 ], [ 92.836516447361063, 27.232524243316718 ], [ 92.836516447361063, 27.232948517746564 ], [ 92.823959815414682, 27.241858280773297 ], [ 92.799392492041321, 27.260102081256608 ], [ 92.805943778274226, 27.295316858933695 ], [ 92.821230112817645, 27.287255644766653 ], [ 92.844705555152188, 27.293195486784473 ], [ 92.804305956715993, 27.329683087751093 ], [ 92.800484373080138, 27.350048260383627 ], [ 92.814678826584753, 27.354715279111915 ], [ 92.811949123987716, 27.37889892161305 ], [ 92.822867934375864, 27.378474647183204 ], [ 92.822867934375864, 27.40011264310527 ], [ 92.81904635074001, 27.41453797371998 ], [ 92.803760016196591, 27.417083620299049 ], [ 92.810857242948899, 27.425569108895935 ], [ 92.803760016196591, 27.448479928107535 ], [ 92.700577258028488, 27.450177025826914 ], [ 92.684744982965654, 27.47266357060867 ], [ 92.660177659592293, 27.482421882495093 ], [ 92.651442611281766, 27.500665682978401 ], [ 92.657993897514658, 27.525273599909379 ], [ 92.643799444010057, 27.552002888989577 ], [ 92.606675488690314, 27.562609749735689 ], [ 92.620324001675513, 27.587217666666668 ], [ 92.607221429209716, 27.597824527412776 ], [ 92.610497072326169, 27.619038248904999 ], [ 92.594664797263334, 27.630493658510797 ], [ 92.547167972074831, 27.621159621054222 ], [ 92.530789756492595, 27.628796560791422 ], [ 92.530243815973193, 27.680133766802598 ], [ 92.510589957274505, 27.714499995619995 ], [ 92.516049362468578, 27.734440893822686 ], [ 92.469644418318907, 27.777292611236973 ], [ 92.46090937000838, 27.781959629965261 ] ] ] } },
{ "type": "Feature", "properties": { "dt_code": "246", "district": "West Kameng", "st_code": "12", "year": "2011_c", "st_nm": "Arunachal Pradesh" }, "geometry": { "type": "Polygon", "coordinates": [ [ [ 92.013784084613235, 27.490058822232292 ], [ 92.013784084613235, 27.491331645521825 ], [ 92.049270218374758, 27.51678811131249 ], [ 92.112053378106665, 27.525273599909379 ], [ 92.151907036023459, 27.577459354780245 ], [ 92.209230790561293, 27.580429275789154 ], [ 92.22233336302709, 27.60291582057091 ], [ 92.22233336302709, 27.627099463072042 ], [ 92.244716924322816, 27.650858831143331 ], [ 92.269830188215579, 27.648313184564266 ], [ 92.342986217816247, 27.672496827065398 ], [ 92.393212745601787, 27.672496827065398 ], [ 92.413412544819877, 27.708984428032018 ], [ 92.412866604300476, 27.755654615314906 ], [ 92.459817488969563, 27.781535355535418 ], [ 92.46090937000838, 27.781959629965261 ], [ 92.469644418318907, 27.777292611236973 ], [ 92.516049362468578, 27.734440893822686 ], [ 92.510589957274505, 27.714499995619995 ], [ 92.530243815973193, 27.680133766802598 ], [ 92.530789756492595, 27.628796560791422 ], [ 92.547167972074831, 27.621159621054222 ], [ 92.594664797263334, 27.630493658510797 ], [ 92.610497072326169, 27.619038248904999 ], [ 92.607221429209716, 27.597824527412776 ], [ 92.620324001675513, 27.587217666666668 ], [ 92.606675488690314, 27.562609749735689 ], [ 92.643799444010057, 27.552002888989577 ], [ 92.657993897514658, 27.525273599909379 ], [ 92.651442611281766, 27.500665682978401 ], [ 92.660177659592293, 27.482421882495093 ], [ 92.684744982965654, 27.47266357060867 ], [ 92.700577258028488, 27.450177025826914 ], [ 92.803760016196591, 27.448479928107535 ], [ 92.810857242948899, 27.425569108895935 ], [ 92.803760016196591, 27.417083620299049 ], [ 92.81904635074001, 27.41453797371998 ], [ 92.822867934375864, 27.40011264310527 ], [ 92.822867934375864, 27.378474647183204 ], [ 92.811949123987716, 27.37889892161305 ], [ 92.814678826584753, 27.354715279111915 ], [ 92.800484373080138, 27.350048260383627 ], [ 92.804305956715993, 27.329683087751093 ], [ 92.844705555152188, 27.293195486784473 ], [ 92.821230112817645, 27.287255644766653 ], [ 92.805943778274226, 27.295316858933695 ], [ 92.799392492041321, 27.260102081256608 ], [ 92.823959815414682, 27.241858280773297 ], [ 92.836516447361063, 27.232948517746564 ], [ 92.836516447361063, 27.232524243316718 ], [ 92.828327339569952, 27.224463029149675 ], [ 92.833786744764026, 27.21428044283341 ], [ 92.809219421390665, 27.200703661078386 ], [ 92.814678826584753, 27.17609574414741 ], [ 92.808673480871263, 27.177792841866786 ], [ 92.762814477240994, 27.190945349191963 ], [ 92.752441607372234, 27.193490995771032 ], [ 92.690204388159728, 27.171852999848966 ], [ 92.615410537000841, 27.143002338619542 ], [ 92.601216083496226, 27.117545872828877 ], [ 92.594664797263334, 27.095059328047121 ], [ 92.597940440379773, 27.053056159492524 ], [ 92.65690201647584, 27.008083069929015 ], [ 92.64489132504886, 26.986869348436791 ], [ 92.600670142976824, 26.966928450234104 ], [ 92.597940440379773, 26.966079901374414 ], [ 92.570097473889973, 26.959715784926747 ], [ 92.563000247137666, 26.958018687207371 ], [ 92.447260857023181, 26.958867236067057 ], [ 92.425969176766259, 26.941047710013592 ], [ 92.411774723261658, 26.942744807732971 ], [ 92.398126210276459, 26.924925281679503 ], [ 92.359910373917899, 26.925773830539192 ], [ 92.364823838592571, 26.93213794698686 ], [ 92.302586619380065, 26.92280390953028 ], [ 92.303132559899467, 26.907105755626038 ], [ 92.275835533929069, 26.902014462467903 ], [ 92.255089794191562, 26.909651402205103 ], [ 92.194490396537276, 26.890134778432259 ], [ 92.113691199664899, 26.892680425011328 ], [ 92.108231794470811, 26.893104699441171 ], [ 92.117512783300754, 26.959291510496904 ], [ 92.102772389276737, 26.982202329708503 ], [ 92.103864270315555, 27.007234521069325 ], [ 92.080388827981011, 27.019962753964656 ], [ 92.064556552918177, 27.051359061773145 ], [ 92.045448634738904, 27.051359061773145 ], [ 92.034529824350741, 27.064087294668479 ], [ 92.023065073443178, 27.114151677390122 ], [ 92.037259526947778, 27.137911045461411 ], [ 92.024156954481981, 27.161670413532697 ], [ 92.056913385646467, 27.188823977042741 ], [ 92.070561898631667, 27.223190205860142 ], [ 92.066740314995812, 27.244403927352362 ], [ 92.040535170064231, 27.266041923274429 ], [ 92.071107839151068, 27.276648784020541 ], [ 92.102772389276737, 27.268587569853494 ], [ 92.119696545378389, 27.275375960731008 ], [ 92.121334366936608, 27.286831370336806 ], [ 92.059643088243504, 27.326713166742184 ], [ 92.061280909801724, 27.344956967225496 ], [ 92.047632396816525, 27.367867786437095 ], [ 92.05582150460765, 27.399688368675427 ], [ 92.039989229544815, 27.436175969642047 ], [ 92.020335370846126, 27.447207104818002 ], [ 92.013784084613235, 27.490058822232292 ] ] ] } },
{ "type": "Feature", "properties": { "dt_code": "763", "district": "Kra Daadi", "st_code": "12", "year": "2015_c", "st_nm": "Arunachal Pradesh" }, "geometry": { "type": "Polygon", "coordinates": [ [ [ 93.456704877408541, 28.272420870865428 ], [ 93.479634379223683, 28.281330633892161 ], [ 93.554974170901986, 28.259268363540251 ], [ 93.560979516615461, 28.260541186829784 ], [ 93.603016936609876, 28.269450949856516 ], [ 93.611751984920417, 28.271572322005738 ], [ 93.611751984920417, 28.271996596435585 ], [ 93.627584259983237, 28.306787099682829 ], [ 93.660340691147724, 28.304665727533607 ], [ 93.679994549846413, 28.322060979157229 ], [ 93.701832170622723, 28.308059922972362 ], [ 93.765707211393462, 28.263086833408849 ], [ 93.839955122032947, 28.236781818758494 ], [ 93.846506408265839, 28.207931157529075 ], [ 93.892365411896122, 28.128591839148164 ], [ 93.876533136833288, 28.120954899410965 ], [ 93.880900660988544, 28.107802392085787 ], [ 93.854695516056964, 28.081497377435433 ], [ 93.874895315275054, 28.073011888838543 ], [ 93.873803434236237, 28.053495265065699 ], [ 93.909835508517176, 28.029311622564567 ], [ 93.912565211114213, 28.012764919800635 ], [ 93.940954118123429, 28.000460961335147 ], [ 93.94914322591454, 27.980520063132456 ], [ 93.961699857860935, 27.97882296541308 ], [ 93.944775701759283, 27.96439763479837 ], [ 93.926759664618814, 27.919848819664704 ], [ 93.882538482546778, 27.909666233348435 ], [ 93.883630363585581, 27.900756470321703 ], [ 93.92730560513823, 27.88505831641746 ], [ 93.910927389555994, 27.830751189397372 ], [ 93.890181649818487, 27.82014432865126 ], [ 93.864522445406308, 27.817174407642351 ], [ 93.768436913990499, 27.789596569702461 ], [ 93.767890973471097, 27.730198149524242 ], [ 93.70892939737503, 27.686073608820418 ], [ 93.67671890672996, 27.684800785530886 ], [ 93.577357732197711, 27.61734115118562 ], [ 93.542963479475006, 27.621583895484065 ], [ 93.51457457246579, 27.650010282283642 ], [ 93.537504074280918, 27.673769650354931 ], [ 93.532590609606245, 27.722136935357195 ], [ 93.509661107791118, 27.742926382419572 ], [ 93.592098126221728, 27.833296835976437 ], [ 93.601925055571073, 27.907544861199213 ], [ 93.584454958950005, 27.905847763479837 ], [ 93.618303271153309, 27.953790774052258 ], [ 93.587730602066458, 27.977550142123548 ], [ 93.570260505445404, 28.057313734934301 ], [ 93.505839524155263, 28.069193418969945 ], [ 93.486185665456574, 28.103559647787343 ], [ 93.459980520524994, 28.112893685243922 ], [ 93.446877948059196, 28.200294217791875 ], [ 93.457250817927957, 28.271996596435585 ], [ 93.456704877408541, 28.272420870865428 ] ] ] } },
{ "type": "Feature", "properties": { "dt_code": "762", "district": "Namsai", "st_code": "12", "year": "2014_c", "st_nm": "Arunachal Pradesh" }, "geometry": { "type": "Polygon", "coordinates": [ [ [ 96.3114278533929, 27.569822415043046 ], [ 96.307606269757045, 27.566852494034134 ], [ 96.293957756771846, 27.558791279867091 ], [ 96.224623310807033, 27.568125317323666 ], [ 96.132905303546494, 27.606310016009665 ], [ 96.125808076794186, 27.619462523334843 ], [ 96.061387095504045, 27.606310016009665 ], [ 96.001879578888577, 27.556669907717868 ], [ 95.874129497347099, 27.546911595831446 ], [ 95.874129497347099, 27.544365949252377 ], [ 95.874129497347099, 27.544365949252377 ], [ 95.863756627478352, 27.543517400392691 ], [ 95.860480984361899, 27.543093125962844 ], [ 95.814076040212228, 27.574489433771333 ], [ 95.815713861770448, 27.59697597855309 ], [ 95.815713861770448, 27.598673076272465 ], [ 95.791146538397086, 27.599521625132155 ], [ 95.788416835800049, 27.604188643860443 ], [ 95.779681787489523, 27.621159621054222 ], [ 95.795514062552357, 27.641949068116599 ], [ 95.770400798659594, 27.658071496450688 ], [ 95.775314263334266, 27.674618199214621 ], [ 95.790600597877685, 27.680133766802598 ], [ 95.767671096062543, 27.687346432109955 ], [ 95.765487333984922, 27.714924270049842 ], [ 95.755114464116161, 27.725106856366107 ], [ 95.761665750349067, 27.72722822851533 ], [ 95.774222382295449, 27.731895247243617 ], [ 95.770946739178996, 27.729773875094395 ], [ 95.804795051382285, 27.736137991542062 ], [ 96.023171259145485, 27.850267813170216 ], [ 96.207699154705381, 27.87742137668026 ], [ 96.273212017034339, 27.787899471983085 ], [ 96.260655385087958, 27.71959128877813 ], [ 96.269936373917901, 27.651707380003021 ], [ 96.291773994694211, 27.627948011931732 ], [ 96.285222708461319, 27.59527888083371 ], [ 96.3114278533929, 27.569822415043046 ] ] ] } },
{ "type": "Feature", "properties": { "dt_code": "761", "district": "Longding", "st_code": "12", "year": "2012_c", "st_nm": "Arunachal Pradesh" }, "geometry": { "type": "Polygon", "coordinates": [ [ [ 95.376231743647025, 27.0967564257665 ], [ 95.376777684166427, 27.095907876906811 ], [ 95.374593922088792, 27.092937955897899 ], [ 95.387150554035188, 27.084452467301013 ], [ 95.388788375593407, 27.044570670895634 ], [ 95.360399468584191, 27.03269098685999 ], [ 95.377323624685843, 27.008931618788701 ], [ 95.3680426358559, 26.935532142425615 ], [ 95.378961446244062, 26.912621323214015 ], [ 95.394793721306897, 26.901165913608217 ], [ 95.440652724937166, 26.867223959220659 ], [ 95.505073706227307, 26.876557996677239 ], [ 95.49633865791678, 26.818008125358705 ], [ 95.504527765707905, 26.792551659568041 ], [ 95.482144204412165, 26.746305746714999 ], [ 95.459214702597038, 26.74291155127624 ], [ 95.427004211951967, 26.697938461712731 ], [ 95.37404798156939, 26.683937405527864 ], [ 95.360399468584191, 26.670784898202687 ], [ 95.335286204691428, 26.673754819211599 ], [ 95.30362165456576, 26.650844 ], [ 95.259400472493709, 26.655511018728287 ], [ 95.257216710416074, 26.676300465790664 ], [ 95.233741268081531, 26.683088856668178 ], [ 95.232649387042727, 26.705999675879777 ], [ 95.210265825747001, 26.728910495091377 ], [ 95.216271171460477, 26.755639784171574 ], [ 95.242476316392072, 26.782369073251775 ], [ 95.241930375872656, 26.782793347681618 ], [ 95.208082063669366, 26.795097306147106 ], [ 95.197163253281204, 26.822675144086997 ], [ 95.203168598994694, 26.846434512158282 ], [ 95.180785037698968, 26.856192824044705 ], [ 95.208628004188768, 26.882497838695059 ], [ 95.228281862887457, 26.880800740975683 ], [ 95.232103446523311, 26.902863011327593 ], [ 95.229919684445676, 26.92280390953028 ], [ 95.206444242111132, 26.941896258873282 ], [ 95.202076717955876, 26.958018687207371 ], [ 95.211357706785805, 26.966079901374414 ], [ 95.191703848087116, 26.984747976287569 ], [ 95.195525431722984, 27.034812359009212 ], [ 95.210811766266403, 27.028448242561545 ], [ 95.232103446523311, 27.042873573176259 ], [ 95.246297900027926, 27.023781223833257 ], [ 95.258854531974308, 27.030569614710767 ], [ 95.261038294051943, 27.03269098685999 ], [ 95.29161096313878, 27.066632941247544 ], [ 95.368588576375316, 27.109908933091678 ], [ 95.369134516894718, 27.10524191436339 ], [ 95.371318278972353, 27.093362230327745 ], [ 95.376231743647025, 27.0967564257665 ] ] ] } },
{ "type": "Feature", "properties": { "dt_code": "252", "district": "Upper Siang", "st_code": "12", "year": "2011_c", "st_nm": "Arunachal Pradesh" }, "geometry": { "type": "Polygon", "coordinates": [ [ [ 95.383328970399333, 28.312302667270806 ], [ 95.346205015079576, 28.283876280471226 ], [ 95.34183749092432, 28.244843032925541 ], [ 95.305259476123979, 28.224053585863164 ], [ 95.303075714046358, 28.202415589941097 ], [ 95.26977334236247, 28.197324296782963 ], [ 95.227735922368055, 28.155745402658209 ], [ 95.2239143387322, 28.151926932789607 ], [ 95.192249788606532, 28.164655165684941 ], [ 95.171504048869025, 28.196475747923273 ], [ 95.137109796146319, 28.20368841323063 ], [ 95.130558509913428, 28.216840920555807 ], [ 95.138747617704553, 28.228720604591452 ], [ 95.106537127059482, 28.263511107838696 ], [ 95.11745593744763, 28.376368106177313 ], [ 95.082515744205523, 28.395036181090468 ], [ 95.081423863166705, 28.414977079293159 ], [ 95.104353364981847, 28.444252014952426 ], [ 95.110904651214739, 28.46292008986558 ], [ 95.10162366238481, 28.483709536927957 ], [ 95.110358710695337, 28.500680514121733 ], [ 95.084153565763756, 28.526561254342244 ], [ 95.038294562133473, 28.515530119166289 ], [ 94.988613974867349, 28.52910690092131 ], [ 94.972235759285113, 28.565594501887933 ], [ 94.958041305780512, 28.572807167195286 ], [ 94.901809432281482, 28.549047799124001 ], [ 94.819918354370287, 28.568140148466998 ], [ 94.795351030996926, 28.546077878115089 ], [ 94.758773016196585, 28.534198194079444 ], [ 94.777334993856456, 28.559230385440266 ], [ 94.759864897235403, 28.560078934299955 ], [ 94.74676232476962, 28.588081046669686 ], [ 94.745670443730802, 28.686512714393597 ], [ 94.633752637252158, 28.766700581634193 ], [ 94.633206696732756, 28.784095833257815 ], [ 94.620104124266959, 28.793854145144238 ], [ 94.592261157777159, 28.791732772995015 ], [ 94.561688488690308, 28.81040084790817 ], [ 94.525110473889967, 28.811673671197703 ], [ 94.515283544540623, 28.821007708654282 ], [ 94.516921366098856, 28.836705862558524 ], [ 94.479797410779113, 28.858343858480591 ], [ 94.449770682211664, 28.886345970850325 ], [ 94.441581574420553, 28.891861538438302 ], [ 94.395722570790284, 28.932167609273524 ], [ 94.342766340407707, 28.983929089714543 ], [ 94.187173292376428, 29.038660491164478 ], [ 94.217200020943864, 29.083633580727987 ], [ 94.290356050544531, 29.148123294064341 ], [ 94.359144555989943, 29.152366038362786 ], [ 94.374976831052777, 29.190126462618942 ], [ 94.433938407148844, 29.226614063585561 ], [ 94.496721566880751, 29.216431477269296 ], [ 94.56059660765149, 29.228735435734784 ], [ 94.580250466350179, 29.280496916175807 ], [ 94.621741945825178, 29.312741772843982 ], [ 94.631022934655121, 29.348380824950915 ], [ 94.679611640882428, 29.327591377888538 ], [ 94.739119157497896, 29.281769739465339 ], [ 94.793167268919291, 29.225765514725872 ], [ 94.798626674113379, 29.194793481347229 ], [ 94.799718555152182, 29.163821447968587 ], [ 94.873966465791682, 29.183762346171275 ], [ 94.920917350460755, 29.161275801389518 ], [ 94.969506056688076, 29.158730154810453 ], [ 95.024646049148274, 29.129455219151186 ], [ 94.988613974867349, 29.17273121099532 ], [ 94.999532785255511, 29.172306936565473 ], [ 95.041570205249926, 29.151517489503096 ], [ 95.099985840826577, 29.142607726476363 ], [ 95.12346128316112, 29.115029888536476 ], [ 95.252303245741416, 29.108665772088809 ], [ 95.251211364702598, 29.067086877964055 ], [ 95.26977334236247, 29.049691626340433 ], [ 95.275778688075945, 29.028902179278056 ], [ 95.24575195950851, 29.001324341338169 ], [ 95.263222056129564, 28.965685289231235 ], [ 95.257216710416074, 28.951684233046368 ], [ 95.257216710416074, 28.951259958616525 ], [ 95.281238093270034, 28.945744391028548 ], [ 95.301437892488124, 28.958472623923878 ], [ 95.327643037419705, 28.928349139404922 ], [ 95.318907989109178, 28.911378162211147 ], [ 95.328188977939121, 28.895255733877057 ], [ 95.317270167550959, 28.886770245280168 ], [ 95.32382145378385, 28.844342802295728 ], [ 95.356031944428921, 28.82567472738257 ], [ 95.360945409103593, 28.790884224135326 ], [ 95.377869565205245, 28.779004540099685 ], [ 95.372956100530573, 28.765427758344661 ], [ 95.392609959229262, 28.742092664703218 ], [ 95.3538481823513, 28.706877887026128 ], [ 95.372956100530573, 28.621174452197554 ], [ 95.383328970399333, 28.572807167195286 ], [ 95.402982829098008, 28.569837246186378 ], [ 95.410080055850315, 28.554563366711978 ], [ 95.396431542865116, 28.532501096360065 ], [ 95.395339661826299, 28.531228273070532 ], [ 95.394793721306897, 28.529955449780999 ], [ 95.395339661826299, 28.529955449780999 ], [ 95.394793721306897, 28.512984472587224 ], [ 95.338561847807867, 28.476921146050447 ], [ 95.339653728846685, 28.440857819513667 ], [ 95.319999870147996, 28.426432488898957 ], [ 95.339107788327283, 28.406915865126113 ], [ 95.338015907288465, 28.365761245431205 ], [ 95.369134516894718, 28.358124305694005 ], [ 95.382783029879917, 28.313575490560339 ], [ 95.383328970399333, 28.312302667270806 ] ] ] } },
{ "type": "Feature", "properties": { "dt_code": "779", "district": "Lower Siang", "st_code": "12", "year": "2018", "st_nm": "Arunachal Pradesh" }, "geometry": { "type": "Polygon", "coordinates": [ [ [ 94.318199017034345, 27.773049866938528 ], [ 94.334577232616581, 27.760321634043194 ], [ 94.335123173135997, 27.760321634043194 ], [ 94.382074057805085, 27.797233509439661 ], [ 94.4383059313041, 27.812931663343907 ], [ 94.44431127701759, 27.828629817248149 ], [ 94.582434228427815, 27.860026125056638 ], [ 94.588985514660706, 27.861723222776014 ], [ 94.589531455180108, 27.866390241504305 ], [ 94.594990860374196, 27.87063298580275 ], [ 94.631568875174523, 27.866814515934148 ], [ 94.645763328679138, 27.850267813170216 ], [ 94.717281536721586, 27.825235621809394 ], [ 94.723832822954478, 27.794687862860595 ], [ 94.746216384250204, 27.773049866938528 ], [ 94.808999543982125, 27.785778099833863 ], [ 94.900171610723262, 27.823114249660172 ], [ 94.905085075397935, 27.842630873433016 ], [ 94.928560517732478, 27.857056204047726 ], [ 94.909452599553191, 27.859601850626792 ], [ 94.909452599553191, 27.860026125056638 ], [ 94.908906659033789, 27.860026125056638 ], [ 94.905631015917336, 27.880391297689172 ], [ 94.924192993577208, 27.889301060715905 ], [ 94.956949424741694, 27.980944337562303 ], [ 94.922009231499572, 27.997491040326235 ], [ 94.921463290980171, 27.997491040326235 ], [ 94.880517752024573, 28.000460961335147 ], [ 94.880517752024573, 28.000460961335147 ], [ 94.894166265009773, 28.0153105663797 ], [ 94.894166265009773, 28.015734840809547 ], [ 94.926922696174245, 28.050949618486634 ], [ 94.928014577213062, 28.052222441776166 ], [ 95.067229409662104, 28.023371780546746 ], [ 95.089067030438414, 27.967791830237125 ], [ 95.071596933817361, 27.916030349796102 ], [ 95.120731580564083, 27.903302116900768 ], [ 95.115272175370009, 27.856631929617883 ], [ 95.136563855626918, 27.815901584352815 ], [ 94.961862889416366, 27.76159445733273 ], [ 94.852128845015358, 27.727652502945173 ], [ 94.840664094107794, 27.700498939435132 ], [ 94.793713209438707, 27.695407646276998 ], [ 94.754405492041329, 27.660617143029754 ], [ 94.724924703993295, 27.669102631626643 ], [ 94.709092428930461, 27.656798673161155 ], [ 94.687800748673553, 27.665284161758041 ], [ 94.682341343479465, 27.646191812415044 ], [ 94.66268748478079, 27.645343263555354 ], [ 94.633206696732756, 27.624129542063134 ], [ 94.587347693102487, 27.618613974475153 ], [ 94.574245120636689, 27.6037643694306 ], [ 94.544764332588656, 27.601218722851534 ], [ 94.498905328958386, 27.572368061622111 ], [ 94.477613648701478, 27.576186531490713 ], [ 94.461781373638644, 27.555397084428336 ], [ 94.431754645071209, 27.600370173991845 ], [ 94.431754645071209, 27.600370173991845 ], [ 94.431754645071209, 27.600370173991845 ], [ 94.364603961184017, 27.574489433771333 ], [ 94.362966139625797, 27.574913708201176 ], [ 94.297999217816255, 27.602067271711221 ], [ 94.277253478078748, 27.589763313245733 ], [ 94.254323976263606, 27.614371230176712 ], [ 94.257599619380059, 27.617765425615467 ], [ 94.266880608209988, 27.627523737501889 ], [ 94.266334667690586, 27.628372286361575 ], [ 94.264696846132367, 27.630917932940644 ], [ 94.261421203015914, 27.636009226098775 ], [ 94.256507738341242, 27.635160677239089 ], [ 94.246134868472495, 27.633887853949552 ], [ 94.237399820161968, 27.63261503066002 ], [ 94.223751307176769, 27.61818970004531 ], [ 94.212286556269191, 27.606734290439512 ], [ 94.209556853672154, 27.608855662588734 ], [ 94.244497046914262, 27.649161733423952 ], [ 94.353685150795869, 27.722985484216885 ], [ 94.353685150795869, 27.72722822851533 ], [ 94.349863567160014, 27.729773875094395 ], [ 94.335669113655399, 27.724682581936264 ], [ 94.335669113655399, 27.725106856366107 ], [ 94.313831492879075, 27.739956461410664 ], [ 94.312739611840271, 27.74080501027035 ], [ 94.317107135995528, 27.768807122640084 ], [ 94.318199017034345, 27.773049866938528 ] ] ] } },
{ "type": "Feature", "properties": { "dt_code": "257", "district": "Upper Dibang Valley", "st_code": "12", "year": "2011_c", "st_nm": "Arunachal Pradesh" }, "geometry": { "type": "Polygon", "coordinates": [ [ [ 95.395339661826299, 28.529955449780999 ], [ 95.394793721306897, 28.529955449780999 ], [ 95.395339661826299, 28.531228273070532 ], [ 95.396431542865116, 28.532501096360065 ], [ 95.410080055850315, 28.554563366711978 ], [ 95.402982829098008, 28.569837246186378 ], [ 95.383328970399333, 28.572807167195286 ], [ 95.372956100530573, 28.621174452197554 ], [ 95.3538481823513, 28.706877887026128 ], [ 95.392609959229262, 28.742092664703218 ], [ 95.372956100530573, 28.765427758344661 ], [ 95.377869565205245, 28.779004540099685 ], [ 95.360945409103593, 28.790884224135326 ], [ 95.356031944428921, 28.82567472738257 ], [ 95.32382145378385, 28.844342802295728 ], [ 95.317270167550959, 28.886770245280168 ], [ 95.328188977939121, 28.895255733877057 ], [ 95.318907989109178, 28.911378162211147 ], [ 95.327643037419705, 28.928349139404922 ], [ 95.301437892488124, 28.958472623923878 ], [ 95.281238093270034, 28.945744391028548 ], [ 95.257216710416074, 28.951259958616525 ], [ 95.257216710416074, 28.951684233046368 ], [ 95.263222056129564, 28.965685289231235 ], [ 95.24575195950851, 29.001324341338169 ], [ 95.275778688075945, 29.028902179278056 ], [ 95.26977334236247, 29.049691626340433 ], [ 95.267589580284834, 29.0560557427881 ], [ 95.287243438983523, 29.060722761516388 ], [ 95.400799067020387, 29.033569198006344 ], [ 95.455393118961183, 29.035266295725723 ], [ 95.487057669086838, 29.074299543271408 ], [ 95.497430538955598, 29.138789256607765 ], [ 95.547657066741124, 29.126909572572121 ], [ 95.538922018430597, 29.212613007400694 ], [ 95.586964784138502, 29.216431477269296 ], [ 95.600067356604299, 29.260556017973116 ], [ 95.639375074001677, 29.248252059507628 ], [ 95.703250114772402, 29.298740716659115 ], [ 95.728363378665179, 29.300862088808337 ], [ 95.779135846970121, 29.354744941398579 ], [ 95.797697824629992, 29.334804043195891 ], [ 95.849562173973752, 29.357290587977648 ], [ 95.882318605138224, 29.389959719075669 ], [ 95.958750277855344, 29.381049956048937 ], [ 96.057019571348775, 29.456995078991088 ], [ 96.088684121474444, 29.459965 ], [ 96.176580545099128, 29.362381881135782 ], [ 96.186953414967888, 29.342440982933091 ], [ 96.184223712370837, 29.307226205256004 ], [ 96.244277169505722, 29.232553905603382 ], [ 96.293411816252444, 29.232978180033228 ], [ 96.313065674951133, 29.256313273674671 ], [ 96.345822106115605, 29.26479876227156 ], [ 96.363838143256075, 29.283042562754872 ], [ 96.37584883468304, 29.28092119060565 ], [ 96.393318931304094, 29.253767627095606 ], [ 96.346913987154423, 29.168064192267028 ], [ 96.260655385087958, 29.15745733152092 ], [ 96.218072024574141, 29.135395061169007 ], [ 96.185861533929071, 29.09169479489503 ], [ 96.114889266406024, 29.074723817701255 ], [ 96.150921340686949, 29.050115900770276 ], [ 96.184769652890253, 28.985201913004079 ], [ 96.180402128734983, 28.965261014801388 ], [ 96.15528886484222, 28.952532781906058 ], [ 96.145461935492875, 28.934288981422746 ], [ 96.166207675230382, 28.902468399184414 ], [ 96.248098753141576, 28.939380274580881 ], [ 96.293411816252444, 28.995384499320345 ], [ 96.346913987154423, 29.028902179278056 ], [ 96.435902291817925, 29.033993472436187 ], [ 96.524890596481427, 29.075996640990788 ], [ 96.477393771292924, 28.99029320616221 ], [ 96.487220700642268, 28.96144254493279 ], [ 96.518339310248535, 28.967382386950611 ], [ 96.53799316894721, 28.916893729799124 ], [ 96.536901287908407, 28.879981854402658 ], [ 96.607327614912037, 28.793429870714395 ], [ 96.614424841664331, 28.760336465186526 ], [ 96.584944053616297, 28.717060473342396 ], [ 96.47193436609885, 28.683542793384685 ], [ 96.492680105836357, 28.633478410663042 ], [ 96.426621302987982, 28.582565479081708 ], [ 96.399870217537, 28.589778144389065 ], [ 96.405329622731074, 28.559230385440266 ], [ 96.353465273387314, 28.555836190001511 ], [ 96.324530425858697, 28.529531175351156 ], [ 96.325622306897515, 28.510863100438002 ], [ 96.27594171963139, 28.5070446305694 ], [ 96.256287860932702, 28.537592389518199 ], [ 96.224077370287631, 28.531228273070532 ], [ 96.176580545099128, 28.5146815703066 ], [ 96.171667080424456, 28.496862044253135 ], [ 96.10342451549846, 28.488800830086088 ], [ 96.014436210834958, 28.507468904999246 ], [ 95.996966114213905, 28.488800830086088 ], [ 95.948377407986598, 28.482012439208578 ], [ 95.944009883831328, 28.431099507627248 ], [ 95.959842158894162, 28.41327998157378 ], [ 95.946193645908963, 28.402248846397825 ], [ 95.908523750069804, 28.399278925388913 ], [ 95.850108114493153, 28.366185519861048 ], [ 95.844648709299079, 28.338607681921161 ], [ 95.883410486177041, 28.305938550823139 ], [ 95.833183958391501, 28.27454224301465 ], [ 95.796060003071759, 28.315696862709562 ], [ 95.764395452946104, 28.317393960428937 ], [ 95.685234077631947, 28.348790268237426 ], [ 95.675953088802004, 28.36236704999245 ], [ 95.573316271153303, 28.370852538589336 ], [ 95.58041349790561, 28.46292008986558 ], [ 95.559667758168104, 28.48498236021749 ], [ 95.527457267523033, 28.480315341489202 ], [ 95.514900635576652, 28.502377611841112 ], [ 95.395339661826299, 28.529955449780999 ] ] ] } },
{ "type": "Feature", "properties": { "dt_code": "258", "district": "Lower Dibang Valley", "st_code": "12", "year": "2011_c", "st_nm": "Arunachal Pradesh" }, "geometry": { "type": "Polygon", "coordinates": [ [ [ 96.313611615470535, 28.38358077148467 ], [ 96.30378468612119, 28.373822459598248 ], [ 96.306514388718227, 28.371276813019183 ], [ 96.30542250767941, 28.369579715299803 ], [ 96.290136173135991, 28.344547523938981 ], [ 96.238271823792232, 28.299574434375472 ], [ 96.267752611840265, 28.238903190907717 ], [ 96.21534232197709, 28.230841976740674 ], [ 96.142186292376422, 28.170170733272919 ], [ 96.100694812901423, 28.190111631475609 ], [ 96.089776002513261, 28.191384454765142 ], [ 96.067938381736937, 28.190535905905453 ], [ 96.069030262775755, 28.167625086693853 ], [ 96.070668084333974, 28.12350054599003 ], [ 96.070668084333974, 28.120954899410965 ], [ 96.059749273945826, 28.091679963751698 ], [ 96.058657392907008, 28.0878614938831 ], [ 96.058657392907008, 28.087437219453253 ], [ 96.057019571348775, 28.085740121733878 ], [ 96.019895616029032, 28.040767032170368 ], [ 96.013890270315557, 27.995369668177013 ], [ 95.986593244345144, 27.958457792780546 ], [ 95.969669088243506, 27.960154890499926 ], [ 95.96912314772409, 27.960154890499926 ], [ 95.971852850321142, 27.962700537078991 ], [ 95.847924352415518, 27.969488927956501 ], [ 95.820081385925718, 27.97118602567588 ], [ 95.819535445406302, 27.97118602567588 ], [ 95.606618642837191, 27.955063597341791 ], [ 95.606618642837191, 27.954639322911948 ], [ 95.585872903099684, 27.936819796858479 ], [ 95.570586568556266, 27.937668345718169 ], [ 95.57004062803685, 27.935971247998793 ], [ 95.563489341803958, 27.919424545234858 ], [ 95.519268159731908, 27.883361218698081 ], [ 95.501798063110854, 27.946153834315059 ], [ 95.500706182072037, 27.949972304183657 ], [ 95.502889944149672, 27.952942225192569 ], [ 95.53018697012007, 28.0000366869053 ], [ 95.560213698687519, 28.051373892916477 ], [ 95.562943401284556, 28.066223497961033 ], [ 95.564035282323374, 28.255025619241806 ], [ 95.562943401284556, 28.256298442531339 ], [ 95.537284196872378, 28.283452006041383 ], [ 95.535100434794742, 28.284724829330916 ], [ 95.47613885869869, 28.261814010119316 ], [ 95.465220048310528, 28.257571265820872 ], [ 95.465220048310528, 28.257571265820872 ], [ 95.455393118961183, 28.277512164023562 ], [ 95.436831141301312, 28.313999764990182 ], [ 95.389334316112809, 28.307635648542515 ], [ 95.384420851438136, 28.312302667270806 ], [ 95.383328970399333, 28.312302667270806 ], [ 95.382783029879917, 28.313575490560339 ], [ 95.369134516894718, 28.358124305694005 ], [ 95.338015907288465, 28.365761245431205 ], [ 95.339107788327283, 28.406915865126113 ], [ 95.319999870147996, 28.426432488898957 ], [ 95.339653728846685, 28.440857819513667 ], [ 95.338561847807867, 28.476921146050447 ], [ 95.394793721306897, 28.512984472587224 ], [ 95.395339661826299, 28.529955449780999 ], [ 95.514900635576652, 28.502377611841112 ], [ 95.527457267523033, 28.480315341489202 ], [ 95.559667758168104, 28.48498236021749 ], [ 95.58041349790561, 28.46292008986558 ], [ 95.573316271153303, 28.370852538589336 ], [ 95.675953088802004, 28.36236704999245 ], [ 95.685234077631947, 28.348790268237426 ], [ 95.764395452946104, 28.317393960428937 ], [ 95.796060003071759, 28.315696862709562 ], [ 95.833183958391501, 28.27454224301465 ], [ 95.883410486177041, 28.305938550823139 ], [ 95.844648709299079, 28.338607681921161 ], [ 95.850108114493153, 28.366185519861048 ], [ 95.908523750069804, 28.399278925388913 ], [ 95.946193645908963, 28.402248846397825 ], [ 95.959842158894162, 28.41327998157378 ], [ 95.944009883831328, 28.431099507627248 ], [ 95.948377407986598, 28.482012439208578 ], [ 95.996966114213905, 28.488800830086088 ], [ 96.014436210834958, 28.507468904999246 ], [ 96.10342451549846, 28.488800830086088 ], [ 96.171667080424456, 28.496862044253135 ], [ 96.176580545099128, 28.5146815703066 ], [ 96.224077370287631, 28.531228273070532 ], [ 96.256287860932702, 28.537592389518199 ], [ 96.27594171963139, 28.5070446305694 ], [ 96.325622306897515, 28.510863100438002 ], [ 96.326168247416916, 28.524015607763179 ], [ 96.365475964814294, 28.499831965262047 ], [ 96.371481310527784, 28.482012439208578 ], [ 96.262293206646177, 28.408612962845492 ], [ 96.303238745601789, 28.399703199818759 ], [ 96.313611615470535, 28.38358077148467 ] ] ] } },
{ "type": "Feature", "properties": { "dt_code": "764", "district": "Siang", "st_code": "12", "year": "2015_c", "st_nm": "Arunachal Pradesh" }, "geometry": { "type": "Polygon", "coordinates": [ [ [ 95.227735922368055, 28.155745402658209 ], [ 95.250665424183182, 28.150229835070231 ], [ 95.295432546774634, 28.120954899410965 ], [ 95.288881260541743, 28.090407140462165 ], [ 95.240292554314436, 28.047131148618032 ], [ 95.205352361072329, 28.052646716206013 ], [ 95.115272175370009, 28.024220329406432 ], [ 95.067229409662104, 28.023371780546746 ], [ 94.928014577213062, 28.052222441776166 ], [ 94.900171610723262, 28.076830358707145 ], [ 94.928014577213062, 28.096771256909832 ], [ 94.948760316950569, 28.129016113578011 ], [ 94.908360718514373, 28.158715323667121 ], [ 94.914366064227863, 28.19605147349343 ], [ 94.894712205529174, 28.221083664854252 ], [ 94.836842510471925, 28.219386567134872 ], [ 94.800264495671598, 28.185868887177165 ], [ 94.774605291259419, 28.186717436036851 ], [ 94.727108466070931, 28.221932213713941 ], [ 94.691076391790006, 28.216416646125964 ], [ 94.660503722703154, 28.207082608669385 ], [ 94.641395804523867, 28.165927988974474 ], [ 94.614644719072885, 28.149805560640388 ], [ 94.616282540631104, 28.183323240598096 ], [ 94.60481778972354, 28.202415589941097 ], [ 94.616282540631104, 28.230841976740674 ], [ 94.613552838034067, 28.257571265820872 ], [ 94.580250466350179, 28.282603457181693 ], [ 94.561688488690308, 28.326727997885516 ], [ 94.52838611700642, 28.331819291043651 ], [ 94.499451269477802, 28.364064147711826 ], [ 94.489078399609042, 28.375519557317627 ], [ 94.490716221167276, 28.38442932034436 ], [ 94.485256815973187, 28.395884729950158 ], [ 94.493445923764313, 28.407764413985802 ], [ 94.500543150516606, 28.460798717716358 ], [ 94.544764332588656, 28.468859931883401 ], [ 94.543126511030437, 28.481163890348888 ], [ 94.558412845573855, 28.494740672103912 ], [ 94.538213046355764, 28.533773919649601 ], [ 94.536029284278129, 28.588929595529375 ], [ 94.480889291817931, 28.600385005135177 ], [ 94.457413849483387, 28.591475242108444 ], [ 94.45031662273108, 28.615658884609577 ], [ 94.467786719352134, 28.625841470925842 ], [ 94.484710875453786, 28.691179733121885 ], [ 94.433938407148844, 28.754820897598549 ], [ 94.442673455459371, 28.777307442380305 ], [ 94.436122169226465, 28.809976573478327 ], [ 94.423565537280084, 28.812946494487239 ], [ 94.394630689751466, 28.854101114182146 ], [ 94.387533462999158, 28.870647816946082 ], [ 94.37825247416923, 28.891861538438302 ], [ 94.395722570790284, 28.932167609273524 ], [ 94.441581574420553, 28.891861538438302 ], [ 94.449770682211664, 28.886345970850325 ], [ 94.479797410779113, 28.858343858480591 ], [ 94.516921366098856, 28.836705862558524 ], [ 94.515283544540623, 28.821007708654282 ], [ 94.525110473889967, 28.811673671197703 ], [ 94.561688488690308, 28.81040084790817 ], [ 94.592261157777159, 28.791732772995015 ], [ 94.620104124266959, 28.793854145144238 ], [ 94.633206696732756, 28.784095833257815 ], [ 94.633752637252158, 28.766700581634193 ], [ 94.745670443730802, 28.686512714393597 ], [ 94.74676232476962, 28.588081046669686 ], [ 94.759864897235403, 28.560078934299955 ], [ 94.777334993856456, 28.559230385440266 ], [ 94.758773016196585, 28.534198194079444 ], [ 94.795351030996926, 28.546077878115089 ], [ 94.819918354370287, 28.568140148466998 ], [ 94.901809432281482, 28.549047799124001 ], [ 94.958041305780512, 28.572807167195286 ], [ 94.972235759285113, 28.565594501887933 ], [ 94.988613974867349, 28.52910690092131 ], [ 95.038294562133473, 28.515530119166289 ], [ 95.084153565763756, 28.526561254342244 ], [ 95.110358710695337, 28.500680514121733 ], [ 95.10162366238481, 28.483709536927957 ], [ 95.110904651214739, 28.46292008986558 ], [ 95.104353364981847, 28.444252014952426 ], [ 95.081423863166705, 28.414977079293159 ], [ 95.082515744205523, 28.395036181090468 ], [ 95.11745593744763, 28.376368106177313 ], [ 95.106537127059482, 28.263511107838696 ], [ 95.138747617704553, 28.228720604591452 ], [ 95.130558509913428, 28.216840920555807 ], [ 95.137109796146319, 28.20368841323063 ], [ 95.171504048869025, 28.196475747923273 ], [ 95.192249788606532, 28.164655165684941 ], [ 95.2239143387322, 28.151926932789607 ], [ 95.227735922368055, 28.155745402658209 ] ] ] } },
{ "type": "Feature", "properties": { "dt_code": "785", "district": "Shi Yomi", "st_code": "12", "year": "2018", "st_nm": "Arunachal Pradesh" }, "geometry": { "type": "Polygon", "coordinates": [ [ [ 94.401727916503773, 28.338607681921161 ], [ 94.401181975984358, 28.340304779640537 ], [ 94.385895641440939, 28.336062035342092 ], [ 94.368971485339287, 28.352184463676181 ], [ 94.36787960430047, 28.353033012535871 ], [ 94.329663767941909, 28.357700031264159 ], [ 94.308372087685001, 28.375519557317627 ], [ 94.301820801452109, 28.395884729950158 ], [ 94.308372087685001, 28.417098451442381 ], [ 94.292539812622167, 28.428978135478026 ], [ 94.241767344317225, 28.446797661531491 ], [ 94.231394474448479, 28.428129586618336 ], [ 94.219383783021499, 28.436190800785379 ], [ 94.168611314716557, 28.432796605346624 ], [ 94.157692504328395, 28.434917977495846 ], [ 94.148411515498466, 28.439584996224134 ], [ 94.114563203295162, 28.475648322760911 ], [ 94.108557857581673, 28.52146996118411 ], [ 94.097093106674109, 28.536319566228666 ], [ 94.07143390226193, 28.539289487237578 ], [ 94.001553515777715, 28.577898460353421 ], [ 94.005921039932971, 28.621598726627397 ], [ 94.023391136554039, 28.65129793671651 ], [ 93.989542824350735, 28.68778553768313 ], [ 93.962245798380337, 28.712393454614109 ], [ 93.970434906171462, 28.750578153300104 ], [ 94.003191337335934, 28.77476179580124 ], [ 93.9873590622731, 28.797672615012839 ], [ 94.002099456297117, 28.819310610934906 ], [ 93.997185991622445, 28.840948606856969 ], [ 94.032126184864566, 28.852828290892614 ], [ 94.068704199664893, 28.895680008306904 ], [ 94.157146563808993, 28.954229879625434 ], [ 94.187173292376428, 29.038660491164478 ], [ 94.342766340407707, 28.983929089714543 ], [ 94.395722570790284, 28.932167609273524 ], [ 94.37825247416923, 28.891861538438302 ], [ 94.387533462999158, 28.870647816946082 ], [ 94.394630689751466, 28.854101114182146 ], [ 94.423565537280084, 28.812946494487239 ], [ 94.436122169226465, 28.809976573478327 ], [ 94.442673455459371, 28.777307442380305 ], [ 94.433938407148844, 28.754820897598549 ], [ 94.484710875453786, 28.691179733121885 ], [ 94.467786719352134, 28.625841470925842 ], [ 94.45031662273108, 28.615658884609577 ], [ 94.457413849483387, 28.591475242108444 ], [ 94.480889291817931, 28.600385005135177 ], [ 94.536029284278129, 28.588929595529375 ], [ 94.538213046355764, 28.533773919649601 ], [ 94.558412845573855, 28.494740672103912 ], [ 94.543126511030437, 28.481163890348888 ], [ 94.544764332588656, 28.468859931883401 ], [ 94.500543150516606, 28.460798717716358 ], [ 94.493445923764313, 28.407764413985802 ], [ 94.485256815973187, 28.395884729950158 ], [ 94.445949098575809, 28.403521669687358 ], [ 94.434484347668246, 28.373398185168405 ], [ 94.401727916503773, 28.338607681921161 ], [ 94.401727916503773, 28.338607681921161 ] ] ] } },
{ "type": "Feature", "properties": { "dt_code": "783", "district": "Pakke Kessang", "st_code": "12", "year": "2018", "st_nm": "Arunachal Pradesh" }, "geometry": { "type": "Polygon", "coordinates": [ [ [ 93.330046676905894, 27.354715279111915 ], [ 93.319673807037134, 27.347926888234404 ], [ 93.303295591454898, 27.341138497356894 ], [ 93.288009256911479, 27.327561715601874 ], [ 93.294014602624969, 27.289801291345718 ], [ 93.22577203769896, 27.252040867089562 ], [ 93.233961145490085, 27.238039810904695 ], [ 93.22413421614074, 27.235069889895787 ], [ 93.22413421614074, 27.235069889895787 ], [ 93.22413421614074, 27.23464561546594 ], [ 93.220858573024287, 27.211734796254341 ], [ 93.21976669198547, 27.199855112218696 ], [ 93.22577203769896, 27.201127935508232 ], [ 93.273814803406864, 27.210886247394654 ], [ 93.311484699246023, 27.172701548708655 ], [ 93.214307286791396, 27.137911045461411 ], [ 93.212123524713761, 27.117545872828877 ], [ 93.212123524713761, 27.117545872828877 ], [ 93.272176981848645, 27.10354481664401 ], [ 93.292922721586152, 27.078088350853346 ], [ 93.312576580284841, 27.079361174142878 ], [ 93.342603308852276, 27.036509456728592 ], [ 93.339873606255239, 26.992809190454615 ], [ 93.339873606255239, 26.992809190454615 ], [ 93.380819145210836, 26.984747976287569 ], [ 93.387370431443728, 26.967352724663947 ], [ 93.391192015079582, 26.958442961637214 ], [ 93.39828924183189, 26.957170138347681 ], [ 93.398835182351291, 26.957170138347681 ], [ 93.372084096900309, 26.956745863917838 ], [ 93.286917375872662, 26.954200217338769 ], [ 93.107302944987424, 26.925773830539192 ], [ 93.088195026808151, 26.914318420933395 ], [ 93.061443941357155, 26.921955360670594 ], [ 93.061443941357155, 26.921955360670594 ], [ 93.061443941357155, 26.921955360670594 ], [ 93.021590283440375, 26.913469872073705 ], [ 92.917315644233454, 26.963109980365502 ], [ 92.918407525272272, 26.982202329708503 ], [ 92.886742975146603, 27.000021855761968 ], [ 92.810857242948899, 27.015720009666214 ], [ 92.781922395420267, 27.022084126113878 ], [ 92.778100811784412, 27.022932674973568 ], [ 92.722960819324214, 27.01826565624528 ], [ 92.676555875174529, 27.030569614710767 ], [ 92.672188351019273, 27.0318424380003 ], [ 92.660723600111695, 27.012750088657302 ], [ 92.65690201647584, 27.008083069929015 ], [ 92.597940440379773, 27.053056159492524 ], [ 92.594664797263334, 27.095059328047121 ], [ 92.601216083496226, 27.117545872828877 ], [ 92.615410537000841, 27.143002338619542 ], [ 92.690204388159728, 27.171852999848966 ], [ 92.752441607372234, 27.193490995771032 ], [ 92.762814477240994, 27.190945349191963 ], [ 92.808673480871263, 27.177792841866786 ], [ 92.808673480871263, 27.176944293007097 ], [ 92.828327339569952, 27.161670413532697 ], [ 92.839246149958115, 27.131971203443587 ], [ 92.85726218709857, 27.140032417610634 ], [ 92.89547802345713, 27.13409257559281 ], [ 92.958261183189052, 27.158276218093942 ], [ 93.01176335409103, 27.142578064189699 ], [ 93.069087108628878, 27.171004450989276 ], [ 93.080551859536442, 27.186702604893519 ], [ 93.072362751745317, 27.203249307657455 ], [ 93.009579592013395, 27.200703661078386 ], [ 92.984466328120632, 27.219796010421387 ], [ 93.002482365261102, 27.249495220510497 ], [ 93.165172640044673, 27.311439287267785 ], [ 93.195199368612123, 27.378050372753361 ], [ 93.299474007819043, 27.399688368675427 ], [ 93.330046676905894, 27.354715279111915 ] ] ] } },
{ "type": "Feature", "properties": { "dt_code": "250", "district": "West Siang", "st_code": "12", "year": "2011_c", "st_nm": "Arunachal Pradesh" }, "geometry": { "type": "Polygon", "coordinates": [ [ [ 94.484710875453786, 28.021674682827367 ], [ 94.48416493493437, 28.021674682827367 ], [ 94.467240778832718, 28.048828246337411 ], [ 94.391900987154429, 28.082770200724966 ], [ 94.391355046635013, 28.142168620903188 ], [ 94.356414853392906, 28.198597120072495 ], [ 94.36787960430047, 28.211749627397673 ], [ 94.368971485339287, 28.244418758495694 ], [ 94.383165938843888, 28.257995540250718 ], [ 94.417014251047192, 28.254177070382116 ], [ 94.39408474923205, 28.263511107838696 ], [ 94.374976831052777, 28.294907415647184 ], [ 94.377706533649814, 28.308908471832048 ], [ 94.403365738061993, 28.328000821175049 ], [ 94.401727916503773, 28.338607681921161 ], [ 94.401727916503773, 28.338607681921161 ], [ 94.434484347668246, 28.373398185168405 ], [ 94.445949098575809, 28.403521669687358 ], [ 94.485256815973187, 28.395884729950158 ], [ 94.490716221167276, 28.38442932034436 ], [ 94.489078399609042, 28.375519557317627 ], [ 94.499451269477802, 28.364064147711826 ], [ 94.52838611700642, 28.331819291043651 ], [ 94.561688488690308, 28.326727997885516 ], [ 94.580250466350179, 28.282603457181693 ], [ 94.613552838034067, 28.257571265820872 ], [ 94.616282540631104, 28.230841976740674 ], [ 94.60481778972354, 28.202415589941097 ], [ 94.616282540631104, 28.183323240598096 ], [ 94.614644719072885, 28.149805560640388 ], [ 94.641395804523867, 28.165927988974474 ], [ 94.660503722703154, 28.207082608669385 ], [ 94.691076391790006, 28.216416646125964 ], [ 94.727108466070931, 28.221932213713941 ], [ 94.774605291259419, 28.186717436036851 ], [ 94.800264495671598, 28.185868887177165 ], [ 94.836842510471925, 28.219386567134872 ], [ 94.894712205529174, 28.221083664854252 ], [ 94.914366064227863, 28.19605147349343 ], [ 94.908360718514373, 28.158715323667121 ], [ 94.948760316950569, 28.129016113578011 ], [ 94.928014577213062, 28.096771256909832 ], [ 94.900171610723262, 28.076830358707145 ], [ 94.928014577213062, 28.052222441776166 ], [ 94.926922696174245, 28.050949618486634 ], [ 94.894166265009773, 28.015734840809547 ], [ 94.894166265009773, 28.0153105663797 ], [ 94.819918354370287, 27.98561135629059 ], [ 94.790983506841656, 27.986884179580123 ], [ 94.790983506841656, 27.98730845400997 ], [ 94.790983506841656, 27.98730845400997 ], [ 94.752767670483095, 28.011067822081255 ], [ 94.752221729963694, 28.011492096511102 ], [ 94.699811440100532, 28.019129036248302 ], [ 94.699811440100532, 28.019129036248302 ], [ 94.669238771013681, 28.041191306600211 ], [ 94.640849864004466, 28.043312678749434 ], [ 94.64030392348505, 28.043312678749434 ], [ 94.64030392348505, 28.043312678749434 ], [ 94.603725908684723, 28.061980753662588 ], [ 94.567693834403798, 28.049252520767254 ], [ 94.506548496230096, 28.055616637214921 ], [ 94.503818793633059, 28.052222441776166 ], [ 94.485256815973187, 28.023371780546746 ], [ 94.484710875453786, 28.021674682827367 ] ] ] } },
{ "type": "Feature", "properties": { "dt_code": "784", "district": "Lepa Rada", "st_code": "12", "year": "2018", "st_nm": "Arunachal Pradesh" }, "geometry": { "type": "Polygon", "coordinates": [ [ [ 94.594990860374196, 27.87063298580275 ], [ 94.593353038815962, 27.890149609575595 ], [ 94.592807098296561, 27.890149609575595 ], [ 94.592807098296561, 27.890149609575595 ], [ 94.558412845573855, 27.902453568041082 ], [ 94.53275364116169, 27.945305285455369 ], [ 94.525656414409383, 27.960154890499926 ], [ 94.532207700642275, 27.986035630720433 ], [ 94.513099782463001, 28.0153105663797 ], [ 94.513099782463001, 28.0153105663797 ], [ 94.513099782463001, 28.0153105663797 ], [ 94.484710875453786, 28.021674682827367 ], [ 94.485256815973187, 28.023371780546746 ], [ 94.503818793633059, 28.052222441776166 ], [ 94.506548496230096, 28.055616637214921 ], [ 94.567693834403798, 28.049252520767254 ], [ 94.603725908684723, 28.061980753662588 ], [ 94.64030392348505, 28.043312678749434 ], [ 94.64030392348505, 28.043312678749434 ], [ 94.640849864004466, 28.043312678749434 ], [ 94.669238771013681, 28.041191306600211 ], [ 94.699811440100532, 28.019129036248302 ], [ 94.699811440100532, 28.019129036248302 ], [ 94.752221729963694, 28.011492096511102 ], [ 94.752767670483095, 28.011067822081255 ], [ 94.790983506841656, 27.98730845400997 ], [ 94.790983506841656, 27.98730845400997 ], [ 94.790983506841656, 27.986884179580123 ], [ 94.819918354370287, 27.98561135629059 ], [ 94.894166265009773, 28.0153105663797 ], [ 94.880517752024573, 28.000460961335147 ], [ 94.880517752024573, 28.000460961335147 ], [ 94.921463290980171, 27.997491040326235 ], [ 94.922009231499572, 27.997491040326235 ], [ 94.956949424741694, 27.980944337562303 ], [ 94.924192993577208, 27.889301060715905 ], [ 94.905631015917336, 27.880391297689172 ], [ 94.908906659033789, 27.860026125056638 ], [ 94.909452599553191, 27.860026125056638 ], [ 94.909452599553191, 27.859601850626792 ], [ 94.928560517732478, 27.857056204047726 ], [ 94.905085075397935, 27.842630873433016 ], [ 94.900171610723262, 27.823114249660172 ], [ 94.808999543982125, 27.785778099833863 ], [ 94.746216384250204, 27.773049866938528 ], [ 94.723832822954478, 27.794687862860595 ], [ 94.717281536721586, 27.825235621809394 ], [ 94.645763328679138, 27.850267813170216 ], [ 94.631568875174523, 27.866814515934148 ], [ 94.594990860374196, 27.87063298580275 ] ] ] } },
{ "type": "Feature", "properties": { "dt_code": "778", "district": "Kamle", "st_code": "12", "year": "2018", "st_nm": "Arunachal Pradesh" }, "geometry": { "type": "Polygon", "coordinates": [ [ [ 93.961699857860935, 27.97882296541308 ], [ 93.967705203574411, 27.977974416553391 ], [ 93.998823813180678, 27.965670458087903 ], [ 94.010834504607644, 27.956336420631324 ], [ 94.023391136554039, 27.956336420631324 ], [ 94.068158259145491, 27.939365443437548 ], [ 94.047412519407985, 27.911787605497658 ], [ 94.074163604858981, 27.849419264310527 ], [ 94.148957456017868, 27.865965967074459 ], [ 94.15987626640603, 27.843903696722549 ], [ 94.192086757051101, 27.836691031415192 ], [ 94.193178638089918, 27.811658840054371 ], [ 94.271248132365258, 27.809537467905152 ], [ 94.318199017034345, 27.773474141368375 ], [ 94.318199017034345, 27.773049866938528 ], [ 94.317107135995528, 27.768807122640084 ], [ 94.312739611840271, 27.74080501027035 ], [ 94.313831492879075, 27.739956461410664 ], [ 94.335669113655399, 27.725106856366107 ], [ 94.335669113655399, 27.724682581936264 ], [ 94.349863567160014, 27.729773875094395 ], [ 94.353685150795869, 27.72722822851533 ], [ 94.353685150795869, 27.722985484216885 ], [ 94.244497046914262, 27.649161733423952 ], [ 94.209556853672154, 27.608855662588734 ], [ 94.212286556269191, 27.606734290439512 ], [ 94.210102794191556, 27.604188643860443 ], [ 94.226481009773806, 27.597824527412776 ], [ 94.224843188215573, 27.57406515934149 ], [ 94.258691500418877, 27.555397084428336 ], [ 94.258145559899461, 27.535031911795802 ], [ 94.265788727171184, 27.520182306751245 ], [ 94.245588927953079, 27.513393915873735 ], [ 94.241221403797823, 27.512969641443892 ], [ 94.23194041496788, 27.50915117157529 ], [ 94.219929723540901, 27.504908427276845 ], [ 94.205189329516898, 27.5312134419272 ], [ 94.190994876012283, 27.535880460655491 ], [ 94.150595277576087, 27.530364893067514 ], [ 94.105828154984636, 27.493453017671047 ], [ 94.068704199664893, 27.482421882495093 ], [ 94.045228757330349, 27.499392859688868 ], [ 93.942045999162247, 27.511272543724512 ], [ 94.071979842781346, 27.515515288022957 ], [ 94.106374095504052, 27.543941674822534 ], [ 94.106374095504052, 27.554124261138799 ], [ 94.049050340966204, 27.582550647938376 ], [ 94.053417865121475, 27.608007113729045 ], [ 93.941500058642831, 27.637282049388311 ], [ 93.925667783579996, 27.659344319740221 ], [ 93.919662437866521, 27.723409758646731 ], [ 93.890727590337889, 27.742926382419572 ], [ 93.907651746439541, 27.797233509439661 ], [ 93.890181649818487, 27.82014432865126 ], [ 93.910927389555994, 27.830751189397372 ], [ 93.92730560513823, 27.88505831641746 ], [ 93.883630363585581, 27.900756470321703 ], [ 93.882538482546778, 27.909666233348435 ], [ 93.926759664618814, 27.919848819664704 ], [ 93.944775701759283, 27.96439763479837 ], [ 93.961699857860935, 27.97882296541308 ] ] ] } }
]
}
