{
"type": "FeatureCollection",
"name": "goa",
"crs": { "type": "name", "properties": { "name": "urn:ogc:def:crs:OGC:1.3:CRS84" } },
"features": [
{ "type": "Feature", "properties": { "dt_code": "585", "district": "North Goa", "st_code": "30", "year": "2011_c", "st_nm": "Goa" }, "geometry": { "type": "Polygon", "coordinates": [ [ [ 74.251099969271749, 15.491442712180286 ], [ 74.199671664787743, 15.46637632957747 ], [ 74.1788959921154, 15.437132216540849 ], [ 74.124061839652327, 15.437828504946483 ], [ 74.109757278140208, 15.419028717994371 ], [ 74.103626751777881, 15.427384178861976 ], [ 74.068546517593433, 15.411369545532398 ], [ 74.055944880070854, 15.406843670895778 ], [ 74.055604295272943, 15.407539959301413 ], [ 74.053560786485505, 15.434347062918315 ], [ 74.034488037802689, 15.446532110016905 ], [ 74.040959148962926, 15.451406128856343 ], [ 74.025632833057102, 15.473687357836624 ], [ 74.03074160502571, 15.478909520878878 ], [ 73.961602891050532, 15.539834756371835 ], [ 73.944233066357256, 15.524168267245075 ], [ 73.961602891050532, 15.502931470873245 ], [ 73.961602891050532, 15.502583326670427 ], [ 73.954791195092383, 15.486916837543667 ], [ 73.950363592719583, 15.477516944067609 ], [ 73.956834703879821, 15.464287464360568 ], [ 73.957175288677732, 15.463591175954933 ], [ 73.945595405548886, 15.448272831030991 ], [ 73.934015522420026, 15.432954486107047 ], [ 73.904044060204185, 15.417636141183102 ], [ 73.880543709148583, 15.435043351323948 ], [ 73.863173884455307, 15.429124899876062 ], [ 73.849209907741113, 15.452450561464794 ], [ 73.802890375225715, 15.450361696247892 ], [ 73.787904644117788, 15.463939320157751 ], [ 73.802549790427804, 15.461502310738032 ], [ 73.814810843152472, 15.491790856383103 ], [ 73.791651076894766, 15.500494461453526 ], [ 73.766107217051712, 15.494576010005638 ], [ 73.755208503518688, 15.546449496225357 ], [ 73.732048737260982, 15.590663809983104 ], [ 73.737498094027501, 15.617122769397188 ], [ 73.722852947717485, 15.630700393307048 ], [ 73.690156807118385, 15.722262318647893 ], [ 73.676874, 15.729225202704232 ], [ 73.684366865553955, 15.727832625892963 ], [ 73.694243824693274, 15.72261046285071 ], [ 73.728302304484004, 15.719825309228176 ], [ 73.742606865996109, 15.735491798354936 ], [ 73.785179965734528, 15.725395616473245 ], [ 73.785520550532439, 15.725395616473245 ], [ 73.78586113533035, 15.72609190487888 ], [ 73.801868620831982, 15.737580663571837 ], [ 73.820600784716888, 15.740365817194373 ], [ 73.823666047898058, 15.740713961397189 ], [ 73.824687802291777, 15.741062105600006 ], [ 73.825368971887599, 15.744195403425358 ], [ 73.841376457389245, 15.773091372259161 ], [ 73.851594001326461, 15.780750544721133 ], [ 73.854659264507617, 15.797461466456344 ], [ 73.856021603699247, 15.799898475876063 ], [ 73.857383942890877, 15.799550331673245 ], [ 73.879521954754864, 15.774135804867612 ], [ 73.875094352382064, 15.75081014327888 ], [ 73.938783709590737, 15.74280282661409 ], [ 73.951725931911213, 15.716343867200006 ], [ 73.943551896761434, 15.698588512856343 ], [ 73.963986984635881, 15.690929340394373 ], [ 73.967392832614948, 15.635574412146484 ], [ 73.967733417412859, 15.630352249104231 ], [ 73.990893183670551, 15.611552462152119 ], [ 74.021205230684302, 15.605982154907048 ], [ 74.031082189823621, 15.622693076642259 ], [ 74.100561488596711, 15.642537296202823 ], [ 74.113163126119289, 15.646018738230991 ], [ 74.118271898087897, 15.651937189678879 ], [ 74.119293652481616, 15.652285333881697 ], [ 74.126445933237676, 15.652633478084512 ], [ 74.135641722781173, 15.64845574765071 ], [ 74.164591430603295, 15.653677910692963 ], [ 74.167316108986554, 15.671781409239442 ], [ 74.180939500902852, 15.68222573532395 ], [ 74.190816460042157, 15.679092437498598 ], [ 74.187070027265179, 15.667603678805639 ], [ 74.204099267160544, 15.663774092574654 ], [ 74.205121021554262, 15.650892757070428 ], [ 74.236454822961747, 15.66864811141409 ], [ 74.252121723665482, 15.654374199098598 ], [ 74.244288273313614, 15.626174518670428 ], [ 74.264382776390136, 15.615382048383104 ], [ 74.245310027707333, 15.566641859988737 ], [ 74.261658098006876, 15.564901138974653 ], [ 74.278006168306433, 15.546101352022539 ], [ 74.278346753104344, 15.522775690433807 ], [ 74.251099969271749, 15.491790856383103 ], [ 74.251099969271749, 15.491442712180286 ] ] ] } },
{ "type": "Feature", "properties": { "dt_code": "586", "district": "South Goa", "st_code": "30", "year": "2011_c", "st_nm": "Goa" }, "geometry": { "type": "Polygon", "coordinates": [ [ [ 73.934015522420026, 15.432954486107047 ], [ 73.945595405548886, 15.448272831030991 ], [ 73.957175288677732, 15.463591175954933 ], [ 73.956834703879821, 15.464287464360568 ], [ 73.950363592719583, 15.477516944067609 ], [ 73.954791195092383, 15.486916837543667 ], [ 73.961602891050532, 15.502583326670427 ], [ 73.961602891050532, 15.502931470873245 ], [ 73.944233066357256, 15.524168267245075 ], [ 73.961602891050532, 15.539834756371835 ], [ 74.03074160502571, 15.478909520878878 ], [ 74.025632833057102, 15.473687357836624 ], [ 74.040959148962926, 15.451406128856343 ], [ 74.034488037802689, 15.446532110016905 ], [ 74.053560786485505, 15.434347062918315 ], [ 74.055604295272943, 15.407539959301413 ], [ 74.055944880070854, 15.406843670895778 ], [ 74.068546517593433, 15.411369545532398 ], [ 74.103626751777881, 15.427384178861976 ], [ 74.109757278140208, 15.419028717994371 ], [ 74.124061839652327, 15.437828504946483 ], [ 74.1788959921154, 15.437132216540849 ], [ 74.199671664787743, 15.46637632957747 ], [ 74.251099969271749, 15.491442712180286 ], [ 74.275622074721085, 15.449317263639442 ], [ 74.268810378762936, 15.419028717994371 ], [ 74.275962659518996, 15.391525325971836 ], [ 74.323303946428112, 15.367851520180286 ], [ 74.317173420065771, 15.32920751366761 ], [ 74.336246168748588, 15.294741237588736 ], [ 74.326369209609268, 15.283252478895777 ], [ 74.276303244316892, 15.283252478895777 ], [ 74.25144055406966, 15.258534240495777 ], [ 74.259614589219439, 15.241127030354933 ], [ 74.301506519362036, 15.224416108619721 ], [ 74.317173420065771, 15.18646839051268 ], [ 74.285158449062493, 15.148868816608454 ], [ 74.284817864264582, 15.114054396326763 ], [ 74.272556811539914, 15.097691618794368 ], [ 74.296397747393428, 15.04129225793803 ], [ 74.267788624369217, 15.001603818816903 ], [ 74.253484062857112, 14.997774232585916 ], [ 74.264382776390136, 14.978626301430987 ], [ 74.252462308463379, 14.958782081870424 ], [ 74.236454822961747, 14.966441254332397 ], [ 74.201374588777284, 14.925360238400001 ], [ 74.179236576913311, 14.956693216653523 ], [ 74.164932015401206, 14.95808579346479 ], [ 74.163569676209576, 14.95808579346479 ], [ 74.154373886666079, 14.943115592743663 ], [ 74.161866752220035, 14.911782614490143 ], [ 74.124061839652327, 14.925012094197184 ], [ 74.085575757488797, 14.900642 ], [ 74.080807570318086, 14.910390037678875 ], [ 74.044024412144097, 14.917352921735212 ], [ 74.049814353708527, 14.95913022607324 ], [ 74.0348286226006, 14.997077944180283 ], [ 74.021205230684302, 15.011700000698594 ], [ 73.988849674883113, 15.020403605769015 ], [ 73.982037978924964, 15.054869881847889 ], [ 73.971820434987748, 15.052432872428172 ], [ 73.966371078221229, 15.066706784743664 ], [ 73.912218095353964, 15.085854715898593 ], [ 73.92686324166398, 15.096995330388735 ], [ 73.918008036918394, 15.108135944878876 ], [ 73.935377861611656, 15.112313675312679 ], [ 73.936059031207478, 15.133898615887327 ], [ 73.949682423123775, 15.144691086174651 ], [ 73.884290141925561, 15.354622040473243 ], [ 73.871007334807175, 15.371332962208454 ], [ 73.841717042187142, 15.360192347718314 ], [ 73.808339731992234, 15.377251413656342 ], [ 73.805955638406871, 15.393962335391553 ], [ 73.791310492096855, 15.39431047959437 ], [ 73.783817626542898, 15.40893253611268 ], [ 73.794716340075937, 15.41450284335775 ], [ 73.807317977598501, 15.399184498433806 ], [ 73.81719493673782, 15.410673257126765 ], [ 73.826050141483407, 15.403014084664793 ], [ 73.840354702995512, 15.410673257126765 ], [ 73.846485229357853, 15.398140065825356 ], [ 73.874072597988345, 15.396399344811272 ], [ 73.892123592277429, 15.408584391909864 ], [ 73.939805463984456, 15.408584391909864 ], [ 73.926182072068158, 15.42251016002254 ], [ 73.934015522420026, 15.432954486107047 ] ] ] } }
]
}
