{
"type": "FeatureCollection",
"name": "himachal_pradesh",
"crs": { "type": "name", "properties": { "name": "urn:ogc:def:crs:OGC:1.3:CRS84" } },
"features": [
{ "type": "Feature", "properties": { "dt_code": "025", "district": "Lahaul and Spiti", "st_code": "02", "year": "2011_c", "st_nm": "Himachal Pradesh" }, "geometry": { "type": "Polygon", "coordinates": [ [ [ 78.672894776622798, 32.078521158909055 ], [ 78.674027429061155, 32.075601017468728 ], [ 78.671762124184454, 32.07527655730869 ], [ 78.656282540860332, 32.073978716668549 ], [ 78.655527439234774, 32.073978716668549 ], [ 78.64495601647684, 32.060675850107067 ], [ 78.627588679088802, 32.067165053307789 ], [ 78.613241748203038, 32.049319744505809 ], [ 78.592476453499941, 32.067813973627864 ], [ 78.507905071436468, 32.04769744370563 ], [ 78.449007144642266, 32.060026929787 ], [ 78.432017358067014, 31.977938509297871 ], [ 78.458445914961857, 31.958146439535675 ], [ 78.454670406834012, 31.938029909613437 ], [ 78.419558181245165, 31.934785308013076 ], [ 78.399925538980426, 31.953603997295168 ], [ 78.364058211766007, 31.959768740335853 ], [ 78.340650061373438, 31.931540706412715 ], [ 78.200956260643594, 31.932514086892823 ], [ 78.180946067566069, 31.915966618730984 ], [ 78.188497083821744, 31.872813417446189 ], [ 78.188497083821744, 31.872488957286151 ], [ 78.187741982196172, 31.871840036966081 ], [ 78.180190965940511, 31.865999754085429 ], [ 78.174905254561537, 31.86437745328525 ], [ 78.166221585867518, 31.861457311844926 ], [ 78.16169097611413, 31.860159471204781 ], [ 78.12506854727414, 31.868270975205682 ], [ 78.089201220059721, 31.857239329764457 ], [ 78.082405305429617, 31.846207684323232 ], [ 78.096374685502596, 31.835500499042041 ], [ 78.096374685502596, 31.835176038882004 ], [ 78.095242033064252, 31.831931437281643 ], [ 78.08127265299126, 31.78845377583681 ], [ 78.080517551365702, 31.786831475036632 ], [ 78.056354299347561, 31.783586873436271 ], [ 78.029170640827161, 31.760550202073709 ], [ 78.027282886763246, 31.75892790127353 ], [ 77.997078821740573, 31.781315652316017 ], [ 77.951772724206563, 31.788129315676777 ], [ 77.95064007176822, 31.78845377583681 ], [ 77.938558445759156, 31.753412078552916 ], [ 77.937425793320799, 31.750816397272629 ], [ 77.931007429503481, 31.751140857432663 ], [ 77.913640092115443, 31.7514653175927 ], [ 77.908354380736483, 31.751789777752737 ], [ 77.906466626672568, 31.753087618392879 ], [ 77.899293161229679, 31.755034379353095 ], [ 77.86342583401526, 31.781640112476055 ], [ 77.869089096207006, 31.782613492956163 ], [ 77.847568699878366, 31.802405562718363 ], [ 77.849456453942281, 31.832904817761751 ], [ 77.838129929558775, 31.854319188324133 ], [ 77.868711545394234, 31.886440744167704 ], [ 77.804527907221058, 31.90071699120929 ], [ 77.766772825942724, 31.943221272174014 ], [ 77.79810954340374, 31.987023393778884 ], [ 77.772436088134469, 32.006491003381043 ], [ 77.790558527148079, 32.018820489462414 ], [ 77.763752419440451, 32.042830541305086 ], [ 77.753936098308088, 32.07527655730869 ], [ 77.744119777175712, 32.089552804350276 ], [ 77.742987124737368, 32.090850644990425 ], [ 77.688242256883782, 32.101557830271616 ], [ 77.652374929669364, 32.143088730756233 ], [ 77.571956606546507, 32.184619631240849 ], [ 77.566293344354747, 32.204411701003046 ], [ 77.546660702090023, 32.219661328524744 ], [ 77.531558669578686, 32.195326816522034 ], [ 77.469262785469425, 32.224203770765243 ], [ 77.464732175716023, 32.194028975881892 ], [ 77.420936281433157, 32.189810993801423 ], [ 77.403946494857905, 32.210576444043731 ], [ 77.381293446090908, 32.21219874484391 ], [ 77.354109787570493, 32.229719593485861 ], [ 77.345048568063703, 32.246915981967767 ], [ 77.348068974565962, 32.260543308689286 ], [ 77.343538364812559, 32.281957679251668 ], [ 77.332211840429068, 32.306616651414409 ], [ 77.317864909543289, 32.322515199256173 ], [ 77.242732297799407, 32.375402205342056 ], [ 77.227252714475284, 32.370210842781475 ], [ 77.200069055954884, 32.385784930463203 ], [ 77.195160895388696, 32.39843887670461 ], [ 77.152120102731402, 32.414661884706419 ], [ 77.151742551918616, 32.414661884706419 ], [ 77.086803812119868, 32.396167655584364 ], [ 77.081895651553694, 32.394545354784178 ], [ 77.073967084485233, 32.39843887670461 ], [ 77.073589533672461, 32.39843887670461 ], [ 77.077365041800292, 32.417582026146739 ], [ 77.077742592613077, 32.418555406626851 ], [ 77.064905864978442, 32.418555406626851 ], [ 77.055089543846066, 32.433805034148541 ], [ 76.980334482914969, 32.403954699425228 ], [ 76.947487562202809, 32.403305779105153 ], [ 76.947110011390023, 32.426991370787789 ], [ 76.908599828486118, 32.417582026146739 ], [ 76.916528395554579, 32.43510287478869 ], [ 76.898783507353755, 32.448405741350165 ], [ 76.911242684175605, 32.464628749351974 ], [ 76.910487582550047, 32.464628749351974 ], [ 76.86593658664161, 32.463655368871862 ], [ 76.86593658664161, 32.463655368871862 ], [ 76.859895773637064, 32.490910022314893 ], [ 76.879528415901802, 32.512648853037305 ], [ 76.867069239079953, 32.533738763439651 ], [ 76.842150885436254, 32.524329418798608 ], [ 76.82780395455049, 32.538281205680157 ], [ 76.799487643591732, 32.531467542319398 ], [ 76.794579483025544, 32.546717169841095 ], [ 76.767395824505144, 32.545094869040916 ], [ 76.751538690368236, 32.556450974642175 ], [ 76.714916261528259, 32.538281205680157 ], [ 76.699814229016923, 32.545094869040916 ], [ 76.692263212761247, 32.564886938803113 ], [ 76.674895875373224, 32.563589098162971 ], [ 76.651487724980655, 32.582732247605094 ], [ 76.629212227026429, 32.574296283444163 ], [ 76.634875489218189, 32.605119998647588 ], [ 76.605048975008302, 32.604471078327514 ], [ 76.594855103063139, 32.636592634171087 ], [ 76.551436759593059, 32.656709164093321 ], [ 76.531049015702749, 32.656384703933284 ], [ 76.522742897821516, 32.668389729854617 ], [ 76.466865377529587, 32.652166721852815 ], [ 76.444212328762575, 32.658007004733463 ], [ 76.443457227137017, 32.6583314648935 ], [ 76.446855184452062, 32.674230012735265 ], [ 76.425712338936194, 32.688181799616821 ], [ 76.431375601127939, 32.708622789699092 ], [ 76.40268173935641, 32.728090399301252 ], [ 76.402304188543624, 32.728414859461289 ], [ 76.389845011721775, 32.783573086667424 ], [ 76.377385834899925, 32.797524873548973 ], [ 76.379273588963841, 32.81991262459146 ], [ 76.442702125511445, 32.855927702355466 ], [ 76.474038842972462, 32.820886005071571 ], [ 76.469885784031845, 32.806285297869948 ], [ 76.491406180360499, 32.802067315789479 ], [ 76.576732664049544, 32.824130606671929 ], [ 76.610334686387262, 32.851709720274997 ], [ 76.67904893431384, 32.846518357714416 ], [ 76.710763202587643, 32.884155736278601 ], [ 76.716426464779389, 32.917899592922353 ], [ 76.73341625135464, 32.929904618843686 ], [ 76.760222359062254, 32.925037716443143 ], [ 76.785895814331525, 32.952292369886173 ], [ 76.770416231007417, 32.990903128930469 ], [ 76.780610102952565, 33.017184401893388 ], [ 76.765508070441228, 33.018806702693567 ], [ 76.742099920048659, 33.097001601262264 ], [ 76.740212165984744, 33.10446418494309 ], [ 76.745120326550932, 33.118091511664602 ], [ 76.750406037929892, 33.16059579262933 ], [ 76.747763182240405, 33.179738942071459 ], [ 76.747763182240405, 33.180712322551564 ], [ 76.747385631427619, 33.184281384311959 ], [ 76.754936647683294, 33.193690728953008 ], [ 76.774946840760805, 33.230679187197119 ], [ 76.77305908669689, 33.242359752958414 ], [ 76.771926434258546, 33.251444637439427 ], [ 76.771926434258546, 33.251444637439427 ], [ 76.792691728961628, 33.256636 ], [ 76.794579483025544, 33.255338159359859 ], [ 76.820252938294814, 33.236195009917729 ], [ 76.830824361052748, 33.249173416319174 ], [ 76.842905987061812, 33.246577735038883 ], [ 76.843283537874598, 33.246577735038883 ], [ 76.825538649673788, 33.215429559675421 ], [ 76.834222318367807, 33.205046834554267 ], [ 76.817610082605327, 33.194015189113045 ], [ 76.81685498097977, 33.159622412149218 ], [ 76.844416190312955, 33.137559121266769 ], [ 76.855365163883675, 33.11419798974417 ], [ 76.885191678093548, 33.121660573425004 ], [ 76.909354930111689, 33.094081459821936 ], [ 76.905579421983859, 33.078831832300239 ], [ 76.933140631317045, 33.028540507494654 ], [ 76.971650814220951, 33.000312473571512 ], [ 76.992416108924033, 33.001934774371691 ], [ 77.010160997124856, 32.988956367970253 ], [ 77.049048730841534, 32.99901463293137 ], [ 77.08604871049431, 32.972408899808414 ], [ 77.110967064138009, 32.975329041248735 ], [ 77.116252775516983, 32.984738385889784 ], [ 77.149854797854701, 32.978249182689062 ], [ 77.149099696229129, 32.956185891806605 ], [ 77.160803771425407, 32.952941290206248 ], [ 77.16382417792768, 32.937042742364483 ], [ 77.157028263297576, 32.911734849881668 ], [ 77.170242541744997, 32.910761469401557 ], [ 77.188364980758593, 32.928931238363582 ], [ 77.198936403516541, 32.909139168601378 ], [ 77.243487399424964, 32.892591700439539 ], [ 77.237069035607661, 32.880911134678243 ], [ 77.254436372995684, 32.863714746196329 ], [ 77.274069015260423, 32.873773011157446 ], [ 77.275956769324338, 32.872150710357268 ], [ 77.301252673780823, 32.849762959314781 ], [ 77.322773070109477, 32.850411879634848 ], [ 77.334477145305769, 32.825752907472108 ], [ 77.338630204246385, 32.816992483151139 ], [ 77.338630204246385, 32.816992483151139 ], [ 77.347313872940404, 32.818614783951318 ], [ 77.372987328209661, 32.823481686351855 ], [ 77.372987328209661, 32.823806146511892 ], [ 77.374497531460804, 32.854629861715317 ], [ 77.405456698109035, 32.883182355798496 ], [ 77.444721982638512, 32.879613294038094 ], [ 77.452272998894173, 32.864363666516404 ], [ 77.468885234656639, 32.858523383635756 ], [ 77.501354604556013, 32.885778037078779 ], [ 77.512681128939519, 32.877342072917841 ], [ 77.539109685834347, 32.886751417558891 ], [ 77.595742307751848, 32.927308937563396 ], [ 77.602160671569166, 32.942883025245131 ], [ 77.673517775185232, 32.961052794207149 ], [ 77.682578994692022, 32.988631907810216 ], [ 77.713160610527481, 32.982467164769531 ], [ 77.719578974344799, 32.968839838048012 ], [ 77.740721819860667, 32.96916429820805 ], [ 77.810946271038375, 32.906867947481125 ], [ 77.789425874709721, 32.890644939479323 ], [ 77.781119756828488, 32.865661507156545 ], [ 77.826048303549712, 32.836135632593262 ], [ 77.839262581997133, 32.84197591547391 ], [ 77.869089096207006, 32.827050748112256 ], [ 77.887966636846187, 32.798822714189114 ], [ 77.884191128718342, 32.787791068747893 ], [ 77.903823770983081, 32.771892520906121 ], [ 77.925721718124521, 32.771892520906121 ], [ 77.93440538681854, 32.725819178180998 ], [ 77.918548252681632, 32.690777480897104 ], [ 77.946109462014817, 32.661576066493865 ], [ 77.970650264845744, 32.655086863293143 ], [ 77.970272714032959, 32.646650899132204 ], [ 78.01595636237974, 32.619720705849211 ], [ 78.046915529027984, 32.645028598332019 ], [ 78.061262459913749, 32.626209909049933 ], [ 78.087313465995805, 32.62426314808971 ], [ 78.099017541192083, 32.630427891130395 ], [ 78.092599177374765, 32.647624279612309 ], [ 78.110721616388375, 32.662549446973969 ], [ 78.147344045228351, 32.654113482813031 ], [ 78.142813435474949, 32.681692596416099 ], [ 78.219456250469975, 32.664820668094222 ], [ 78.245884807364817, 32.671958791615012 ], [ 78.253058272807692, 32.691101941057141 ], [ 78.31233375041468, 32.709271710019166 ], [ 78.304027632533447, 32.734255142341937 ], [ 78.356507195510346, 32.757616273864535 ], [ 78.387843912971363, 32.756967353544468 ], [ 78.39426227678868, 32.715760913219881 ], [ 78.37953779509013, 32.668389729854617 ], [ 78.387466362158577, 32.634321413050834 ], [ 78.4052112503594, 32.619396245689174 ], [ 78.347823526816327, 32.581109946804915 ], [ 78.312711301227466, 32.573647363124088 ], [ 78.315354156916953, 32.525302799278712 ], [ 78.294588862213871, 32.504212888876367 ], [ 78.326303130487673, 32.4720913330328 ], [ 78.398415335729297, 32.52562725943875 ], [ 78.41049696173836, 32.524653878958645 ], [ 78.42144593530908, 32.510377631917052 ], [ 78.46108877065133, 32.493830163755213 ], [ 78.45429285602124, 32.452299263270596 ], [ 78.482231616167198, 32.441267617829375 ], [ 78.494313242176275, 32.421800008227208 ], [ 78.534711179144097, 32.414337424546382 ], [ 78.507527520623682, 32.369237462301371 ], [ 78.479966311290497, 32.348147551899025 ], [ 78.481854065354426, 32.279686458131415 ], [ 78.454670406834012, 32.242373539727268 ], [ 78.555098923034393, 32.245618141327625 ], [ 78.608711138449635, 32.214469965964163 ], [ 78.609088689262421, 32.178130428040127 ], [ 78.59021114862324, 32.153471455877387 ], [ 78.614751951454167, 32.115834077313202 ], [ 78.663456006303221, 32.102531210751721 ], [ 78.672894776622798, 32.078521158909055 ] ] ] } },
{ "type": "Feature", "properties": { "dt_code": "023", "district": "Chamba", "st_code": "02", "year": "2011_c", "st_nm": "Himachal Pradesh" }, "geometry": { "type": "Polygon", "coordinates": [ [ [ 76.747763182240405, 33.179738942071459 ], [ 76.750406037929892, 33.16059579262933 ], [ 76.745120326550932, 33.118091511664602 ], [ 76.740212165984744, 33.10446418494309 ], [ 76.742099920048659, 33.097001601262264 ], [ 76.765508070441228, 33.018806702693567 ], [ 76.780610102952565, 33.017184401893388 ], [ 76.770416231007417, 32.990903128930469 ], [ 76.785895814331525, 32.952292369886173 ], [ 76.760222359062254, 32.925037716443143 ], [ 76.73341625135464, 32.929904618843686 ], [ 76.716426464779389, 32.917899592922353 ], [ 76.710763202587643, 32.884155736278601 ], [ 76.67904893431384, 32.846518357714416 ], [ 76.610334686387262, 32.851709720274997 ], [ 76.576732664049544, 32.824130606671929 ], [ 76.491406180360499, 32.802067315789479 ], [ 76.469885784031845, 32.806285297869948 ], [ 76.474038842972462, 32.820886005071571 ], [ 76.442702125511445, 32.855927702355466 ], [ 76.379273588963841, 32.81991262459146 ], [ 76.377385834899925, 32.797524873548973 ], [ 76.389845011721775, 32.783573086667424 ], [ 76.402304188543624, 32.728414859461289 ], [ 76.40268173935641, 32.728090399301252 ], [ 76.431375601127939, 32.708622789699092 ], [ 76.425712338936194, 32.688181799616821 ], [ 76.446855184452062, 32.674230012735265 ], [ 76.443457227137017, 32.6583314648935 ], [ 76.444212328762575, 32.658007004733463 ], [ 76.466865377529587, 32.652166721852815 ], [ 76.522742897821516, 32.668389729854617 ], [ 76.531049015702749, 32.656384703933284 ], [ 76.551436759593059, 32.656709164093321 ], [ 76.594855103063139, 32.636592634171087 ], [ 76.605048975008302, 32.604471078327514 ], [ 76.634875489218189, 32.605119998647588 ], [ 76.629212227026429, 32.574296283444163 ], [ 76.651487724980655, 32.582732247605094 ], [ 76.674895875373224, 32.563589098162971 ], [ 76.692263212761247, 32.564886938803113 ], [ 76.699814229016923, 32.545094869040916 ], [ 76.714916261528259, 32.538281205680157 ], [ 76.751538690368236, 32.556450974642175 ], [ 76.767395824505144, 32.545094869040916 ], [ 76.794579483025544, 32.546717169841095 ], [ 76.799487643591732, 32.531467542319398 ], [ 76.82780395455049, 32.538281205680157 ], [ 76.842150885436254, 32.524329418798608 ], [ 76.867069239079953, 32.533738763439651 ], [ 76.879528415901802, 32.512648853037305 ], [ 76.859895773637064, 32.490910022314893 ], [ 76.86593658664161, 32.463655368871862 ], [ 76.86593658664161, 32.463655368871862 ], [ 76.866314137454381, 32.462681988391751 ], [ 76.819875387482028, 32.429262591908042 ], [ 76.783252958642052, 32.402332398625049 ], [ 76.783252958642052, 32.401683478304975 ], [ 76.786273365144311, 32.372157603741691 ], [ 76.777967247263078, 32.363072719260678 ], [ 76.776834594824734, 32.3614504184605 ], [ 76.751538690368236, 32.358205816860142 ], [ 76.785140712705967, 32.314079235095235 ], [ 76.769283578569059, 32.307265571734476 ], [ 76.779099899701421, 32.262490069649502 ], [ 76.7662631720668, 32.250160583568132 ], [ 76.775324391573591, 32.245942601487663 ], [ 76.763620316377313, 32.208629683083515 ], [ 76.763620316377313, 32.208629683083515 ], [ 76.735304005418556, 32.186241932041028 ], [ 76.708497897710942, 32.19986925876254 ], [ 76.666589757491991, 32.175859206919874 ], [ 76.666212206679205, 32.175534746759837 ], [ 76.612222440451177, 32.196624657162182 ], [ 76.586548985181906, 32.222905930125101 ], [ 76.499712298241732, 32.232315274766151 ], [ 76.484610265730396, 32.250160583568132 ], [ 76.463089869401756, 32.247240442127804 ], [ 76.444589879575361, 32.263787910289643 ], [ 76.427977643812895, 32.260867768849323 ], [ 76.427977643812895, 32.260867768849323 ], [ 76.396263375539093, 32.288771342612421 ], [ 76.359640946699102, 32.321541818776069 ], [ 76.3551103369457, 32.325435340696501 ], [ 76.294702206900368, 32.337440366617834 ], [ 76.282243030078519, 32.370859763101549 ], [ 76.262232837000994, 32.37377990454187 ], [ 76.249018558553573, 32.394220894624141 ], [ 76.221834900033173, 32.394869814944215 ], [ 76.198426749640603, 32.367939621661222 ], [ 76.167467582992373, 32.35431229493971 ], [ 76.17539615006082, 32.340036047898124 ], [ 76.161804320800627, 32.299802988053649 ], [ 76.190498182572156, 32.261841149329427 ], [ 76.183324717129267, 32.234910956046434 ], [ 76.18105941225258, 32.225177151245354 ], [ 76.180304310627008, 32.222581469965064 ], [ 76.176906353311949, 32.222905930125101 ], [ 76.175018599248034, 32.223230390285138 ], [ 76.17011043868186, 32.223554850445176 ], [ 76.17011043868186, 32.23685771700665 ], [ 76.144059432599803, 32.223554850445176 ], [ 76.123294137896721, 32.230692973965965 ], [ 76.124049239522279, 32.25600086644878 ], [ 76.092334971248476, 32.270601573650403 ], [ 76.031549290390359, 32.268654812690187 ], [ 76.031171739577573, 32.268979272850224 ], [ 76.016447257879022, 32.290718103572637 ], [ 76.022488070883554, 32.334195765017469 ], [ 75.971141160345013, 32.392923053983999 ], [ 75.933386079066679, 32.391625213343858 ], [ 75.932630977441121, 32.393571974304074 ], [ 75.932253426628336, 32.394220894624141 ], [ 75.901671810792877, 32.452623723430634 ], [ 75.843906536437018, 32.503888428716337 ], [ 75.836355520181357, 32.510702092077089 ], [ 75.835977969368571, 32.511026552237126 ], [ 75.833335113679084, 32.51329777335738 ], [ 75.838998375870844, 32.518164675757923 ], [ 75.875998355523606, 32.550610691761527 ], [ 75.869202440893517, 32.563589098162971 ], [ 75.880906516089794, 32.570727221683761 ], [ 75.880906516089794, 32.586301309365496 ], [ 75.902049361605663, 32.592790512566218 ], [ 75.918661597368128, 32.633023572410686 ], [ 75.929988121751634, 32.631401271610507 ], [ 75.936784036381738, 32.647948739772346 ], [ 75.918284046555343, 32.644704138171988 ], [ 75.909222827048552, 32.659304845373612 ], [ 75.889967735596599, 32.653464562492957 ], [ 75.889212633971027, 32.653140102332927 ], [ 75.924324859559889, 32.747558008903418 ], [ 75.890722837222157, 32.78292416634735 ], [ 75.883926922592067, 32.812125580750596 ], [ 75.823518792546722, 32.85398094139525 ], [ 75.80124329459251, 32.885453576918749 ], [ 75.80124329459251, 32.885778037078779 ], [ 75.801998396218067, 32.886102497238817 ], [ 75.849947349441564, 32.929904618843686 ], [ 75.92470241037266, 32.906219027161058 ], [ 75.95377382295699, 32.873448550997409 ], [ 76.031926841203145, 32.916601752282205 ], [ 76.044008467212208, 32.936718282204446 ], [ 76.08818191230786, 32.956185891806605 ], [ 76.111590062700429, 32.987982987490142 ], [ 76.112345164326001, 33.006477216612197 ], [ 76.173130845184119, 33.013290879972956 ], [ 76.182947166316495, 33.020753463653783 ], [ 76.221457349220387, 33.02107792381382 ], [ 76.247508355302443, 33.021726844133894 ], [ 76.278467521950688, 33.037949852135696 ], [ 76.296212410151497, 33.060662063338221 ], [ 76.291681800398095, 33.103166344302949 ], [ 76.410232755612071, 33.186552605432212 ], [ 76.486875570607097, 33.179414481911422 ], [ 76.569559198606655, 33.209589276794773 ], [ 76.602783670131601, 33.206344675194416 ], [ 76.618640804268495, 33.174223119350842 ], [ 76.64620201360168, 33.162218093429509 ], [ 76.715293812341045, 33.181361242871638 ], [ 76.747008080614847, 33.179090021751385 ], [ 76.747385631427619, 33.179738942071459 ], [ 76.747763182240405, 33.179738942071459 ] ] ] } },
{ "type": "Feature", "properties": { "dt_code": "024", "district": "Kangra", "st_code": "02", "year": "2011_c", "st_nm": "Himachal Pradesh" }, "geometry": { "type": "Polygon", "coordinates": [ [ [ 76.86593658664161, 32.463655368871862 ], [ 76.910487582550047, 32.464628749351974 ], [ 76.911242684175605, 32.464628749351974 ], [ 76.898783507353755, 32.448405741350165 ], [ 76.916528395554579, 32.43510287478869 ], [ 76.908599828486118, 32.417582026146739 ], [ 76.947110011390023, 32.426991370787789 ], [ 76.947487562202809, 32.403305779105153 ], [ 76.980334482914969, 32.403954699425228 ], [ 77.055089543846066, 32.433805034148541 ], [ 77.064905864978442, 32.418555406626851 ], [ 77.077742592613077, 32.418555406626851 ], [ 77.077365041800292, 32.417582026146739 ], [ 77.073589533672461, 32.39843887670461 ], [ 77.073967084485233, 32.39843887670461 ], [ 77.059620153599468, 32.380593567902629 ], [ 77.041497714585873, 32.34230726901837 ], [ 77.069814025544616, 32.334520225177506 ], [ 77.051691586531021, 32.30791449205455 ], [ 77.03319159670464, 32.281308758931594 ], [ 77.027905885325666, 32.265410211089829 ], [ 77.028283436138452, 32.258921007889107 ], [ 77.048671180028748, 32.217714567564528 ], [ 76.997701820302993, 32.193704515721855 ], [ 76.978824279663826, 32.132381545475042 ], [ 76.984865092668358, 32.110318254592585 ], [ 76.942201850823849, 32.113562856192949 ], [ 76.942201850823849, 32.112589475712838 ], [ 76.935405936193746, 32.062298150907253 ], [ 76.857630468760362, 32.05061758514595 ], [ 76.842150885436254, 32.038937019384655 ], [ 76.802130499281219, 32.063271531387358 ], [ 76.801752948468433, 32.070409654908154 ], [ 76.78778356839544, 32.068787354107968 ], [ 76.771171332632974, 32.063595991547395 ], [ 76.731150946477939, 32.026931993463322 ], [ 76.705477491208669, 32.036665798264401 ], [ 76.705099940395883, 32.043479461625161 ], [ 76.699059127391351, 32.047372983545593 ], [ 76.683579544067243, 32.047372983545593 ], [ 76.66961016399425, 32.040234860024796 ], [ 76.666589757491991, 32.036341338104364 ], [ 76.662814249364146, 32.013304666741803 ], [ 76.687355052195073, 31.972422686577261 ], [ 76.696038720889092, 31.933811927532968 ], [ 76.673008121309309, 31.905259433449793 ], [ 76.680181586752184, 31.870866656485973 ], [ 76.655640783921271, 31.868270975205682 ], [ 76.648089767665596, 31.871840036966081 ], [ 76.638650997346019, 31.871840036966081 ], [ 76.639028548158805, 31.873462337766259 ], [ 76.595987755501497, 31.892281027048352 ], [ 76.563518385602123, 31.887738584807845 ], [ 76.557100021784805, 31.886440744167704 ], [ 76.519722491319257, 31.842638622562834 ], [ 76.466865377529587, 31.829011295841319 ], [ 76.475171495410819, 31.809219226079119 ], [ 76.45704905639721, 31.817655190240057 ], [ 76.463844971027314, 31.804676783838616 ], [ 76.444212328762575, 31.799809881438073 ], [ 76.44081437144753, 31.811490447199372 ], [ 76.435151109255784, 31.794618518877495 ], [ 76.435151109255784, 31.793969598557425 ], [ 76.412875611301558, 31.793969598557425 ], [ 76.412498060488772, 31.786182554716557 ], [ 76.412875611301558, 31.782937953116196 ], [ 76.412498060488772, 31.783262413276233 ], [ 76.396263375539093, 31.794618518877495 ], [ 76.370589920269822, 31.772555227995042 ], [ 76.354732786132928, 31.792022837597209 ], [ 76.324906271923041, 31.778071050715656 ], [ 76.299610367466556, 31.780017811675872 ], [ 76.299987918279328, 31.779368891355801 ], [ 76.306406282096646, 31.763145883353999 ], [ 76.318865458918509, 31.731348787670463 ], [ 76.315089950790664, 31.725508504789815 ], [ 76.312824645913963, 31.722263903189454 ], [ 76.305651180471088, 31.711556717908262 ], [ 76.28979404633418, 31.68787112622563 ], [ 76.288661393895836, 31.685924365265414 ], [ 76.287906292270264, 31.686897745745522 ], [ 76.205222664270707, 31.767688325594502 ], [ 76.205222664270707, 31.767688325594502 ], [ 76.181436963065352, 31.76379480367407 ], [ 76.184079818754839, 31.779044431195764 ], [ 76.147457389914848, 31.80013434159811 ], [ 76.1100798594493, 31.79526743919757 ], [ 76.108192105385385, 31.822522092640597 ], [ 76.089692115559004, 31.819277491040236 ], [ 76.0828962009289, 31.840691861602618 ], [ 76.068171719230349, 31.83971848112251 ], [ 76.067794168417564, 31.83971848112251 ], [ 76.042498263961079, 31.86178177200496 ], [ 76.017957461130152, 31.865999754085429 ], [ 76.014181953002321, 31.866324214245466 ], [ 75.994171759924811, 31.851723507043843 ], [ 75.99190645504811, 31.850101206243664 ], [ 75.959814635961521, 31.85691486960442 ], [ 75.910355479486896, 31.95003493553477 ], [ 75.868447339267945, 31.972747146737294 ], [ 75.811059615724872, 31.987996774258992 ], [ 75.800865743779724, 31.993512596979603 ], [ 75.798600438903023, 31.994485977459711 ], [ 75.779722898263856, 32.004868702580865 ], [ 75.750651485679526, 32.037639178744506 ], [ 75.723467827159126, 32.033096736504007 ], [ 75.661549493862651, 32.07527655730869 ], [ 75.655131130045348, 32.077223318268906 ], [ 75.650600520291945, 32.076898858108869 ], [ 75.600763813004534, 32.070734115068184 ], [ 75.594723, 32.070085194748117 ], [ 75.597743406502275, 32.08209022066945 ], [ 75.600763813004534, 32.093121866110678 ], [ 75.606427075196279, 32.09441970675082 ], [ 75.614733193077527, 32.096366467711036 ], [ 75.625304615835461, 32.118105298433456 ], [ 75.661171943049879, 32.136923987715548 ], [ 75.672876018246157, 32.158662818437961 ], [ 75.663814798739352, 32.162231880198355 ], [ 75.667212756054411, 32.177481507720053 ], [ 75.658906638173178, 32.177481507720053 ], [ 75.655886231670905, 32.19727357748225 ], [ 75.624171963397103, 32.190459914121497 ], [ 75.626437268273804, 32.215443346444275 ], [ 75.638896445095654, 32.221932549644997 ], [ 75.636631140218952, 32.231341894286039 ], [ 75.617753599579785, 32.236533256846613 ], [ 75.617753599579785, 32.236533256846613 ], [ 75.638518894282868, 32.252107344528348 ], [ 75.770661678757051, 32.288771342612421 ], [ 75.797845337277451, 32.324786420376427 ], [ 75.815212674665489, 32.330302243097037 ], [ 75.811059615724872, 32.348472012059062 ], [ 75.844284087249804, 32.355934595739889 ], [ 75.847304493752077, 32.37377990454187 ], [ 75.873733050646905, 32.395518735264289 ], [ 75.874110601459691, 32.395843195424327 ], [ 75.932253426628336, 32.394220894624141 ], [ 75.932630977441121, 32.393571974304074 ], [ 75.933386079066679, 32.391625213343858 ], [ 75.971141160345013, 32.392923053983999 ], [ 76.022488070883554, 32.334195765017469 ], [ 76.016447257879022, 32.290718103572637 ], [ 76.031171739577573, 32.268979272850224 ], [ 76.031549290390359, 32.268654812690187 ], [ 76.092334971248476, 32.270601573650403 ], [ 76.124049239522279, 32.25600086644878 ], [ 76.123294137896721, 32.230692973965965 ], [ 76.144059432599803, 32.223554850445176 ], [ 76.17011043868186, 32.23685771700665 ], [ 76.17011043868186, 32.223554850445176 ], [ 76.175018599248034, 32.223230390285138 ], [ 76.176906353311949, 32.222905930125101 ], [ 76.180304310627008, 32.222581469965064 ], [ 76.18105941225258, 32.225177151245354 ], [ 76.183324717129267, 32.234910956046434 ], [ 76.190498182572156, 32.261841149329427 ], [ 76.161804320800627, 32.299802988053649 ], [ 76.17539615006082, 32.340036047898124 ], [ 76.167467582992373, 32.35431229493971 ], [ 76.198426749640603, 32.367939621661222 ], [ 76.221834900033173, 32.394869814944215 ], [ 76.249018558553573, 32.394220894624141 ], [ 76.262232837000994, 32.37377990454187 ], [ 76.282243030078519, 32.370859763101549 ], [ 76.294702206900368, 32.337440366617834 ], [ 76.3551103369457, 32.325435340696501 ], [ 76.359640946699102, 32.321541818776069 ], [ 76.396263375539093, 32.288771342612421 ], [ 76.427977643812895, 32.260867768849323 ], [ 76.427977643812895, 32.260867768849323 ], [ 76.444589879575361, 32.263787910289643 ], [ 76.463089869401756, 32.247240442127804 ], [ 76.484610265730396, 32.250160583568132 ], [ 76.499712298241732, 32.232315274766151 ], [ 76.586548985181906, 32.222905930125101 ], [ 76.612222440451177, 32.196624657162182 ], [ 76.666212206679205, 32.175534746759837 ], [ 76.666589757491991, 32.175859206919874 ], [ 76.708497897710942, 32.19986925876254 ], [ 76.735304005418556, 32.186241932041028 ], [ 76.763620316377313, 32.208629683083515 ], [ 76.763620316377313, 32.208629683083515 ], [ 76.775324391573591, 32.245942601487663 ], [ 76.7662631720668, 32.250160583568132 ], [ 76.779099899701421, 32.262490069649502 ], [ 76.769283578569059, 32.307265571734476 ], [ 76.785140712705967, 32.314079235095235 ], [ 76.751538690368236, 32.358205816860142 ], [ 76.776834594824734, 32.3614504184605 ], [ 76.777967247263078, 32.363072719260678 ], [ 76.786273365144311, 32.372157603741691 ], [ 76.783252958642052, 32.401683478304975 ], [ 76.783252958642052, 32.402332398625049 ], [ 76.819875387482028, 32.429262591908042 ], [ 76.866314137454381, 32.462681988391751 ], [ 76.86593658664161, 32.463655368871862 ] ] ] } },
{ "type": "Feature", "properties": { "dt_code": "026", "district": "Kullu", "st_code": "02", "year": "2011_c", "st_nm": "Himachal Pradesh" }, "geometry": { "type": "Polygon", "coordinates": [ [ [ 77.073967084485233, 32.39843887670461 ], [ 77.081895651553694, 32.394545354784178 ], [ 77.086803812119868, 32.396167655584364 ], [ 77.151742551918616, 32.414661884706419 ], [ 77.152120102731402, 32.414661884706419 ], [ 77.195160895388696, 32.39843887670461 ], [ 77.200069055954884, 32.385784930463203 ], [ 77.227252714475284, 32.370210842781475 ], [ 77.242732297799407, 32.375402205342056 ], [ 77.317864909543289, 32.322515199256173 ], [ 77.332211840429068, 32.306616651414409 ], [ 77.343538364812559, 32.281957679251668 ], [ 77.348068974565962, 32.260543308689286 ], [ 77.345048568063703, 32.246915981967767 ], [ 77.354109787570493, 32.229719593485861 ], [ 77.381293446090908, 32.21219874484391 ], [ 77.403946494857905, 32.210576444043731 ], [ 77.420936281433157, 32.189810993801423 ], [ 77.464732175716023, 32.194028975881892 ], [ 77.469262785469425, 32.224203770765243 ], [ 77.531558669578686, 32.195326816522034 ], [ 77.546660702090023, 32.219661328524744 ], [ 77.566293344354747, 32.204411701003046 ], [ 77.571956606546507, 32.184619631240849 ], [ 77.652374929669364, 32.143088730756233 ], [ 77.688242256883782, 32.101557830271616 ], [ 77.742987124737368, 32.090850644990425 ], [ 77.744119777175712, 32.089552804350276 ], [ 77.753936098308088, 32.07527655730869 ], [ 77.763752419440451, 32.042830541305086 ], [ 77.790558527148079, 32.018820489462414 ], [ 77.772436088134469, 32.006491003381043 ], [ 77.79810954340374, 31.987023393778884 ], [ 77.766772825942724, 31.943221272174014 ], [ 77.804527907221058, 31.90071699120929 ], [ 77.868711545394234, 31.886440744167704 ], [ 77.838129929558775, 31.854319188324133 ], [ 77.849456453942281, 31.832904817761751 ], [ 77.847568699878366, 31.802405562718363 ], [ 77.869089096207006, 31.782613492956163 ], [ 77.86342583401526, 31.781640112476055 ], [ 77.860782978325773, 31.783586873436271 ], [ 77.860405427513001, 31.78099119215598 ], [ 77.854364614508455, 31.75633221999324 ], [ 77.853987063695683, 31.754709919193061 ], [ 77.807548313723316, 31.761199122393784 ], [ 77.786027917394676, 31.752438698072808 ], [ 77.764129970253236, 31.761848042713854 ], [ 77.749783039367472, 31.748545176152376 ], [ 77.747895285303557, 31.713827939028516 ], [ 77.742609573924582, 31.712854558548408 ], [ 77.678048384938634, 31.703120753747328 ], [ 77.645956565852046, 31.662563233742819 ], [ 77.662568801614512, 31.633686279499607 ], [ 77.64557901503926, 31.615192050377551 ], [ 77.648599421541519, 31.583070494533981 ], [ 77.698813679641717, 31.542188514369439 ], [ 77.70711979752295, 31.50163099436493 ], [ 77.669364716244615, 31.462695775160601 ], [ 77.627834126838437, 31.451339669559339 ], [ 77.621038212208333, 31.426680697396598 ], [ 77.633497389030197, 31.40104834475375 ], [ 77.628966779276794, 31.390016699312525 ], [ 77.596119858564634, 31.399101583793534 ], [ 77.553834167532898, 31.390341159472559 ], [ 77.517211738692907, 31.348161338667872 ], [ 77.488140326108592, 31.355299462188665 ], [ 77.42924239931439, 31.340374294827004 ], [ 77.398283232666159, 31.36146420522935 ], [ 77.382803649342037, 31.360166364589205 ], [ 77.382803649342037, 31.360490824749242 ], [ 77.385824055844296, 31.408186468274543 ], [ 77.385446505031524, 31.412079990194975 ], [ 77.329191433926795, 31.455882111799845 ], [ 77.315977155479374, 31.532779169728393 ], [ 77.298987368904122, 31.551922319170519 ], [ 77.302762877031967, 31.66807905646343 ], [ 77.257079228685171, 31.709934417108084 ], [ 77.213660885215091, 31.725508504789815 ], [ 77.187987429945821, 31.818953030880202 ], [ 77.17326294824727, 31.823495473120705 ], [ 77.177793558000658, 31.841665242082726 ], [ 77.097752785690588, 31.838745100642402 ], [ 77.081895651553694, 31.827064534881103 ], [ 77.077365041800292, 31.83712279984222 ], [ 77.057732399535553, 31.837771720162294 ], [ 77.05886505197391, 31.859510550884711 ], [ 76.974671220723209, 31.981183110898233 ], [ 76.972405915846508, 32.015900348022093 ], [ 76.938803893508791, 32.042506081145049 ], [ 76.938803893508791, 32.042830541305086 ], [ 76.938426342696005, 32.042830541305086 ], [ 76.938426342696005, 32.043803921785191 ], [ 76.935405936193746, 32.062298150907253 ], [ 76.942201850823849, 32.112589475712838 ], [ 76.942201850823849, 32.113562856192949 ], [ 76.984865092668358, 32.110318254592585 ], [ 76.978824279663826, 32.132381545475042 ], [ 76.997701820302993, 32.193704515721855 ], [ 77.048671180028748, 32.217714567564528 ], [ 77.028283436138452, 32.258921007889107 ], [ 77.027905885325666, 32.265410211089829 ], [ 77.03319159670464, 32.281308758931594 ], [ 77.051691586531021, 32.30791449205455 ], [ 77.069814025544616, 32.334520225177506 ], [ 77.041497714585873, 32.34230726901837 ], [ 77.059620153599468, 32.380593567902629 ], [ 77.073967084485233, 32.39843887670461 ] ] ] } },
{ "type": "Feature", "properties": { "dt_code": "027", "district": "Mandi", "st_code": "02", "year": "2011_c", "st_nm": "Himachal Pradesh" }, "geometry": { "type": "Polygon", "coordinates": [ [ [ 76.638650997346019, 31.871840036966081 ], [ 76.648089767665596, 31.871840036966081 ], [ 76.655640783921271, 31.868270975205682 ], [ 76.680181586752184, 31.870866656485973 ], [ 76.673008121309309, 31.905259433449793 ], [ 76.696038720889092, 31.933811927532968 ], [ 76.687355052195073, 31.972422686577261 ], [ 76.662814249364146, 32.013304666741803 ], [ 76.666589757491991, 32.036341338104364 ], [ 76.66961016399425, 32.040234860024796 ], [ 76.683579544067243, 32.047372983545593 ], [ 76.699059127391351, 32.047372983545593 ], [ 76.705099940395883, 32.043479461625161 ], [ 76.705477491208669, 32.036665798264401 ], [ 76.731150946477939, 32.026931993463322 ], [ 76.771171332632974, 32.063595991547395 ], [ 76.78778356839544, 32.068787354107968 ], [ 76.801752948468433, 32.070409654908154 ], [ 76.802130499281219, 32.063271531387358 ], [ 76.842150885436254, 32.038937019384655 ], [ 76.857630468760362, 32.05061758514595 ], [ 76.935405936193746, 32.062298150907253 ], [ 76.938426342696005, 32.043803921785191 ], [ 76.938426342696005, 32.042830541305086 ], [ 76.938803893508791, 32.042830541305086 ], [ 76.938803893508791, 32.042506081145049 ], [ 76.972405915846508, 32.015900348022093 ], [ 76.974671220723209, 31.981183110898233 ], [ 77.05886505197391, 31.859510550884711 ], [ 77.057732399535553, 31.837771720162294 ], [ 77.077365041800292, 31.83712279984222 ], [ 77.081895651553694, 31.827064534881103 ], [ 77.097752785690588, 31.838745100642402 ], [ 77.177793558000658, 31.841665242082726 ], [ 77.17326294824727, 31.823495473120705 ], [ 77.187987429945821, 31.818953030880202 ], [ 77.213660885215091, 31.725508504789815 ], [ 77.257079228685171, 31.709934417108084 ], [ 77.302762877031967, 31.66807905646343 ], [ 77.298987368904122, 31.551922319170519 ], [ 77.315977155479374, 31.532779169728393 ], [ 77.329191433926795, 31.455882111799845 ], [ 77.385446505031524, 31.412079990194975 ], [ 77.385824055844296, 31.408186468274543 ], [ 77.382803649342037, 31.360490824749242 ], [ 77.370722023332974, 31.359517444269134 ], [ 77.365813862766785, 31.355623922348702 ], [ 77.352599584319364, 31.343943356587403 ], [ 77.344671017250917, 31.337129693226647 ], [ 77.333722043680197, 31.294300952101885 ], [ 77.305405732721439, 31.268344139299 ], [ 77.281242480703312, 31.263801697058494 ], [ 77.268405753068677, 31.272562121379469 ], [ 77.245375153488894, 31.251147750817086 ], [ 77.219701698219623, 31.261206015778207 ], [ 77.199313954329313, 31.242062866336077 ], [ 77.190252734822522, 31.253743432097377 ], [ 77.154762958420875, 31.230706760734815 ], [ 77.140038476722324, 31.229733380254707 ], [ 77.128711952338833, 31.230057840414744 ], [ 77.125313995023774, 31.247903149216729 ], [ 77.123803791772644, 31.247903149216729 ], [ 77.123803791772644, 31.248876529696837 ], [ 77.086426261307096, 31.24920098985687 ], [ 77.073967084485233, 31.257961414177846 ], [ 77.052824238969365, 31.265099537698639 ], [ 77.030548741015153, 31.272886581539503 ], [ 76.941824300011064, 31.332911711146178 ], [ 76.942956952449407, 31.34426781674744 ], [ 76.920681454495195, 31.365033266989748 ], [ 76.876130458586758, 31.350757019948158 ], [ 76.875375356961186, 31.350757019948158 ], [ 76.863671281764908, 31.378011673391189 ], [ 76.881416169965718, 31.384176416431874 ], [ 76.875752907773972, 31.41337783083512 ], [ 76.802130499281219, 31.420840414515951 ], [ 76.802130499281219, 31.421164874675988 ], [ 76.801752948468433, 31.421489334836021 ], [ 76.799110092778946, 31.443877085878512 ], [ 76.792314178148843, 31.450690749239268 ], [ 76.797977440340603, 31.452961970359521 ], [ 76.795712135463901, 31.475025261241974 ], [ 76.782120306203694, 31.479892163642514 ], [ 76.783630509454824, 31.501306534204893 ], [ 76.769661129381845, 31.514609400766371 ], [ 76.765885621254014, 31.517854002366732 ], [ 76.730773395665153, 31.516556161726587 ], [ 76.737191759482471, 31.524018745407417 ], [ 76.72246727778392, 31.540566213569257 ], [ 76.723222379409492, 31.540566213569257 ], [ 76.72246727778392, 31.540890673729294 ], [ 76.731528497290725, 31.541864054209402 ], [ 76.731150946477939, 31.561656123971602 ], [ 76.726997887537323, 31.56262950445171 ], [ 76.730773395665153, 31.580474813253694 ], [ 76.730773395665153, 31.581448193733802 ], [ 76.730773395665153, 31.581448193733802 ], [ 76.714538710715473, 31.628819377099067 ], [ 76.714538710715473, 31.629468297419141 ], [ 76.718314218843304, 31.64342008430069 ], [ 76.72397748103505, 31.664834454863069 ], [ 76.720957074532791, 31.666456755663251 ], [ 76.692640763574033, 31.68300422382509 ], [ 76.686977501382287, 31.686248825425452 ], [ 76.68999790788456, 31.695009249746423 ], [ 76.688865255446203, 31.69955169198693 ], [ 76.670742816432607, 31.719992682069201 ], [ 76.672253019683737, 31.734593389270824 ], [ 76.638273446533233, 31.74659841519216 ], [ 76.622793863209111, 31.790724996957064 ], [ 76.62052855833241, 31.798512040797931 ], [ 76.637895895720447, 31.871840036966081 ], [ 76.638650997346019, 31.871840036966081 ] ] ] } },
{ "type": "Feature", "properties": { "dt_code": "034", "district": "Kinnaur", "st_code": "02", "year": "2011_c", "st_nm": "Himachal Pradesh" }, "geometry": { "type": "Polygon", "coordinates": [ [ [ 77.86342583401526, 31.781640112476055 ], [ 77.899293161229679, 31.755034379353095 ], [ 77.906466626672568, 31.753087618392879 ], [ 77.908354380736483, 31.751789777752737 ], [ 77.913640092115443, 31.7514653175927 ], [ 77.931007429503481, 31.751140857432663 ], [ 77.937425793320799, 31.750816397272629 ], [ 77.938558445759156, 31.753412078552916 ], [ 77.95064007176822, 31.78845377583681 ], [ 77.951772724206563, 31.788129315676777 ], [ 77.997078821740573, 31.781315652316017 ], [ 78.027282886763246, 31.75892790127353 ], [ 78.029170640827161, 31.760550202073709 ], [ 78.056354299347561, 31.783586873436271 ], [ 78.080517551365702, 31.786831475036632 ], [ 78.08127265299126, 31.78845377583681 ], [ 78.095242033064252, 31.831931437281643 ], [ 78.096374685502596, 31.835176038882004 ], [ 78.096374685502596, 31.835500499042041 ], [ 78.082405305429617, 31.846207684323232 ], [ 78.089201220059721, 31.857239329764457 ], [ 78.12506854727414, 31.868270975205682 ], [ 78.16169097611413, 31.860159471204781 ], [ 78.166221585867518, 31.861457311844926 ], [ 78.174905254561537, 31.86437745328525 ], [ 78.180190965940511, 31.865999754085429 ], [ 78.187741982196172, 31.871840036966081 ], [ 78.188497083821744, 31.872488957286151 ], [ 78.188497083821744, 31.872813417446189 ], [ 78.180946067566069, 31.915966618730984 ], [ 78.200956260643594, 31.932514086892823 ], [ 78.340650061373438, 31.931540706412715 ], [ 78.364058211766007, 31.959768740335853 ], [ 78.399925538980426, 31.953603997295168 ], [ 78.419558181245165, 31.934785308013076 ], [ 78.454670406834012, 31.938029909613437 ], [ 78.458445914961857, 31.958146439535675 ], [ 78.432017358067014, 31.977938509297871 ], [ 78.449007144642266, 32.060026929787 ], [ 78.507905071436468, 32.04769744370563 ], [ 78.592476453499941, 32.067813973627864 ], [ 78.613241748203038, 32.049319744505809 ], [ 78.627588679088802, 32.067165053307789 ], [ 78.64495601647684, 32.060675850107067 ], [ 78.655527439234774, 32.073978716668549 ], [ 78.656282540860332, 32.073978716668549 ], [ 78.671762124184454, 32.07527655730869 ], [ 78.674027429061155, 32.075601017468728 ], [ 78.672894776622798, 32.078521158909055 ], [ 78.676670284750642, 32.087606043390061 ], [ 78.705741697334958, 32.066516132987715 ], [ 78.734435559106487, 32.004219782260797 ], [ 78.781251859891626, 31.993188136819569 ], [ 78.773700843635964, 31.974369447537477 ], [ 78.781251859891626, 31.965284563056468 ], [ 78.765772276567517, 31.954577377775276 ], [ 78.771435538759263, 31.928945025132428 ], [ 78.741609024549376, 31.901365911529361 ], [ 78.749915142430609, 31.873786797926297 ], [ 78.745006981864421, 31.839394020962473 ], [ 78.702721290832685, 31.807272465118903 ], [ 78.705741697334958, 31.773853068635187 ], [ 78.725751890412482, 31.758278980953456 ], [ 78.729527398540313, 31.732971088470645 ], [ 78.754068201371226, 31.69533370990646 ], [ 78.750292693243395, 31.681381923024908 ], [ 78.763884522503602, 31.674568259664152 ], [ 78.798619197279663, 31.68235530350502 ], [ 78.801639603781936, 31.647962526541196 ], [ 78.8409048883114, 31.622979094218419 ], [ 78.846945701315931, 31.608378387016796 ], [ 78.77558859769988, 31.543810815169618 ], [ 78.761241666814115, 31.549002177730195 ], [ 78.734813109919273, 31.536023771328754 ], [ 78.722353933097423, 31.512987099966193 ], [ 78.72499678878691, 31.483785685562946 ], [ 78.758598811124628, 31.482487844922801 ], [ 78.778609004202153, 31.451339669559339 ], [ 78.797864095654091, 31.443552625718475 ], [ 78.760864116001329, 31.400723884593713 ], [ 78.749537591617823, 31.366006647469856 ], [ 78.769170233882562, 31.350432559788125 ], [ 78.769170233882562, 31.32447574698524 ], [ 78.791445731836788, 31.304683677223039 ], [ 78.852986514320477, 31.295274332581993 ], [ 78.851476311069334, 31.310848420263724 ], [ 78.861670183014482, 31.316364242984339 ], [ 78.876017113900261, 31.303061376422857 ], [ 78.881302825279221, 31.284242687140768 ], [ 78.881302825279221, 31.284242687140768 ], [ 78.882057926904793, 31.280998085540407 ], [ 78.885833435032623, 31.268993059619071 ], [ 78.886210985845409, 31.268668599459037 ], [ 78.916037500055296, 31.2485520695368 ], [ 78.927741575251574, 31.219999575453627 ], [ 78.928874227689931, 31.2170794340133 ], [ 78.947751768329098, 31.216754973853266 ], [ 78.943976260201268, 31.206696708892146 ], [ 78.957568089461461, 31.186580178969912 ], [ 78.985884400420218, 31.173926232728505 ], [ 78.987394603671348, 31.143426977685113 ], [ 79.008915, 31.110007581201401 ], [ 78.950772174831357, 31.098002555280065 ], [ 78.920568109808698, 31.110656501521472 ], [ 78.908486483799621, 31.098975935760173 ], [ 78.885455884219837, 31.098651475600139 ], [ 78.831088567179037, 31.140831296404826 ], [ 78.825047754174506, 31.163543507607351 ], [ 78.810700823288727, 31.171979471768289 ], [ 78.81749673791883, 31.189824780570273 ], [ 78.809945721663169, 31.198260744731208 ], [ 78.765017174941946, 31.185931258649838 ], [ 78.671762124184454, 31.196962904091066 ], [ 78.658170294924247, 31.185282338329767 ], [ 78.647221321353541, 31.21480821289305 ], [ 78.609466240075193, 31.22940892009467 ], [ 78.578129522614176, 31.225190938014201 ], [ 78.551700965719348, 31.19988304553139 ], [ 78.483741819418341, 31.198909665051282 ], [ 78.456558160897927, 31.239791645215824 ], [ 78.45580305927237, 31.241089485855969 ], [ 78.448252043016694, 31.245956388256509 ], [ 78.435415315382059, 31.253743432097377 ], [ 78.434282662943716, 31.254716812577485 ], [ 78.407099004423316, 31.242387326496114 ], [ 78.396150030852596, 31.275157802659756 ], [ 78.396150030852596, 31.275482262819793 ], [ 78.386333709720233, 31.271588740899361 ], [ 78.374252083711156, 31.282620386340586 ], [ 78.370476575583325, 31.286513908261018 ], [ 78.339517408935095, 31.279375784740225 ], [ 78.32894598617716, 31.278402404260117 ], [ 78.311201097976337, 31.283269306660657 ], [ 78.311201097976337, 31.282944846500623 ], [ 78.304405183346233, 31.285864987940947 ], [ 78.294211311401085, 31.290407430181453 ], [ 78.294211311401085, 31.291056350501524 ], [ 78.302139878469532, 31.315390862504231 ], [ 78.291568455711598, 31.326098047785418 ], [ 78.257588882561095, 31.326746968105493 ], [ 78.237578689483584, 31.341672135467149 ], [ 78.211527683401528, 31.324151286825202 ], [ 78.162446077739688, 31.34426781674744 ], [ 78.150364451730624, 31.360815284909279 ], [ 78.163201179365259, 31.383203035951766 ], [ 78.10166039688157, 31.419218113715768 ], [ 78.054466545283645, 31.417595812915589 ], [ 78.021997175384271, 31.399101583793534 ], [ 77.971027815658516, 31.402021725233858 ], [ 77.965742104279556, 31.402346185393895 ], [ 77.960833943713368, 31.408186468274543 ], [ 77.93440538681854, 31.423436095796237 ], [ 77.926854370562864, 31.423111635636204 ], [ 77.897782957978549, 31.444526006198583 ], [ 77.897405407165763, 31.44485046635862 ], [ 77.896650305540192, 31.445499386678691 ], [ 77.881170722216083, 31.469833898681397 ], [ 77.881170722216083, 31.489950428603631 ], [ 77.868333994581448, 31.501306534204893 ], [ 77.858895224261857, 31.509418038205794 ], [ 77.839640132809905, 31.5058489764454 ], [ 77.838129929558775, 31.580474813253694 ], [ 77.812078923476719, 31.609676227656941 ], [ 77.823405447860225, 31.634659659979718 ], [ 77.812834025102291, 31.662563233742819 ], [ 77.792823832024766, 31.674243799504115 ], [ 77.772058537321684, 31.705391974867577 ], [ 77.747895285303557, 31.713503478868482 ], [ 77.747895285303557, 31.713827939028516 ], [ 77.749783039367472, 31.748545176152376 ], [ 77.764129970253236, 31.761848042713854 ], [ 77.786027917394676, 31.752438698072808 ], [ 77.807548313723316, 31.761199122393784 ], [ 77.853987063695683, 31.754709919193061 ], [ 77.854364614508455, 31.75633221999324 ], [ 77.860405427513001, 31.78099119215598 ], [ 77.860782978325773, 31.783586873436271 ], [ 77.86342583401526, 31.781640112476055 ] ] ] } },
{ "type": "Feature", "properties": { "dt_code": "029", "district": "Una", "st_code": "02", "year": "2011_c", "st_nm": "Himachal Pradesh" }, "geometry": { "type": "Polygon", "coordinates": [ [ [ 75.959814635961521, 31.85691486960442 ], [ 75.99190645504811, 31.850101206243664 ], [ 75.994171759924811, 31.851723507043843 ], [ 76.014181953002321, 31.866324214245466 ], [ 76.017957461130152, 31.865999754085429 ], [ 76.042498263961079, 31.86178177200496 ], [ 76.067794168417564, 31.83971848112251 ], [ 76.068171719230349, 31.83971848112251 ], [ 76.0828962009289, 31.840691861602618 ], [ 76.089692115559004, 31.819277491040236 ], [ 76.108192105385385, 31.822522092640597 ], [ 76.1100798594493, 31.79526743919757 ], [ 76.147457389914848, 31.80013434159811 ], [ 76.184079818754839, 31.779044431195764 ], [ 76.181436963065352, 31.76379480367407 ], [ 76.205222664270707, 31.767688325594502 ], [ 76.205222664270707, 31.767688325594502 ], [ 76.287906292270264, 31.686897745745522 ], [ 76.288661393895836, 31.685924365265414 ], [ 76.28979404633418, 31.68787112622563 ], [ 76.305651180471088, 31.711556717908262 ], [ 76.312824645913963, 31.722263903189454 ], [ 76.318487908105723, 31.713503478868482 ], [ 76.36454910726529, 31.642122243660545 ], [ 76.399283782041365, 31.610000687816974 ], [ 76.400793985292495, 31.608378387016796 ], [ 76.407967450735384, 31.591830918854956 ], [ 76.450253141767121, 31.502604374845038 ], [ 76.463089869401756, 31.487679207483378 ], [ 76.461579666150612, 31.487030287163307 ], [ 76.450630692579892, 31.48183892460273 ], [ 76.471773538095761, 31.455233191479774 ], [ 76.462334767776184, 31.443877085878512 ], [ 76.479324554351436, 31.441930324918292 ], [ 76.469885784031845, 31.437712342837827 ], [ 76.472528639721332, 31.420191494195876 ], [ 76.425334788123408, 31.407862008114506 ], [ 76.396263375539093, 31.424409476276345 ], [ 76.395508273913521, 31.422138255156096 ], [ 76.392110316598476, 31.41272891051505 ], [ 76.390600113347347, 31.40851092843458 ], [ 76.374742979210438, 31.435765581877607 ], [ 76.367947064580335, 31.403968486194074 ], [ 76.330947084927573, 31.401372804913787 ], [ 76.329436881676443, 31.37866059371126 ], [ 76.341518507685507, 31.378011673391189 ], [ 76.342273609311064, 31.354650541868594 ], [ 76.354355235320142, 31.344916737067511 ], [ 76.307538934535003, 31.342645515947257 ], [ 76.32264096704634, 31.321555605544916 ], [ 76.290171597146966, 31.306954898343292 ], [ 76.289416495521394, 31.306954898343292 ], [ 76.289416495521394, 31.306954898343292 ], [ 76.275447115448415, 31.301114615462641 ], [ 76.269028751631097, 31.313119641383977 ], [ 76.200314503704519, 31.302412456102786 ], [ 76.180681861439794, 31.306305978023218 ], [ 76.179926759814222, 31.306954898343292 ], [ 76.178794107375879, 31.340374294827004 ], [ 76.152365550481036, 31.352054860588304 ], [ 76.148967593165992, 31.356272842668773 ], [ 76.147457389914848, 31.374767071790828 ], [ 76.147834940727634, 31.37866059371126 ], [ 76.168600235430716, 31.39618144235321 ], [ 76.168600235430716, 31.409808769074722 ], [ 76.133110459029083, 31.451988589879413 ], [ 76.130845154152382, 31.471131739321539 ], [ 76.116875774079404, 31.483136765242875 ], [ 76.120651282207234, 31.497737472444499 ], [ 76.056090093221272, 31.585666175814271 ], [ 76.055334991595714, 31.605782705736505 ], [ 76.046273772088909, 31.603187024456219 ], [ 76.01757991031738, 31.632063978699428 ], [ 76.018335011942938, 31.648935907021304 ], [ 76.008896241623361, 31.653478349261807 ], [ 75.960192186774307, 31.781315652316017 ], [ 75.936784036381738, 31.815383969119804 ], [ 75.967743203029968, 31.823495473120705 ], [ 75.978692176600688, 31.813112747999551 ], [ 75.982090133915733, 31.815383969119804 ], [ 75.983977887979648, 31.816357349599912 ], [ 75.986620743669135, 31.817979650400094 ], [ 75.98095748147739, 31.821873172320526 ], [ 75.959814635961521, 31.85691486960442 ] ] ] } },
{ "type": "Feature", "properties": { "dt_code": "033", "district": "Shimla", "st_code": "02", "year": "2011_c", "st_nm": "Himachal Pradesh" }, "geometry": { "type": "Polygon", "coordinates": [ [ [ 77.382803649342037, 31.360490824749242 ], [ 77.382803649342037, 31.360166364589205 ], [ 77.398283232666159, 31.36146420522935 ], [ 77.42924239931439, 31.340374294827004 ], [ 77.488140326108592, 31.355299462188665 ], [ 77.517211738692907, 31.348161338667872 ], [ 77.553834167532898, 31.390341159472559 ], [ 77.596119858564634, 31.399101583793534 ], [ 77.628966779276794, 31.390016699312525 ], [ 77.633497389030197, 31.40104834475375 ], [ 77.621038212208333, 31.426680697396598 ], [ 77.627834126838437, 31.451339669559339 ], [ 77.669364716244615, 31.462695775160601 ], [ 77.70711979752295, 31.50163099436493 ], [ 77.698813679641717, 31.542188514369439 ], [ 77.648599421541519, 31.583070494533981 ], [ 77.64557901503926, 31.615192050377551 ], [ 77.662568801614512, 31.633686279499607 ], [ 77.645956565852046, 31.662563233742819 ], [ 77.678048384938634, 31.703120753747328 ], [ 77.742609573924582, 31.712854558548408 ], [ 77.747895285303557, 31.713827939028516 ], [ 77.747895285303557, 31.713503478868482 ], [ 77.772058537321684, 31.705391974867577 ], [ 77.792823832024766, 31.674243799504115 ], [ 77.812834025102291, 31.662563233742819 ], [ 77.823405447860225, 31.634659659979718 ], [ 77.812078923476719, 31.609676227656941 ], [ 77.838129929558775, 31.580474813253694 ], [ 77.839640132809905, 31.5058489764454 ], [ 77.858895224261857, 31.509418038205794 ], [ 77.868333994581448, 31.501306534204893 ], [ 77.881170722216083, 31.489950428603631 ], [ 77.881170722216083, 31.469833898681397 ], [ 77.896650305540192, 31.445499386678691 ], [ 77.897405407165763, 31.44485046635862 ], [ 77.897782957978549, 31.444526006198583 ], [ 77.926854370562864, 31.423111635636204 ], [ 77.93440538681854, 31.423436095796237 ], [ 77.960833943713368, 31.408186468274543 ], [ 77.965742104279556, 31.402346185393895 ], [ 77.971027815658516, 31.402021725233858 ], [ 78.021997175384271, 31.399101583793534 ], [ 78.054466545283645, 31.417595812915589 ], [ 78.10166039688157, 31.419218113715768 ], [ 78.163201179365259, 31.383203035951766 ], [ 78.150364451730624, 31.360815284909279 ], [ 78.162446077739688, 31.34426781674744 ], [ 78.211527683401528, 31.324151286825202 ], [ 78.237578689483584, 31.341672135467149 ], [ 78.257588882561095, 31.326746968105493 ], [ 78.291568455711598, 31.326098047785418 ], [ 78.302139878469532, 31.315390862504231 ], [ 78.294211311401085, 31.291056350501524 ], [ 78.294211311401085, 31.290407430181453 ], [ 78.304405183346233, 31.285864987940947 ], [ 78.311201097976337, 31.282944846500623 ], [ 78.310823547163551, 31.282620386340586 ], [ 78.306292937410149, 31.259908175138062 ], [ 78.282884787017579, 31.266397378338784 ], [ 78.246262358177603, 31.230706760734815 ], [ 78.220211352095546, 31.233951362335176 ], [ 78.204731768771424, 31.220648495773698 ], [ 78.194915447639062, 31.221621876253806 ], [ 78.160180772862986, 31.225515398174238 ], [ 78.103548150945485, 31.185606798489804 ], [ 78.042762470087368, 31.178468674969011 ], [ 78.030303293265504, 31.150889561365943 ], [ 78.000854329868403, 31.161921206807172 ], [ 77.984619644918723, 31.157054304406628 ], [ 77.967252307530686, 31.173601772568468 ], [ 77.924966616498949, 31.150565101205906 ], [ 77.898538059604121, 31.150240641045873 ], [ 77.89060949253566, 31.121688146962697 ], [ 77.863803384828046, 31.108709740561256 ], [ 77.851344208006196, 31.073343583117325 ], [ 77.838129929558775, 31.072694662797254 ], [ 77.824160549485796, 31.05549827431534 ], [ 77.811323821851161, 31.059067336075739 ], [ 77.829446260864756, 31.029541461512455 ], [ 77.829823811677542, 31.028892541192384 ], [ 77.816231982417335, 31.0308393021526 ], [ 77.807548313723316, 31.016238594950977 ], [ 77.824915651111354, 31.009749391750255 ], [ 77.831711565741458, 30.994175304068524 ], [ 77.81434422835342, 30.96172928806492 ], [ 77.837752378745989, 30.953293323903981 ], [ 77.816987084042907, 30.953942244224052 ], [ 77.813966677540634, 30.953942244224052 ], [ 77.786027917394676, 30.967569570945567 ], [ 77.772058537321684, 30.97405877414629 ], [ 77.759221809687048, 30.962702668545028 ], [ 77.749405488554686, 30.952644403583907 ], [ 77.762619767002107, 30.918251626620087 ], [ 77.813211575915076, 30.921820688380482 ], [ 77.815099329978992, 30.904299839738535 ], [ 77.801507500718785, 30.89326819429731 ], [ 77.805660559659401, 30.853359594612872 ], [ 77.779232002764573, 30.860497718133665 ], [ 77.773568740572827, 30.877694106615579 ], [ 77.758089157248705, 30.876720726135471 ], [ 77.744119777175712, 30.846545931252116 ], [ 77.761109563750964, 30.826104941169842 ], [ 77.703721840207891, 30.764133050602954 ], [ 77.703721840207891, 30.764133050602954 ], [ 77.658793293486681, 30.806961791727716 ], [ 77.624058618710606, 30.80988193316804 ], [ 77.600272917505251, 30.779382678124652 ], [ 77.546660702090023, 30.774191315564075 ], [ 77.548548456153938, 30.800472588526993 ], [ 77.529670915514771, 30.799823668206923 ], [ 77.520987246820752, 30.78587188132537 ], [ 77.492293385049209, 30.795281225966416 ], [ 77.491538283423651, 30.842652409331684 ], [ 77.478701555789016, 30.864715700214134 ], [ 77.451517897268602, 30.863093399413955 ], [ 77.435283212318922, 30.875098425335288 ], [ 77.437926068008409, 30.889374672376874 ], [ 77.417915874930884, 30.928958811901275 ], [ 77.443211779387369, 30.944857359743043 ], [ 77.439436271259538, 30.979250136706867 ], [ 77.379405692026978, 31.020781037191483 ], [ 77.369589370894616, 31.005531409669786 ], [ 77.336364899369684, 30.998393286148993 ], [ 77.301252673780823, 30.967569570945567 ], [ 77.298232267278564, 30.952968863743944 ], [ 77.266517999004762, 30.940963837822611 ], [ 77.247262907552809, 30.917602706300013 ], [ 77.246885356740023, 30.918900546940158 ], [ 77.239334340484348, 30.939665997182466 ], [ 77.24952821242951, 30.947777501183367 ], [ 77.204222114895501, 30.967569570945567 ], [ 77.21139558033839, 30.987361640707768 ], [ 77.197426200265397, 31.002935728389499 ], [ 77.170997643370569, 31.011696152710471 ], [ 77.164201728740466, 30.999691126789138 ], [ 77.118895631206456, 31.031488222472671 ], [ 77.101905844631204, 31.029541461512455 ], [ 77.066793619042357, 31.04803569063451 ], [ 77.087936464558226, 31.066205459596532 ], [ 77.080762999115336, 31.081779547278263 ], [ 77.055089543846066, 31.084699688718587 ], [ 77.035834452394113, 31.06717884007664 ], [ 77.024130377197835, 31.085024148878624 ], [ 77.053956891407722, 31.099949316240281 ], [ 77.048293629215976, 31.11422556328187 ], [ 76.997701820302993, 31.103193917840642 ], [ 76.992416108924033, 31.108385280401219 ], [ 76.992038558111247, 31.108709740561256 ], [ 76.989018151608974, 31.11162988200158 ], [ 77.011671200375986, 31.11422556328187 ], [ 77.010160997124856, 31.134666553364141 ], [ 77.035456901581341, 31.152187402006088 ], [ 77.03319159670464, 31.178468674969011 ], [ 77.001477328430838, 31.195989523610958 ], [ 77.021109970695562, 31.221297416093769 ], [ 77.003365082494753, 31.245307467936438 ], [ 77.030548741015153, 31.272886581539503 ], [ 77.030548741015153, 31.272886581539503 ], [ 77.052824238969365, 31.265099537698639 ], [ 77.073967084485233, 31.257961414177846 ], [ 77.086426261307096, 31.24920098985687 ], [ 77.123803791772644, 31.248876529696837 ], [ 77.123803791772644, 31.247903149216729 ], [ 77.125313995023774, 31.247903149216729 ], [ 77.128711952338833, 31.230057840414744 ], [ 77.140038476722324, 31.229733380254707 ], [ 77.154762958420875, 31.230706760734815 ], [ 77.190252734822522, 31.253743432097377 ], [ 77.199313954329313, 31.242062866336077 ], [ 77.219701698219623, 31.261206015778207 ], [ 77.245375153488894, 31.251147750817086 ], [ 77.268405753068677, 31.272562121379469 ], [ 77.281242480703312, 31.263801697058494 ], [ 77.305405732721439, 31.268344139299 ], [ 77.333722043680197, 31.294300952101885 ], [ 77.344671017250917, 31.337129693226647 ], [ 77.352599584319364, 31.343943356587403 ], [ 77.365813862766785, 31.355623922348702 ], [ 77.370722023332974, 31.359517444269134 ], [ 77.382803649342037, 31.360490824749242 ] ] ] } },
{ "type": "Feature", "properties": { "dt_code": "031", "district": "Solan", "st_code": "02", "year": "2011_c", "st_nm": "Himachal Pradesh" }, "geometry": { "type": "Polygon", "coordinates": [ [ [ 76.876130458586758, 31.350757019948158 ], [ 76.920681454495195, 31.365033266989748 ], [ 76.942956952449407, 31.34426781674744 ], [ 76.941824300011064, 31.332911711146178 ], [ 77.030548741015153, 31.272886581539503 ], [ 77.030548741015153, 31.272886581539503 ], [ 77.003365082494753, 31.245307467936438 ], [ 77.021109970695562, 31.221297416093769 ], [ 77.001477328430838, 31.195989523610958 ], [ 77.03319159670464, 31.178468674969011 ], [ 77.035456901581341, 31.152187402006088 ], [ 77.010160997124856, 31.134666553364141 ], [ 77.011671200375986, 31.11422556328187 ], [ 76.989018151608974, 31.11162988200158 ], [ 76.992038558111247, 31.108709740561256 ], [ 76.992416108924033, 31.108385280401219 ], [ 76.997701820302993, 31.103193917840642 ], [ 77.048293629215976, 31.11422556328187 ], [ 77.053956891407722, 31.099949316240281 ], [ 77.024130377197835, 31.085024148878624 ], [ 77.035834452394113, 31.06717884007664 ], [ 77.055089543846066, 31.084699688718587 ], [ 77.080762999115336, 31.081779547278263 ], [ 77.087936464558226, 31.066205459596532 ], [ 77.066793619042357, 31.04803569063451 ], [ 77.101905844631204, 31.029541461512455 ], [ 77.118895631206456, 31.031488222472671 ], [ 77.164201728740466, 30.999691126789138 ], [ 77.170997643370569, 31.011696152710471 ], [ 77.197426200265397, 31.002935728389499 ], [ 77.21139558033839, 30.987361640707768 ], [ 77.204222114895501, 30.967569570945567 ], [ 77.24952821242951, 30.947777501183367 ], [ 77.239334340484348, 30.939665997182466 ], [ 77.246885356740023, 30.918900546940158 ], [ 77.245375153488894, 30.917602706300013 ], [ 77.231783324228687, 30.901704158458248 ], [ 77.231028222603115, 30.901055238138174 ], [ 77.215548639279007, 30.902028618618282 ], [ 77.215171088466221, 30.901704158458248 ], [ 77.20573231814663, 30.888725752056803 ], [ 77.213660885215091, 30.878667487095687 ], [ 77.183079269379633, 30.860497718133665 ], [ 77.187232328320249, 30.850763913332585 ], [ 77.169109889306654, 30.84200348901161 ], [ 77.153630305982531, 30.856604196213233 ], [ 77.11474257226584, 30.851088373492619 ], [ 77.104926251133477, 30.833243064690638 ], [ 77.087936464558226, 30.830322923250311 ], [ 77.083405854804823, 30.792036624366055 ], [ 77.027150783700108, 30.7537503254818 ], [ 77.023375275572263, 30.751154644201513 ], [ 77.024130377197835, 30.748558962921223 ], [ 77.023752826385049, 30.747585582441115 ], [ 77.018467115006089, 30.765430891243099 ], [ 77.001099777618052, 30.769973333483605 ], [ 77.018467115006089, 30.780031598444722 ], [ 77.0112936495632, 30.810855313648148 ], [ 77.002609980869181, 30.806312871407645 ], [ 76.968252856905892, 30.825456020849771 ], [ 76.942579401636621, 30.81734451684887 ], [ 76.95126307033064, 30.850439453172548 ], [ 76.936538588632089, 30.874773965175255 ], [ 76.917283497180136, 30.883534389496226 ], [ 76.916905946367365, 30.90073077797814 ], [ 76.86971209476944, 30.873151664375072 ], [ 76.844416190312955, 30.889374672376874 ], [ 76.841018232997897, 30.891645893497127 ], [ 76.822518243171515, 30.928634351741241 ], [ 76.776834594824734, 30.904299839738535 ], [ 76.776457044011948, 30.904624299898572 ], [ 76.770416231007417, 30.910140122619183 ], [ 76.747008080614847, 30.933176793981744 ], [ 76.737569310295257, 30.939665997182466 ], [ 76.732661149729068, 30.93771923622225 ], [ 76.735304005418556, 30.944857359743043 ], [ 76.710008100962071, 30.969516331905783 ], [ 76.709630550149285, 30.969840792065821 ], [ 76.67338567212208, 30.968867411585713 ], [ 76.624681617273026, 30.99871774630903 ], [ 76.629212227026429, 31.02337671847177 ], [ 76.611089788012833, 31.04576446951426 ], [ 76.622793863209111, 31.055173814155303 ], [ 76.617885702642937, 31.078210485517864 ], [ 76.638650997346019, 31.108060820241185 ], [ 76.636008141656532, 31.11649678440212 ], [ 76.602028568506029, 31.123634907922913 ], [ 76.612222440451177, 31.148293880085657 ], [ 76.601651017693243, 31.153160782486196 ], [ 76.609202033948918, 31.173277312408434 ], [ 76.600140814442113, 31.178468674969011 ], [ 76.645446911976123, 31.208967930012399 ], [ 76.645446911976123, 31.208967930012399 ], [ 76.690753009510118, 31.215781593373158 ], [ 76.732661149729068, 31.240765025695936 ], [ 76.77872234888865, 31.215457133213121 ], [ 76.793069279774414, 31.226164318494313 ], [ 76.838752928121195, 31.231031220894852 ], [ 76.839508029746767, 31.231031220894852 ], [ 76.871977399646141, 31.219999575453627 ], [ 76.875375356961186, 31.220324035613661 ], [ 76.86593658664161, 31.245631928096476 ], [ 76.872354950458927, 31.262179396258315 ], [ 76.894630448413139, 31.265423997858676 ], [ 76.891610041910866, 31.274184422179648 ], [ 76.91313043823952, 31.283269306660657 ], [ 76.927854919938071, 31.304034756902965 ], [ 76.877263111025101, 31.327395888425563 ], [ 76.878395763463459, 31.329018189225742 ], [ 76.882926373216861, 31.335507392426464 ], [ 76.873487602897271, 31.348810258987942 ], [ 76.876508009399544, 31.34978363946805 ], [ 76.876130458586758, 31.350757019948158 ] ] ] } },
{ "type": "Feature", "properties": { "dt_code": "032", "district": "Sirmaur", "st_code": "02", "year": "2011_c", "st_nm": "Himachal Pradesh" }, "geometry": { "type": "Polygon", "coordinates": [ [ [ 77.246885356740023, 30.918900546940158 ], [ 77.247262907552809, 30.917602706300013 ], [ 77.266517999004762, 30.940963837822611 ], [ 77.298232267278564, 30.952968863743944 ], [ 77.301252673780823, 30.967569570945567 ], [ 77.336364899369684, 30.998393286148993 ], [ 77.369589370894616, 31.005531409669786 ], [ 77.379405692026978, 31.020781037191483 ], [ 77.439436271259538, 30.979250136706867 ], [ 77.443211779387369, 30.944857359743043 ], [ 77.417915874930884, 30.928958811901275 ], [ 77.437926068008409, 30.889374672376874 ], [ 77.435283212318922, 30.875098425335288 ], [ 77.451517897268602, 30.863093399413955 ], [ 77.478701555789016, 30.864715700214134 ], [ 77.491538283423651, 30.842652409331684 ], [ 77.492293385049209, 30.795281225966416 ], [ 77.520987246820752, 30.78587188132537 ], [ 77.529670915514771, 30.799823668206923 ], [ 77.548548456153938, 30.800472588526993 ], [ 77.546660702090023, 30.774191315564075 ], [ 77.600272917505251, 30.779382678124652 ], [ 77.624058618710606, 30.80988193316804 ], [ 77.658793293486681, 30.806961791727716 ], [ 77.703721840207891, 30.764133050602954 ], [ 77.702589187769547, 30.745963281640936 ], [ 77.706742246710164, 30.744665441000791 ], [ 77.717313669468098, 30.740771919080359 ], [ 77.726374888974902, 30.737851777640035 ], [ 77.742987124737368, 30.722926610278375 ], [ 77.754313649120874, 30.708650363236789 ], [ 77.755823852372004, 30.706703602276573 ], [ 77.747517734490771, 30.679773408993579 ], [ 77.791313628773636, 30.659332418911305 ], [ 77.781119756828488, 30.646678472669901 ], [ 77.795844238527039, 30.614556916826331 ], [ 77.77092588488334, 30.616503677786547 ], [ 77.771680986508898, 30.59703606818438 ], [ 77.746007531239641, 30.603849731545139 ], [ 77.743364675550154, 30.593467006423985 ], [ 77.742987124737368, 30.593142546263948 ], [ 77.773946291385599, 30.557776388820017 ], [ 77.817742185668479, 30.561020990420378 ], [ 77.826803405175269, 30.528250514256737 ], [ 77.823782998673011, 30.521761311056014 ], [ 77.816231982417335, 30.505862763214246 ], [ 77.721089177595928, 30.473092287050605 ], [ 77.690130010947698, 30.448108854727828 ], [ 77.652374929669364, 30.448108854727828 ], [ 77.643313710162559, 30.431885846726026 ], [ 77.596119858564634, 30.427343404485519 ], [ 77.594987206126291, 30.426694484165449 ], [ 77.588946393121759, 30.422800962245013 ], [ 77.573089258984851, 30.412418237123862 ], [ 77.573089258984851, 30.411769316803788 ], [ 77.574221911423209, 30.404631193282995 ], [ 77.57459946223598, 30.400737671362563 ], [ 77.574977013048766, 30.400737671362563 ], [ 77.580640275240526, 30.379323300800181 ], [ 77.581017826053298, 30.377701 ], [ 77.56931375085702, 30.384514663360758 ], [ 77.55307906590734, 30.39359954784177 ], [ 77.550436210217853, 30.394897388481912 ], [ 77.523252551697453, 30.443566412487321 ], [ 77.506640315934973, 30.427667864645557 ], [ 77.502487256994357, 30.404631193282995 ], [ 77.48927297854695, 30.410471476163643 ], [ 77.443211779387369, 30.395546308801986 ], [ 77.422446484684286, 30.409822555843572 ], [ 77.459068913524277, 30.432859227206134 ], [ 77.45642605783479, 30.455571438408658 ], [ 77.404701596483463, 30.408524715203427 ], [ 77.397905681853373, 30.416311759044294 ], [ 77.40734445217295, 30.427018944325482 ], [ 77.386956708282653, 30.439997350726927 ], [ 77.364303659515656, 30.432534767046096 ], [ 77.354109787570493, 30.458167119688945 ], [ 77.320885316045562, 30.445837633607574 ], [ 77.295589411589077, 30.466603083849883 ], [ 77.277089421762696, 30.46433186272963 ], [ 77.27671187094991, 30.46433186272963 ], [ 77.276334320137124, 30.465305243209738 ], [ 77.263875143315275, 30.481203791051506 ], [ 77.226497612849727, 30.480554870731435 ], [ 77.211773131151162, 30.465629703369775 ], [ 77.210640478712818, 30.464656322889667 ], [ 77.208375173836117, 30.488017454412265 ], [ 77.206864970584988, 30.505862763214246 ], [ 77.192895590511995, 30.525654832976446 ], [ 77.14041602753511, 30.543500141778431 ], [ 77.13513031615615, 30.545446902738647 ], [ 77.12418134258543, 30.561345450580415 ], [ 77.122671139334287, 30.563292211540631 ], [ 77.123048690147073, 30.563292211540631 ], [ 77.172130295808913, 30.601254050264849 ], [ 77.176660905562315, 30.636295747548747 ], [ 77.163446627114894, 30.650896454750367 ], [ 77.167222135242724, 30.683991391074048 ], [ 77.1204058344576, 30.720330928998088 ], [ 77.097375234877802, 30.738176237800069 ], [ 77.069814025544616, 30.737527317479998 ], [ 77.050558934092663, 30.748558962921223 ], [ 77.04791607840319, 30.738176237800069 ], [ 77.029793639389581, 30.733633795559566 ], [ 77.02752833451288, 30.739474078440214 ], [ 77.024130377197835, 30.748558962921223 ], [ 77.023375275572263, 30.751154644201513 ], [ 77.027150783700108, 30.7537503254818 ], [ 77.083405854804823, 30.792036624366055 ], [ 77.087936464558226, 30.830322923250311 ], [ 77.104926251133477, 30.833243064690638 ], [ 77.11474257226584, 30.851088373492619 ], [ 77.153630305982531, 30.856604196213233 ], [ 77.169109889306654, 30.84200348901161 ], [ 77.187232328320249, 30.850763913332585 ], [ 77.183079269379633, 30.860497718133665 ], [ 77.213660885215091, 30.878667487095687 ], [ 77.20573231814663, 30.888725752056803 ], [ 77.215171088466221, 30.901704158458248 ], [ 77.215548639279007, 30.902028618618282 ], [ 77.231028222603115, 30.901055238138174 ], [ 77.231783324228687, 30.901704158458248 ], [ 77.245375153488894, 30.917602706300013 ], [ 77.246885356740023, 30.918900546940158 ] ] ] } },
{ "type": "Feature", "properties": { "dt_code": "028", "district": "Hamirpur", "st_code": "02", "year": "2011_c", "st_nm": "Himachal Pradesh" }, "geometry": { "type": "Polygon", "coordinates": [ [ [ 76.312824645913963, 31.722263903189454 ], [ 76.315089950790664, 31.725508504789815 ], [ 76.318865458918509, 31.731348787670463 ], [ 76.306406282096646, 31.763145883353999 ], [ 76.299987918279328, 31.779368891355801 ], [ 76.299610367466556, 31.780017811675872 ], [ 76.324906271923041, 31.778071050715656 ], [ 76.354732786132928, 31.792022837597209 ], [ 76.370589920269822, 31.772555227995042 ], [ 76.396263375539093, 31.794618518877495 ], [ 76.412498060488772, 31.783262413276233 ], [ 76.412875611301558, 31.782937953116196 ], [ 76.412498060488772, 31.786182554716557 ], [ 76.412875611301558, 31.793969598557425 ], [ 76.435151109255784, 31.793969598557425 ], [ 76.435151109255784, 31.794618518877495 ], [ 76.44081437144753, 31.811490447199372 ], [ 76.444212328762575, 31.799809881438073 ], [ 76.463844971027314, 31.804676783838616 ], [ 76.45704905639721, 31.817655190240057 ], [ 76.475171495410819, 31.809219226079119 ], [ 76.466865377529587, 31.829011295841319 ], [ 76.519722491319257, 31.842638622562834 ], [ 76.557100021784805, 31.886440744167704 ], [ 76.563518385602123, 31.887738584807845 ], [ 76.595987755501497, 31.892281027048352 ], [ 76.639028548158805, 31.873462337766259 ], [ 76.638650997346019, 31.871840036966081 ], [ 76.637895895720447, 31.871840036966081 ], [ 76.62052855833241, 31.798512040797931 ], [ 76.622793863209111, 31.790724996957064 ], [ 76.638273446533233, 31.74659841519216 ], [ 76.672253019683737, 31.734593389270824 ], [ 76.670742816432607, 31.719992682069201 ], [ 76.688865255446203, 31.69955169198693 ], [ 76.68999790788456, 31.695009249746423 ], [ 76.686977501382287, 31.686248825425452 ], [ 76.692640763574033, 31.68300422382509 ], [ 76.720957074532791, 31.666456755663251 ], [ 76.72397748103505, 31.664834454863069 ], [ 76.718314218843304, 31.64342008430069 ], [ 76.714538710715473, 31.629468297419141 ], [ 76.714538710715473, 31.628819377099067 ], [ 76.730773395665153, 31.581448193733802 ], [ 76.719069320468876, 31.588261857094558 ], [ 76.706610143647026, 31.595399980615351 ], [ 76.70623259283424, 31.595075520455318 ], [ 76.661681596925803, 31.57755467181337 ], [ 76.646957115227252, 31.584043875014089 ], [ 76.619773456706852, 31.574634530373043 ], [ 76.607314279885003, 31.477620942522261 ], [ 76.625814269711384, 31.442579245238367 ], [ 76.612222440451177, 31.42992529899696 ], [ 76.613732643702306, 31.421813794996059 ], [ 76.611089788012833, 31.417271352755552 ], [ 76.562008182350993, 31.428627458356814 ], [ 76.531049015702749, 31.463344695480675 ], [ 76.523497999447088, 31.464318075960783 ], [ 76.514814330753069, 31.465291456440891 ], [ 76.479702105164222, 31.469184978361323 ], [ 76.461579666150612, 31.487030287163307 ], [ 76.463089869401756, 31.487679207483378 ], [ 76.450253141767121, 31.502604374845038 ], [ 76.407967450735384, 31.591830918854956 ], [ 76.400793985292495, 31.608378387016796 ], [ 76.399283782041365, 31.610000687816974 ], [ 76.36454910726529, 31.642122243660545 ], [ 76.318487908105723, 31.713503478868482 ], [ 76.312824645913963, 31.722263903189454 ] ] ] } },
{ "type": "Feature", "properties": { "dt_code": "030", "district": "Bilaspur", "st_code": "02", "year": "2011_c", "st_nm": "Himachal Pradesh" }, "geometry": { "type": "Polygon", "coordinates": [ [ [ 76.730773395665153, 31.581448193733802 ], [ 76.730773395665153, 31.581448193733802 ], [ 76.730773395665153, 31.580474813253694 ], [ 76.726997887537323, 31.56262950445171 ], [ 76.731150946477939, 31.561656123971602 ], [ 76.731528497290725, 31.541864054209402 ], [ 76.72246727778392, 31.540890673729294 ], [ 76.723222379409492, 31.540566213569257 ], [ 76.72246727778392, 31.540566213569257 ], [ 76.737191759482471, 31.524018745407417 ], [ 76.730773395665153, 31.516556161726587 ], [ 76.765885621254014, 31.517854002366732 ], [ 76.769661129381845, 31.514609400766371 ], [ 76.783630509454824, 31.501306534204893 ], [ 76.782120306203694, 31.479892163642514 ], [ 76.795712135463901, 31.475025261241974 ], [ 76.797977440340603, 31.452961970359521 ], [ 76.792314178148843, 31.450690749239268 ], [ 76.799110092778946, 31.443877085878512 ], [ 76.801752948468433, 31.421489334836021 ], [ 76.802130499281219, 31.421164874675988 ], [ 76.802130499281219, 31.420840414515951 ], [ 76.875752907773972, 31.41337783083512 ], [ 76.881416169965718, 31.384176416431874 ], [ 76.863671281764908, 31.378011673391189 ], [ 76.875375356961186, 31.350757019948158 ], [ 76.876130458586758, 31.350757019948158 ], [ 76.876508009399544, 31.34978363946805 ], [ 76.873487602897271, 31.348810258987942 ], [ 76.882926373216861, 31.335507392426464 ], [ 76.878395763463459, 31.329018189225742 ], [ 76.877263111025101, 31.327395888425563 ], [ 76.927854919938071, 31.304034756902965 ], [ 76.91313043823952, 31.283269306660657 ], [ 76.891610041910866, 31.274184422179648 ], [ 76.894630448413139, 31.265423997858676 ], [ 76.872354950458927, 31.262179396258315 ], [ 76.86593658664161, 31.245631928096476 ], [ 76.875375356961186, 31.220324035613661 ], [ 76.871977399646141, 31.219999575453627 ], [ 76.839508029746767, 31.231031220894852 ], [ 76.838752928121195, 31.231031220894852 ], [ 76.793069279774414, 31.226164318494313 ], [ 76.77872234888865, 31.215457133213121 ], [ 76.732661149729068, 31.240765025695936 ], [ 76.690753009510118, 31.215781593373158 ], [ 76.645446911976123, 31.208967930012399 ], [ 76.634497938405403, 31.217728354333374 ], [ 76.641671403848278, 31.222595256733914 ], [ 76.627702023775299, 31.226488778654346 ], [ 76.59334489981201, 31.211563611292689 ], [ 76.588436739245822, 31.222919716893951 ], [ 76.612222440451177, 31.247903149216729 ], [ 76.587681637620264, 31.274184422179648 ], [ 76.58617143436912, 31.273535501859577 ], [ 76.549171454716358, 31.252770051617269 ], [ 76.551436759593059, 31.278726864420154 ], [ 76.542753090899041, 31.282620386340586 ], [ 76.539355133583996, 31.261206015778207 ], [ 76.523875550259874, 31.258285874337883 ], [ 76.527273507574918, 31.277104563619972 ], [ 76.497446993365031, 31.270615360419253 ], [ 76.479702105164222, 31.308252738983434 ], [ 76.439681719009187, 31.279051324580191 ], [ 76.463844971027314, 31.301439075622678 ], [ 76.431753151940725, 31.326746968105493 ], [ 76.392487867411262, 31.389692239152488 ], [ 76.403436840981982, 31.396830362673281 ], [ 76.392110316598476, 31.41272891051505 ], [ 76.395508273913521, 31.422138255156096 ], [ 76.396263375539093, 31.424409476276345 ], [ 76.425334788123408, 31.407862008114506 ], [ 76.472528639721332, 31.420191494195876 ], [ 76.469885784031845, 31.437712342837827 ], [ 76.479324554351436, 31.441930324918292 ], [ 76.462334767776184, 31.443877085878512 ], [ 76.471773538095761, 31.455233191479774 ], [ 76.450630692579892, 31.48183892460273 ], [ 76.461579666150612, 31.487030287163307 ], [ 76.479702105164222, 31.469184978361323 ], [ 76.514814330753069, 31.465291456440891 ], [ 76.523497999447088, 31.464318075960783 ], [ 76.531049015702749, 31.463344695480675 ], [ 76.562008182350993, 31.428627458356814 ], [ 76.611089788012833, 31.417271352755552 ], [ 76.613732643702306, 31.421813794996059 ], [ 76.612222440451177, 31.42992529899696 ], [ 76.625814269711384, 31.442579245238367 ], [ 76.607314279885003, 31.477620942522261 ], [ 76.619773456706852, 31.574634530373043 ], [ 76.646957115227252, 31.584043875014089 ], [ 76.661681596925803, 31.57755467181337 ], [ 76.70623259283424, 31.595075520455318 ], [ 76.706610143647026, 31.595399980615351 ], [ 76.719069320468876, 31.588261857094558 ], [ 76.730773395665153, 31.581448193733802 ] ] ] } }
]
}
