{
"type": "FeatureCollection",
"name": "jammu_and_kashmir",
"crs": { "type": "name", "properties": { "name": "urn:ogc:def:crs:OGC:1.3:CRS84" } },
"features": [
{ "type": "Feature", "properties": { "dt_code": "001", "district": "Kupwara", "st_nm": "Jammu and Kashmir", "st_code": "01", "year": "2011_c" }, "geometry": { "type": "Polygon", "coordinates": [ [ [ 74.595327940415629, 34.698241763641505 ], [ 74.549028889986914, 34.61836388379983 ], [ 74.54755126071791, 34.5541404628216 ], [ 74.481057943612839, 34.514803617472431 ], [ 74.485490831419852, 34.501557536895675 ], [ 74.476132512716177, 34.48590307803223 ], [ 74.449042642784477, 34.487910059937796 ], [ 74.462833849295151, 34.463826277070964 ], [ 74.444609754977478, 34.45138298925643 ], [ 74.439191780991138, 34.433320152106305 ], [ 74.395847989100417, 34.434122944868534 ], [ 74.381071696410402, 34.415658711337286 ], [ 74.37319100697573, 34.378328847893691 ], [ 74.347086223223371, 34.346618533785694 ], [ 74.306205146780982, 34.330562678541135 ], [ 74.298817000435974, 34.339794795306759 ], [ 74.260398639441945, 34.342604569974554 ], [ 74.183069374364194, 34.319724976251059 ], [ 74.164352736956829, 34.287613265761941 ], [ 74.150068987356491, 34.283599301950801 ], [ 74.140710668652815, 34.24345966383941 ], [ 74.115590971079783, 34.240649889171614 ], [ 74.063873946664728, 34.263128086513994 ], [ 74.022500327132676, 34.244663852982754 ], [ 73.988514853945645, 34.259515519083969 ], [ 73.983589423048969, 34.272761599660726 ], [ 73.946648691323929, 34.27396578880407 ], [ 73.943200889696257, 34.306077499293181 ], [ 73.92596188155791, 34.304070517387615 ], [ 73.922021536840575, 34.312901237772124 ], [ 73.937782915709917, 34.332569660446701 ], [ 73.906752701060896, 34.34942830845349 ], [ 73.862423822990834, 34.323337543681085 ], [ 73.807258996948107, 34.346618533785694 ], [ 73.789527445720097, 34.335780831495619 ], [ 73.760467403429729, 34.3526394795024 ], [ 73.756527058712393, 34.380737226180379 ], [ 73.809229169306789, 34.42569362086514 ], [ 73.841737013224815, 34.424088035340681 ], [ 73.892961494550207, 34.450178800113086 ], [ 73.888528606743208, 34.48188911422109 ], [ 73.897394382357206, 34.5051701043257 ], [ 73.965857871820958, 34.577822849307324 ], [ 73.961424984013945, 34.596688479219679 ], [ 73.945171062054925, 34.597892668363016 ], [ 73.938768001889258, 34.610335956177551 ], [ 73.938768001889258, 34.632412757138816 ], [ 73.977678905972965, 34.685798475826971 ], [ 74.004768775904665, 34.682185908396946 ], [ 74.030873559657024, 34.691819421543677 ], [ 74.066336662113059, 34.67937613372915 ], [ 74.106725195465771, 34.687002664970315 ], [ 74.109680454003779, 34.663320278484591 ], [ 74.136770323935465, 34.64887000876449 ], [ 74.157949676791162, 34.682988701159175 ], [ 74.283548164656295, 34.747212122137405 ], [ 74.319503810202008, 34.786548967486567 ], [ 74.337235361430018, 34.782133607294313 ], [ 74.552476691614586, 34.772500094147581 ], [ 74.593357768056961, 34.756845635284137 ], [ 74.600745914401969, 34.734768834322871 ], [ 74.595327940415629, 34.698241763641505 ] ] ] } },
{ "type": "Feature", "properties": { "dt_code": "009", "district": "Bandipora", "st_nm": "Jammu and Kashmir", "st_code": "01", "year": "2011_c" }, "geometry": { "type": "Polygon", "coordinates": [ [ [ 75.312470678971081, 34.366688352841386 ], [ 75.274544861066701, 34.36387857817359 ], [ 75.257798396018018, 34.377927451512576 ], [ 75.237111586251999, 34.370300920271411 ], [ 75.198200682168292, 34.386758171897085 ], [ 75.191797622002611, 34.359463217981336 ], [ 75.148946373201568, 34.344611551880121 ], [ 75.084915771544829, 34.380335829799265 ], [ 75.064228961778809, 34.406025198190555 ], [ 75.025810600784766, 34.419672675148426 ], [ 75.01645228208109, 34.435728530392986 ], [ 74.9607949129487, 34.445763439920832 ], [ 74.940600646272344, 34.463826277070964 ], [ 74.899719569829969, 34.44817181820752 ], [ 74.89134633730562, 34.43291875572519 ], [ 74.892331423484961, 34.412046143907261 ], [ 74.909077888533645, 34.401208441617186 ], [ 74.892823966574625, 34.375117676844781 ], [ 74.867211725911929, 34.369096731128074 ], [ 74.839629312890565, 34.346217137404579 ], [ 74.788897374654837, 34.34140038083121 ], [ 74.766732935619814, 34.314105426915461 ], [ 74.744075953495127, 34.314506823296576 ], [ 74.719941342101436, 34.345815741023465 ], [ 74.655910740444696, 34.36387857817359 ], [ 74.666254145327713, 34.322534750918855 ], [ 74.660343628251709, 34.278381148996324 ], [ 74.646552421741021, 34.28119092366412 ], [ 74.644582249382353, 34.267944843087363 ], [ 74.660343628251709, 34.259916915465084 ], [ 74.653448024996365, 34.245868042126091 ], [ 74.659358542072368, 34.227002412213736 ], [ 74.703687420142415, 34.185257188577886 ], [ 74.67807517947972, 34.174820882668925 ], [ 74.661328714431036, 34.186059981340115 ], [ 74.636209016858018, 34.176827864574499 ], [ 74.636209016858018, 34.196094890867968 ], [ 74.573163501380606, 34.187665566864574 ], [ 74.569715699752933, 34.202918629346904 ], [ 74.595820483505307, 34.23141777240599 ], [ 74.571685872111601, 34.236635925360474 ], [ 74.553461777793927, 34.222587052021488 ], [ 74.555924493242259, 34.233826150692678 ], [ 74.516521046068888, 34.297246778908679 ], [ 74.54213328673157, 34.402011234379415 ], [ 74.496326779392533, 34.445763439920832 ], [ 74.471699624909164, 34.425292224484025 ], [ 74.439191780991138, 34.424088035340681 ], [ 74.444609754977478, 34.45138298925643 ], [ 74.462833849295151, 34.463826277070964 ], [ 74.448057556605136, 34.486705870794459 ], [ 74.476132512716177, 34.48590307803223 ], [ 74.485490831419852, 34.501557536895675 ], [ 74.481057943612839, 34.514803617472431 ], [ 74.54755126071791, 34.5541404628216 ], [ 74.549028889986914, 34.61836388379983 ], [ 74.595327940415629, 34.698241763641505 ], [ 74.600745914401969, 34.738782798134011 ], [ 74.651477852637697, 34.697438970879276 ], [ 74.733240005522447, 34.67134820610687 ], [ 74.833226252724884, 34.663320278484591 ], [ 74.848987631594241, 34.674559377155781 ], [ 74.86425646737392, 34.662517485722361 ], [ 74.925331810492651, 34.663320278484591 ], [ 75.020885169888089, 34.625990415040995 ], [ 75.061273703240801, 34.62639181142211 ], [ 75.078020168289484, 34.638433702855522 ], [ 75.131707365063221, 34.646461630477802 ], [ 75.239081758610666, 34.627997396946562 ], [ 75.25582822365935, 34.605920595985296 ], [ 75.301142187908738, 34.589061947978507 ], [ 75.357292100130792, 34.530056679954761 ], [ 75.319858825316089, 34.434524341249642 ], [ 75.372068392820808, 34.40642659457167 ], [ 75.329217144019765, 34.35745623607577 ], [ 75.312470678971081, 34.366688352841386 ] ] ] } },
{ "type": "Feature", "properties": { "dt_code": "008", "district": "Baramulla", "st_nm": "Jammu and Kashmir", "st_code": "01", "year": "2011_c" }, "geometry": { "type": "Polygon", "coordinates": [ [ [ 74.553461777793927, 34.222587052021488 ], [ 74.571685872111601, 34.236635925360474 ], [ 74.59631302659497, 34.229410790500424 ], [ 74.571193329021938, 34.205327007633585 ], [ 74.572178415201279, 34.188468359626803 ], [ 74.636209016858018, 34.196094890867968 ], [ 74.636209016858018, 34.176827864574499 ], [ 74.661328714431036, 34.186059981340115 ], [ 74.702209790873411, 34.170806918857785 ], [ 74.707627764859751, 34.153948270851004 ], [ 74.696299273797408, 34.143511964942036 ], [ 74.70516504941142, 34.133075659033075 ], [ 74.689896213631741, 34.139498001130903 ], [ 74.616999836360989, 34.114611425501835 ], [ 74.565282811945934, 34.068852238054845 ], [ 74.55149160543526, 34.067648048911508 ], [ 74.541148200552243, 34.047979626236923 ], [ 74.494356607033865, 34.056408950240318 ], [ 74.492386434675183, 34.043162869663554 ], [ 74.511595615172212, 34.033529356516823 ], [ 74.475147426536836, 34.005030213457729 ], [ 74.485490831419852, 33.95927102601074 ], [ 74.459386047667493, 33.933983054000564 ], [ 74.427370746839117, 33.921941162567144 ], [ 74.424908031390785, 33.909096478371502 ], [ 74.41013173870077, 33.906286703703699 ], [ 74.385504584217401, 33.944419359909524 ], [ 74.315563465484658, 33.9552570621996 ], [ 74.302264802063647, 33.992185529262088 ], [ 74.270742044324948, 33.984558998020923 ], [ 74.245622346751915, 34.021487465083403 ], [ 74.219025019909893, 34.030318185467905 ], [ 74.177158857288177, 34.024698636132314 ], [ 74.126919462142126, 34.04597264433135 ], [ 74.096381790582754, 34.01948048317783 ], [ 74.044172223078036, 34.019079086796715 ], [ 74.027425758029352, 34.001417646027704 ], [ 74.001813517366656, 34.019079086796715 ], [ 73.954036837668937, 34.016670708510034 ], [ 73.901827270164219, 34.04918381538026 ], [ 73.894439123819211, 34.07246480548487 ], [ 73.906752701060896, 34.10618210149844 ], [ 73.927439510826915, 34.107386290641784 ], [ 73.932364941723577, 34.141103586655355 ], [ 73.965857871820958, 34.153948270851004 ], [ 74.00772403444266, 34.190876737913484 ], [ 74.001813517366656, 34.202517232965789 ], [ 74.010186749891005, 34.222185655640374 ], [ 73.988514853945645, 34.259515519083969 ], [ 74.026440671850011, 34.244262456601639 ], [ 74.063873946664728, 34.263128086513994 ], [ 74.115590971079783, 34.240649889171614 ], [ 74.140710668652815, 34.24345966383941 ], [ 74.150068987356491, 34.283599301950801 ], [ 74.164352736956829, 34.287613265761941 ], [ 74.183069374364194, 34.319724976251059 ], [ 74.260398639441945, 34.342604569974554 ], [ 74.298817000435974, 34.339794795306759 ], [ 74.306205146780982, 34.330562678541135 ], [ 74.347086223223371, 34.346618533785694 ], [ 74.37319100697573, 34.378328847893691 ], [ 74.381071696410402, 34.415658711337286 ], [ 74.397325618369422, 34.435327134011871 ], [ 74.42638566065979, 34.43693271953633 ], [ 74.443132125708473, 34.422081053435114 ], [ 74.471699624909164, 34.425292224484025 ], [ 74.490416262316515, 34.446566232683061 ], [ 74.508640356634203, 34.441348079728584 ], [ 74.519476304606883, 34.425292224484025 ], [ 74.545581088359242, 34.392377721232684 ], [ 74.517506132248215, 34.295239797003106 ], [ 74.550013976166255, 34.245466645744983 ], [ 74.553461777793927, 34.222587052021488 ] ] ] } },
{ "type": "Feature", "properties": { "dt_code": "011", "district": "Ganderbal", "st_nm": "Jammu and Kashmir", "st_code": "01", "year": "2011_c" }, "geometry": { "type": "Polygon", "coordinates": [ [ [ 74.9607949129487, 34.445763439920832 ], [ 75.01645228208109, 34.435728530392986 ], [ 75.025810600784766, 34.419672675148426 ], [ 75.064228961778809, 34.406025198190555 ], [ 75.084915771544829, 34.380335829799265 ], [ 75.148946373201568, 34.344611551880121 ], [ 75.191797622002611, 34.359463217981336 ], [ 75.198200682168292, 34.386758171897085 ], [ 75.235633956982994, 34.370300920271411 ], [ 75.26124619764569, 34.377124658750354 ], [ 75.274544861066701, 34.36387857817359 ], [ 75.312470678971081, 34.366688352841386 ], [ 75.327246971661097, 34.357054839694655 ], [ 75.361232444848127, 34.390772135708225 ], [ 75.376993823717484, 34.388363757421544 ], [ 75.374531108269139, 34.373913487701444 ], [ 75.385859599331496, 34.367089749222501 ], [ 75.376993823717484, 34.348625515691261 ], [ 75.39718809039384, 34.320527769013289 ], [ 75.393247745676504, 34.295239797003106 ], [ 75.413442012352846, 34.282796509188579 ], [ 75.47451735547159, 34.280789527283005 ], [ 75.497174337596277, 34.233424754311564 ], [ 75.466144122947242, 34.208538178682495 ], [ 75.410486753814851, 34.237438718122704 ], [ 75.40260606438018, 34.216566106304775 ], [ 75.376008737538143, 34.206129800395814 ], [ 75.335127661095768, 34.214157728018094 ], [ 75.267649257811357, 34.256705744416166 ], [ 75.234648870803653, 34.233826150692678 ], [ 75.20706645778229, 34.229410790500424 ], [ 75.190319992733606, 34.196897683630191 ], [ 75.153871804098245, 34.206932593158044 ], [ 75.12530430489754, 34.195693494486854 ], [ 75.137617882139224, 34.183651603053434 ], [ 75.128259563435549, 34.168799936952219 ], [ 75.072109651213481, 34.164785973141079 ], [ 75.052900470716466, 34.174820882668925 ], [ 75.01103430809475, 34.160772009329939 ], [ 74.930749784478991, 34.202918629346904 ], [ 74.918928750326984, 34.175623675431154 ], [ 74.873122242987932, 34.181644621147861 ], [ 74.850957803952909, 34.123442145886344 ], [ 74.818449960034869, 34.133878451795304 ], [ 74.822390304752219, 34.149532910658749 ], [ 74.783971943758175, 34.170405522476671 ], [ 74.767718021799155, 34.139899397512011 ], [ 74.788897374654837, 34.116618407407408 ], [ 74.770180737247486, 34.115815614645179 ], [ 74.728807117715448, 34.170405522476671 ], [ 74.723389143729108, 34.163581783997735 ], [ 74.713538281935769, 34.170806918857785 ], [ 74.659358542072368, 34.227002412213736 ], [ 74.653448024996365, 34.245868042126091 ], [ 74.660343628251709, 34.259916915465084 ], [ 74.644582249382353, 34.267944843087363 ], [ 74.646552421741021, 34.28119092366412 ], [ 74.660343628251709, 34.278381148996324 ], [ 74.666254145327713, 34.322534750918855 ], [ 74.655910740444696, 34.36387857817359 ], [ 74.719941342101436, 34.345815741023465 ], [ 74.744075953495127, 34.314506823296576 ], [ 74.766732935619814, 34.314105426915461 ], [ 74.788897374654837, 34.34140038083121 ], [ 74.839629312890565, 34.346217137404579 ], [ 74.867211725911929, 34.369096731128074 ], [ 74.892823966574625, 34.375117676844781 ], [ 74.909077888533645, 34.399602856092734 ], [ 74.89134633730562, 34.41445452219395 ], [ 74.899719569829969, 34.44817181820752 ], [ 74.941585732451671, 34.463826277070964 ], [ 74.9607949129487, 34.445763439920832 ] ] ] } },
{ "type": "Feature", "properties": { "dt_code": "014", "district": "Anantnag", "st_nm": "Jammu and Kashmir", "st_code": "01", "year": "2011_c" }, "geometry": { "type": "Polygon", "coordinates": [ [ [ 75.335127661095768, 34.214157728018094 ], [ 75.376008737538143, 34.206129800395814 ], [ 75.40260606438018, 34.216566106304775 ], [ 75.410486753814851, 34.237438718122704 ], [ 75.466144122947242, 34.208538178682495 ], [ 75.501607225403276, 34.234628943454901 ], [ 75.555294422177013, 34.211749349731406 ], [ 75.579921576660368, 34.214559124399209 ], [ 75.595190412440047, 34.198101872773535 ], [ 75.572040887225697, 34.156356649137685 ], [ 75.552339163639004, 34.155553856375455 ], [ 75.539533043307657, 34.135484037319763 ], [ 75.527219466065972, 34.09494300282725 ], [ 75.531652353872985, 34.061627103194795 ], [ 75.521308948989969, 34.046374040712465 ], [ 75.446442399360549, 34.039550302233529 ], [ 75.433143735939538, 34.019881879558945 ], [ 75.438561709925878, 34.002220438789934 ], [ 75.429695934311866, 33.984558998020923 ], [ 75.394232831855831, 33.96248219705965 ], [ 75.394232831855831, 33.90227273989256 ], [ 75.409994210725188, 33.892237830364714 ], [ 75.427233218863535, 33.844873057393272 ], [ 75.461218692050565, 33.794297113372913 ], [ 75.482398044906262, 33.784663600226182 ], [ 75.464173950588574, 33.757368646310432 ], [ 75.521308948989969, 33.715623422674582 ], [ 75.509487914837962, 33.698764774667794 ], [ 75.51687606118297, 33.653808379983033 ], [ 75.510473001017289, 33.629323200735087 ], [ 75.52918963842464, 33.601626850438223 ], [ 75.493726535968605, 33.552255095561208 ], [ 75.514905888824302, 33.530579690981057 ], [ 75.480427872547594, 33.525361538026573 ], [ 75.481905501816598, 33.515326628498727 ], [ 75.45826343351257, 33.498869376873053 ], [ 75.476980070919922, 33.453912982188292 ], [ 75.474024812381913, 33.399323074356801 ], [ 75.462696321319569, 33.404942623692392 ], [ 75.442502054643214, 33.378450462538872 ], [ 75.419352529428863, 33.381661633587782 ], [ 75.395710461124835, 33.365605778343223 ], [ 75.381426711524483, 33.364000192818771 ], [ 75.377978909896811, 33.378851858919987 ], [ 75.330202230199092, 33.396914696070112 ], [ 75.224305465920651, 33.500474962397512 ], [ 75.175051156953927, 33.524558745264343 ], [ 75.140573140677219, 33.524558745264343 ], [ 75.168155553698583, 33.589584959004803 ], [ 75.176036243133268, 33.589584959004803 ], [ 75.163722665891584, 33.596007301102631 ], [ 75.160274864263911, 33.587577977099237 ], [ 75.133677537421889, 33.588782166242574 ], [ 75.138110425228888, 33.608450588917158 ], [ 75.116438529283528, 33.612063156347183 ], [ 75.105110038221184, 33.632534371783997 ], [ 75.110035469117861, 33.660632118461969 ], [ 75.127274477256208, 33.660632118461969 ], [ 75.101169693503849, 33.672272613514274 ], [ 75.104124952041857, 33.679497748374324 ], [ 75.112005641476529, 33.686722883234374 ], [ 75.122349046359531, 33.672272613514274 ], [ 75.130229735794217, 33.682307523042127 ], [ 75.123334132538872, 33.691138243426629 ], [ 75.135155166690879, 33.696356396381113 ], [ 75.123334132538872, 33.706792702290073 ], [ 75.130229735794217, 33.715222026293468 ], [ 75.110528012207524, 33.727263917726887 ], [ 75.126781934166544, 33.734489052586937 ], [ 75.121363960180204, 33.764995177551597 ], [ 75.09131883171051, 33.764593781170483 ], [ 75.086393400813833, 33.780649636415042 ], [ 75.070139478854813, 33.780649636415042 ], [ 75.084423228455165, 33.755763060785974 ], [ 75.0927964609795, 33.688729865139948 ], [ 75.081467969917156, 33.706391305908959 ], [ 75.077035082110157, 33.766199366694934 ], [ 75.058318444702806, 33.769811934124959 ], [ 75.057333358523465, 33.778642654509468 ], [ 75.028765859322775, 33.780649636415042 ], [ 75.029258402412438, 33.79229013146734 ], [ 75.04896012599913, 33.799916662708505 ], [ 75.04354215201279, 33.814768328809727 ], [ 75.057825901613128, 33.820387878145318 ], [ 75.055855729254461, 33.832429769578738 ], [ 75.066199134137477, 33.839253508057674 ], [ 75.046004867461122, 33.851295399491093 ], [ 75.079990340648152, 33.850894003109978 ], [ 75.100184607324508, 33.869358236641219 ], [ 75.120378874000863, 33.863738687305627 ], [ 75.142050769946223, 33.8717666149279 ], [ 75.164215208981247, 33.89825877608142 ], [ 75.192782708181952, 33.903476929035904 ], [ 75.226275638279319, 33.957264044105173 ], [ 75.220857664292978, 34.015065122985575 ], [ 75.23415632771399, 34.031923770992364 ], [ 75.218394948844647, 34.037141923946848 ], [ 75.205096285423622, 34.068852238054845 ], [ 75.154856890277571, 34.077281562058239 ], [ 75.138602968318551, 34.105379308736218 ], [ 75.1469762008429, 34.12143516398077 ], [ 75.136632795959883, 34.140300793893125 ], [ 75.097229348786513, 34.154751063613233 ], [ 75.106587667490189, 34.15916642380548 ], [ 75.104617495131521, 34.1712083152389 ], [ 75.128259563435549, 34.168799936952219 ], [ 75.137617882139224, 34.183651603053434 ], [ 75.12530430489754, 34.195693494486854 ], [ 75.153871804098245, 34.206932593158044 ], [ 75.190319992733606, 34.196897683630191 ], [ 75.20706645778229, 34.229410790500424 ], [ 75.234648870803653, 34.233826150692678 ], [ 75.269619430170025, 34.255902951653944 ], [ 75.335127661095768, 34.214157728018094 ] ] ] } },
{ "type": "Feature", "properties": { "dt_code": "018", "district": "Kishtwar", "st_nm": "Jammu and Kashmir", "st_code": "01", "year": "2011_c" }, "geometry": { "type": "Polygon", "coordinates": [ [ [ 76.221705222496723, 33.02120768334747 ], [ 76.212839446882725, 33.090649257280177 ], [ 76.192152637116692, 33.097071599378005 ], [ 76.153734276122648, 33.155274074639522 ], [ 76.122211518383949, 33.174139704551877 ], [ 76.111868113500947, 33.175343893695221 ], [ 76.116793544397609, 33.161696416737342 ], [ 76.098076906990258, 33.121155382244837 ], [ 75.99809065978782, 33.087438086231266 ], [ 75.982821824008141, 33.113528851003672 ], [ 75.969523160587116, 33.107106508905851 ], [ 75.959179755704113, 33.124767949674862 ], [ 75.944403463014098, 33.101085563189145 ], [ 75.908940360558063, 33.122359571388181 ], [ 75.859193508501676, 33.125169346055976 ], [ 75.82816329385264, 33.141225201300536 ], [ 75.804521225548612, 33.137211237489396 ], [ 75.803536139369271, 33.159288038450661 ], [ 75.693206487283817, 33.238764521911222 ], [ 75.647399979944765, 33.241172900197903 ], [ 75.604056188054059, 33.256425962680233 ], [ 75.540518129486983, 33.327071725756291 ], [ 75.508995371748284, 33.380457444444446 ], [ 75.473039726202586, 33.390090957591177 ], [ 75.476980070919922, 33.453912982188292 ], [ 75.45826343351257, 33.498869376873053 ], [ 75.481905501816598, 33.515326628498727 ], [ 75.480427872547594, 33.525361538026573 ], [ 75.514905888824302, 33.530579690981057 ], [ 75.493726535968605, 33.552255095561208 ], [ 75.52918963842464, 33.601626850438223 ], [ 75.510473001017289, 33.629323200735087 ], [ 75.51687606118297, 33.653808379983033 ], [ 75.509487914837962, 33.698764774667794 ], [ 75.521308948989969, 33.715623422674582 ], [ 75.464173950588574, 33.757368646310432 ], [ 75.482398044906262, 33.784663600226182 ], [ 75.461218692050565, 33.794297113372913 ], [ 75.427233218863535, 33.844873057393272 ], [ 75.409994210725188, 33.892237830364714 ], [ 75.394232831855831, 33.90227273989256 ], [ 75.39718809039384, 33.931173279332768 ], [ 75.389799944048832, 33.937595621430589 ], [ 75.395217918035172, 33.964087782584109 ], [ 75.429695934311866, 33.984558998020923 ], [ 75.438561709925878, 34.002220438789934 ], [ 75.433143735939538, 34.019881879558945 ], [ 75.446442399360549, 34.039550302233529 ], [ 75.521308948989969, 34.046374040712465 ], [ 75.531652353872985, 34.061627103194795 ], [ 75.532637440052312, 34.11822399293186 ], [ 75.548891362011332, 34.15194128894543 ], [ 75.572040887225697, 34.156356649137685 ], [ 75.598145670978056, 34.201313043822445 ], [ 75.658235927917445, 34.237840114503811 ], [ 75.696654288911489, 34.225396826689284 ], [ 75.68680342711815, 34.15916642380548 ], [ 75.712415667780846, 34.115012821882949 ], [ 75.747878770236881, 34.096548588351709 ], [ 75.772505924720235, 34.055606157478088 ], [ 75.800088337741599, 34.04276147328244 ], [ 75.819790061328291, 34.045169851569128 ], [ 75.86214876703967, 34.017473501272264 ], [ 75.85673079305333, 33.969707331919707 ], [ 75.864118939398338, 33.978939448685324 ], [ 75.943418376834757, 33.987368772688718 ], [ 75.980851651649473, 33.978939448685324 ], [ 75.979374022380469, 34.001819042408819 ], [ 76.022225271181512, 33.997403682216564 ], [ 76.047837511844207, 33.929166297427194 ], [ 76.097584363900594, 33.876583371501269 ], [ 76.13945052652231, 33.848887021204405 ], [ 76.169988198081668, 33.795099906135142 ], [ 76.257660868042436, 33.757770042691547 ], [ 76.270959531463447, 33.730876485156912 ], [ 76.266526643656448, 33.679096351993209 ], [ 76.284750737974136, 33.661836307605313 ], [ 76.270466988373784, 33.643372074074072 ], [ 76.229093368841731, 33.629724597116201 ], [ 76.240421859904075, 33.604838021487133 ], [ 76.224167937945069, 33.600422661294878 ], [ 76.231556084290077, 33.587176580718122 ], [ 76.225153024124396, 33.577543067571384 ], [ 76.205451300537703, 33.569113743567996 ], [ 76.225153024124396, 33.547839735368953 ], [ 76.245839833890415, 33.545431357082272 ], [ 76.259631040401104, 33.565099779756856 ], [ 76.30297483229181, 33.567508158043537 ], [ 76.310362978636817, 33.573930500141358 ], [ 76.299527030664152, 33.598415679389312 ], [ 76.306422633919482, 33.609654778060502 ], [ 76.323169098968165, 33.602429643200452 ], [ 76.335975219299513, 33.610457570822732 ], [ 76.359124744513878, 33.603232435962681 ], [ 76.380796640459238, 33.577141671190269 ], [ 76.38030409736956, 33.552656491942322 ], [ 76.426603147798289, 33.537403429459992 ], [ 76.450737759191981, 33.562691401470168 ], [ 76.464528965702655, 33.545431357082272 ], [ 76.459110991716315, 33.534192258411082 ], [ 76.502454783607035, 33.516129421260956 ], [ 76.508365300683039, 33.499270773254167 ], [ 76.549246377125414, 33.464349288097253 ], [ 76.569440643801769, 33.466356270002827 ], [ 76.581754221043454, 33.426216631891428 ], [ 76.615739694230484, 33.439864108849306 ], [ 76.628545814561832, 33.435047352275937 ], [ 76.659083486121204, 33.356775057958721 ], [ 76.69553167475658, 33.328275914899628 ], [ 76.717203570701926, 33.329078707661857 ], [ 76.736905294288619, 33.261242719253602 ], [ 76.779264, 33.239165918292336 ], [ 76.746756156081958, 33.179357857506361 ], [ 76.715233398343258, 33.181364839411927 ], [ 76.646277365789857, 33.162499209499572 ], [ 76.618694952768493, 33.174541100932991 ], [ 76.602441030809473, 33.206251415040995 ], [ 76.567470471443102, 33.210265378852135 ], [ 76.486693404737679, 33.179357857506361 ], [ 76.409856682749592, 33.186582992366411 ], [ 76.291646341229466, 33.103092545094711 ], [ 76.296079229036479, 33.060544528696632 ], [ 76.278347677808455, 33.037664934973137 ], [ 76.247317463159419, 33.021609079728584 ], [ 76.221705222496723, 33.02120768334747 ] ] ] } },
{ "type": "Feature", "properties": { "dt_code": "010", "district": "Srinagar", "st_nm": "Jammu and Kashmir", "st_code": "01", "year": "2011_c" }, "geometry": { "type": "Polygon", "coordinates": [ [ [ 75.01103430809475, 34.160772009329939 ], [ 75.052900470716466, 34.174820882668925 ], [ 75.072109651213481, 34.164785973141079 ], [ 75.10363240895218, 34.168398540571104 ], [ 75.106587667490189, 34.15916642380548 ], [ 75.097229348786513, 34.154751063613233 ], [ 75.137125339049547, 34.139096604749788 ], [ 75.1469762008429, 34.12143516398077 ], [ 75.138602968318551, 34.105379308736218 ], [ 75.15239417482924, 34.084506696918289 ], [ 75.074079823572148, 34.116618407407408 ], [ 75.045019781281781, 34.09895696663839 ], [ 75.05437809998547, 34.090126246253888 ], [ 75.048467582909453, 34.086112282442748 ], [ 75.024332971515761, 34.087316471586085 ], [ 75.023840428426098, 34.074471787390443 ], [ 74.997243101584075, 34.072866201865985 ], [ 75.000690903211733, 34.062028499575909 ], [ 74.990347498328731, 34.055606157478088 ], [ 74.924839267402987, 34.025100032513429 ], [ 74.912033147071639, 34.030318185467905 ], [ 74.915480948699312, 34.021086068702289 ], [ 74.898734483650628, 34.015867915747805 ], [ 74.898734483650628, 34.03393075289793 ], [ 74.865241553553261, 34.042360076901325 ], [ 74.838644226711224, 34.071662012722648 ], [ 74.805151296613857, 34.06925363443596 ], [ 74.754911901467807, 34.101365344925078 ], [ 74.745061039674468, 34.119026785694089 ], [ 74.73767289332946, 34.111801650834039 ], [ 74.718956255922095, 34.11742120016963 ], [ 74.696299273797408, 34.143511964942036 ], [ 74.707627764859751, 34.153948270851004 ], [ 74.702209790873411, 34.170806918857785 ], [ 74.681030438017729, 34.175623675431154 ], [ 74.703687420142415, 34.185257188577886 ], [ 74.722896600639444, 34.163581783997735 ], [ 74.728807117715448, 34.170405522476671 ], [ 74.764762763261146, 34.121033767599656 ], [ 74.785449573027179, 34.112604443596268 ], [ 74.788404831565174, 34.120632371218548 ], [ 74.767718021799155, 34.139899397512011 ], [ 74.783971943758175, 34.170405522476671 ], [ 74.822390304752219, 34.149532910658749 ], [ 74.818449960034869, 34.133878451795304 ], [ 74.850957803952909, 34.123442145886344 ], [ 74.873122242987932, 34.181644621147861 ], [ 74.918928750326984, 34.175623675431154 ], [ 74.931734870658332, 34.19047534153237 ], [ 74.924346724313324, 34.200510251060216 ], [ 74.936660301555008, 34.202918629346904 ], [ 74.95537693896236, 34.184855792196778 ], [ 75.01103430809475, 34.160772009329939 ] ] ] } },
{ "type": "Feature", "properties": { "dt_code": "002", "district": "Budgam", "st_nm": "Jammu and Kashmir", "st_code": "01", "year": "2011_c" }, "geometry": { "type": "Polygon", "coordinates": [ [ [ 74.745061039674468, 34.119026785694089 ], [ 74.754911901467807, 34.101365344925078 ], [ 74.805151296613857, 34.06925363443596 ], [ 74.838644226711224, 34.071662012722648 ], [ 74.865241553553261, 34.042360076901325 ], [ 74.898734483650628, 34.03393075289793 ], [ 74.898734483650628, 34.015867915747805 ], [ 74.914003319430307, 34.020283275940059 ], [ 74.898241940560965, 34.009445573649984 ], [ 74.901197199098959, 33.993791114786539 ], [ 74.839136769800902, 33.931173279332768 ], [ 74.81943504621421, 33.892639226745828 ], [ 74.817464873855542, 33.864140083686735 ], [ 74.789389917744515, 33.833232562340967 ], [ 74.794807891730855, 33.824401841956458 ], [ 74.774613625054499, 33.819585085383089 ], [ 74.770180737247486, 33.807944590330784 ], [ 74.742598324226122, 33.819986481764204 ], [ 74.722896600639444, 33.805134815662989 ], [ 74.688418584362736, 33.805536212044103 ], [ 74.625865611975001, 33.750143511450382 ], [ 74.625373068885338, 33.739707205541414 ], [ 74.581044190815291, 33.718834593723493 ], [ 74.566760441214939, 33.691539639807743 ], [ 74.539670571283239, 33.680701937517668 ], [ 74.543118372910911, 33.690736847045514 ], [ 74.504207468827204, 33.703982927622278 ], [ 74.501744753378873, 33.718834593723493 ], [ 74.452490444412149, 33.752953286118178 ], [ 74.449042642784477, 33.762185402883794 ], [ 74.469236909460832, 33.782656618320608 ], [ 74.438206694811797, 33.809550175855243 ], [ 74.440669410260128, 33.822394860050892 ], [ 74.41013173870077, 33.842063282725469 ], [ 74.401758506176421, 33.881400128074638 ], [ 74.414072083418105, 33.885815488266893 ], [ 74.408161566342102, 33.894244812270287 ], [ 74.425400574480449, 33.920335577042692 ], [ 74.459386047667493, 33.933983054000564 ], [ 74.485490831419852, 33.95927102601074 ], [ 74.475147426536836, 34.005030213457729 ], [ 74.511595615172212, 34.033529356516823 ], [ 74.492386434675183, 34.043162869663554 ], [ 74.494356607033865, 34.056408950240318 ], [ 74.541148200552243, 34.047979626236923 ], [ 74.55149160543526, 34.067648048911508 ], [ 74.565282811945934, 34.068852238054845 ], [ 74.616999836360989, 34.114611425501835 ], [ 74.691373842900731, 34.139498001130903 ], [ 74.721911514460103, 34.116217011026293 ], [ 74.745061039674468, 34.119026785694089 ] ] ] } },
{ "type": "Feature", "properties": { "dt_code": "012", "district": "Pulwama", "st_nm": "Jammu and Kashmir", "st_code": "01", "year": "2011_c" }, "geometry": { "type": "Polygon", "coordinates": [ [ [ 75.154856890277571, 34.077281562058239 ], [ 75.205096285423622, 34.068852238054845 ], [ 75.218394948844647, 34.037141923946848 ], [ 75.23415632771399, 34.031923770992364 ], [ 75.220857664292978, 34.015065122985575 ], [ 75.225783095189655, 33.9552570621996 ], [ 75.192782708181952, 33.903476929035904 ], [ 75.166677924429592, 33.899462965224764 ], [ 75.143528399215228, 33.872569407690129 ], [ 75.120378874000863, 33.863738687305627 ], [ 75.100184607324508, 33.869358236641219 ], [ 75.079990340648152, 33.850894003109978 ], [ 75.050930298357798, 33.854105174158889 ], [ 75.066199134137477, 33.839253508057674 ], [ 75.055855729254461, 33.832429769578738 ], [ 75.057825901613128, 33.820387878145318 ], [ 75.037631634936773, 33.809951572236358 ], [ 75.001183446301411, 33.812359950523039 ], [ 74.996750558494398, 33.799113869946282 ], [ 74.980496636535378, 33.809550175855243 ], [ 74.965720343845362, 33.794698509754028 ], [ 74.940108103182681, 33.791487338705117 ], [ 74.924346724313324, 33.812761346904153 ], [ 74.876570044615605, 33.788677564037314 ], [ 74.855390691759922, 33.797508284421824 ], [ 74.877062587705268, 33.815169725190835 ], [ 74.849972717773582, 33.819183689001974 ], [ 74.823867934021209, 33.782656618320608 ], [ 74.802688581165526, 33.796705491659594 ], [ 74.77707634050283, 33.788276167656207 ], [ 74.759344789274806, 33.805536212044103 ], [ 74.712553195756428, 33.790684545942888 ], [ 74.716493540473763, 33.806740401187447 ], [ 74.740628151867455, 33.819183689001974 ], [ 74.770180737247486, 33.807944590330784 ], [ 74.774613625054499, 33.819585085383089 ], [ 74.794807891730855, 33.824401841956458 ], [ 74.789389917744515, 33.833232562340967 ], [ 74.817464873855542, 33.864140083686735 ], [ 74.81943504621421, 33.892639226745828 ], [ 74.839136769800902, 33.931173279332768 ], [ 74.901197199098959, 33.993791114786539 ], [ 74.898241940560965, 34.009445573649984 ], [ 74.915480948699312, 34.021086068702289 ], [ 74.911540603981976, 34.029916789086798 ], [ 74.924839267402987, 34.025100032513429 ], [ 74.990347498328731, 34.055606157478088 ], [ 75.000690903211733, 34.062028499575909 ], [ 74.997243101584075, 34.072866201865985 ], [ 75.023840428426098, 34.074471787390443 ], [ 75.024332971515761, 34.087316471586085 ], [ 75.046989953640463, 34.085309489680519 ], [ 75.05437809998547, 34.090126246253888 ], [ 75.045019781281781, 34.09895696663839 ], [ 75.075557452841153, 34.116618407407408 ], [ 75.154856890277571, 34.077281562058239 ] ] ] } },
{ "type": "Feature", "properties": { "dt_code": "005", "district": "Punch", "st_nm": "Jammu and Kashmir", "st_code": "01", "year": "2011_c" }, "geometry": { "type": "Polygon", "coordinates": [ [ [ 73.623540424502252, 34.089724849872773 ], [ 73.639301803371595, 34.067648048911508 ], [ 73.669839474930967, 34.06122570681368 ], [ 73.697421887952331, 34.079288543963813 ], [ 73.835826496148812, 34.082901111393838 ], [ 73.857498392094172, 34.066845256149278 ], [ 73.894931666908874, 34.06523967062482 ], [ 73.901827270164219, 34.04918381538026 ], [ 73.954036837668937, 34.016670708510034 ], [ 74.001813517366656, 34.019079086796715 ], [ 74.027425758029352, 34.001417646027704 ], [ 74.044172223078036, 34.019079086796715 ], [ 74.096381790582754, 34.01948048317783 ], [ 74.126919462142126, 34.04597264433135 ], [ 74.177158857288177, 34.024698636132314 ], [ 74.219025019909893, 34.030318185467905 ], [ 74.245622346751915, 34.021487465083403 ], [ 74.270742044324948, 33.984558998020923 ], [ 74.302264802063647, 33.992185529262088 ], [ 74.315563465484658, 33.9552570621996 ], [ 74.386489670396742, 33.943616567147295 ], [ 74.417519885045778, 33.906286703703699 ], [ 74.400773419997094, 33.873372200452359 ], [ 74.413086997238764, 33.856914948826685 ], [ 74.41013173870077, 33.842063282725469 ], [ 74.440669410260128, 33.822394860050892 ], [ 74.438206694811797, 33.809550175855243 ], [ 74.469236909460832, 33.782656618320608 ], [ 74.449042642784477, 33.762185402883794 ], [ 74.452490444412149, 33.752953286118178 ], [ 74.501744753378873, 33.718834593723493 ], [ 74.504207468827204, 33.703982927622278 ], [ 74.543118372910911, 33.690736847045514 ], [ 74.542625829821247, 33.671469820752051 ], [ 74.519476304606883, 33.641365092168499 ], [ 74.526864450951891, 33.616077120158323 ], [ 74.514058330620543, 33.599218472151541 ], [ 74.527849537131232, 33.567106761662423 ], [ 74.515535959889547, 33.554262077466781 ], [ 74.538192942014234, 33.527769916313261 ], [ 74.572670958290942, 33.516530817642071 ], [ 74.572670958290942, 33.490841449250773 ], [ 74.540163114372902, 33.487228881820748 ], [ 74.539670571283239, 33.465954873621712 ], [ 74.527849537131232, 33.468764648289508 ], [ 74.489431176137188, 33.516932214023178 ], [ 74.421952772852777, 33.567508158043537 ], [ 74.354966912658043, 33.581958427763638 ], [ 74.332309930533356, 33.569113743567996 ], [ 74.30669768987066, 33.570317932711333 ], [ 74.284533250835636, 33.545431357082272 ], [ 74.263846441069603, 33.549445320893412 ], [ 74.253010493096923, 33.540213204127788 ], [ 74.244144717482925, 33.553459284704552 ], [ 74.209666701206217, 33.544628564320043 ], [ 74.226905709344564, 33.488834467345207 ], [ 74.184547003633185, 33.419794289793607 ], [ 74.167307995494838, 33.410562173027991 ], [ 74.144651013370151, 33.459933927905006 ], [ 74.157457133701499, 33.508502890019791 ], [ 74.147606271908145, 33.539811807746673 ], [ 74.15450187516349, 33.544628564320043 ], [ 74.064859032844055, 33.550248113655641 ], [ 74.044664766167699, 33.567508158043537 ], [ 74.038261706002032, 33.590387751767032 ], [ 74.015112180787668, 33.606443607011592 ], [ 73.982111793779964, 33.604838021487133 ], [ 73.952559208399933, 33.622098065875036 ], [ 73.920051364481907, 33.604838021487133 ], [ 73.847647530300819, 33.593197526434828 ], [ 73.814154600203452, 33.622098065875036 ], [ 73.767855549774737, 33.616077120158323 ], [ 73.742243309112041, 33.627717615210628 ], [ 73.744706024560386, 33.596810093864853 ], [ 73.731407361139361, 33.586373787955893 ], [ 73.696929344862667, 33.631330182640653 ], [ 73.642749604999267, 33.651801398077467 ], [ 73.622062795233248, 33.674680991800962 ], [ 73.600883442377551, 33.701975945716704 ], [ 73.590540037494549, 33.753756078880407 ], [ 73.559509822845513, 33.776635672603902 ], [ 73.589062408225544, 33.883808506361319 ], [ 73.578226460252864, 33.910300667514839 ], [ 73.548673874872833, 33.931173279332768 ], [ 73.521584004941133, 33.98496039440203 ], [ 73.488091074843766, 34.144314757704265 ], [ 73.514688401685802, 34.155152459994341 ], [ 73.533897582182817, 34.151539892564315 ], [ 73.594972925301548, 34.082098318631608 ], [ 73.608271588722559, 34.073267598247099 ], [ 73.623540424502252, 34.089724849872773 ] ] ] } },
{ "type": "Feature", "properties": { "dt_code": "013", "district": "Shopiyan", "st_nm": "Jammu and Kashmir", "st_code": "01", "year": "2011_c" }, "geometry": { "type": "Polygon", "coordinates": [ [ [ 74.849972717773582, 33.819183689001974 ], [ 74.877062587705268, 33.815169725190835 ], [ 74.855390691759922, 33.797508284421824 ], [ 74.876570044615605, 33.788677564037314 ], [ 74.924346724313324, 33.812761346904153 ], [ 74.940108103182681, 33.791487338705117 ], [ 74.965720343845362, 33.794698509754028 ], [ 74.980496636535378, 33.809550175855243 ], [ 74.996750558494398, 33.799113869946282 ], [ 75.001183446301411, 33.812359950523039 ], [ 75.037631634936773, 33.809951572236358 ], [ 75.038616721116114, 33.817578103477523 ], [ 75.049945212178457, 33.805134815662989 ], [ 75.029258402412438, 33.79229013146734 ], [ 75.037631634936773, 33.771016123268303 ], [ 75.017929911350095, 33.738503016398077 ], [ 74.999705817032407, 33.750544907831497 ], [ 74.998720730853066, 33.739707205541414 ], [ 74.950944051155346, 33.739305809160307 ], [ 74.965720343845362, 33.693948018094432 ], [ 74.957839654410691, 33.682307523042127 ], [ 74.965720343845362, 33.681103333898783 ], [ 74.935675215375667, 33.656216758269721 ], [ 74.928779612120323, 33.667857253322019 ], [ 74.906615173085299, 33.665047478654223 ], [ 74.912033147071639, 33.653808379983033 ], [ 74.871152070629265, 33.623703651399488 ], [ 74.827808278738559, 33.654611172745263 ], [ 74.78692720229617, 33.655815361888607 ], [ 74.778553969771835, 33.644977659598531 ], [ 74.774613625054499, 33.663843289510886 ], [ 74.785449573027179, 33.678293559230987 ], [ 74.736195264060456, 33.665850271416453 ], [ 74.728807117715448, 33.685920090472152 ], [ 74.680045351838388, 33.702778738478933 ], [ 74.647044964830684, 33.689532657902177 ], [ 74.610104233105645, 33.694349414475539 ], [ 74.601238457491647, 33.680701937517668 ], [ 74.566267898125275, 33.692342432569973 ], [ 74.58005910463595, 33.718433197342378 ], [ 74.625373068885338, 33.739707205541414 ], [ 74.625865611975001, 33.750143511450382 ], [ 74.688418584362736, 33.805536212044103 ], [ 74.713538281935769, 33.802726437376307 ], [ 74.714030825025432, 33.790283149561773 ], [ 74.759344789274806, 33.805536212044103 ], [ 74.77707634050283, 33.788276167656207 ], [ 74.802688581165526, 33.796705491659594 ], [ 74.822882847841882, 33.782255221939494 ], [ 74.849972717773582, 33.819183689001974 ] ] ] } },
{ "type": "Feature", "properties": { "dt_code": "015", "district": "Kulgam", "st_nm": "Jammu and Kashmir", "st_code": "01", "year": "2011_c" }, "geometry": { "type": "Polygon", "coordinates": [ [ [ 75.09131883171051, 33.764593781170483 ], [ 75.118408701642196, 33.771016123268303 ], [ 75.126781934166544, 33.734489052586937 ], [ 75.110528012207524, 33.727263917726887 ], [ 75.130229735794217, 33.715222026293468 ], [ 75.123334132538872, 33.706792702290073 ], [ 75.135155166690879, 33.697560585524457 ], [ 75.123334132538872, 33.691138243426629 ], [ 75.130229735794217, 33.682307523042127 ], [ 75.122349046359531, 33.672272613514274 ], [ 75.112005641476529, 33.686722883234374 ], [ 75.104124952041857, 33.679497748374324 ], [ 75.101169693503849, 33.672272613514274 ], [ 75.127274477256208, 33.660632118461969 ], [ 75.110035469117861, 33.660632118461969 ], [ 75.105110038221184, 33.632534371783997 ], [ 75.116438529283528, 33.612063156347183 ], [ 75.138110425228888, 33.608450588917158 ], [ 75.133677537421889, 33.588782166242574 ], [ 75.160274864263911, 33.587577977099237 ], [ 75.163722665891584, 33.596007301102631 ], [ 75.176036243133268, 33.589584959004803 ], [ 75.151901631739577, 33.556670455753462 ], [ 75.147961287022227, 33.565501176137971 ], [ 75.129244649614876, 33.563092797851283 ], [ 75.124319218718213, 33.572324914616907 ], [ 75.138110425228888, 33.581557031382523 ], [ 75.110035469117861, 33.594000319197058 ], [ 75.102647322772853, 33.571522121854677 ], [ 75.066199134137477, 33.545832753463387 ], [ 75.097721891876176, 33.505291718970881 ], [ 75.082453056096497, 33.494454016680798 ], [ 74.957347111321027, 33.512918250212039 ], [ 74.939615560093003, 33.490841449250773 ], [ 74.915973491788975, 33.496862394967486 ], [ 74.890853794215957, 33.480806539722927 ], [ 74.795300434820518, 33.465954873621712 ], [ 74.78692720229617, 33.486426089058526 ], [ 74.757867160005816, 33.488834467345207 ], [ 74.709105394128756, 33.525762934407688 ], [ 74.680537894928065, 33.504890322589766 ], [ 74.655910740444696, 33.505693115351988 ], [ 74.649015137189352, 33.514523835736497 ], [ 74.639164275396013, 33.502080547921963 ], [ 74.605671345298646, 33.494454016680798 ], [ 74.588924880249962, 33.509305682782013 ], [ 74.574148587559947, 33.507298700876447 ], [ 74.565282811945934, 33.523755952502121 ], [ 74.537207855834907, 33.528171312694369 ], [ 74.515535959889547, 33.554262077466781 ], [ 74.527849537131232, 33.567106761662423 ], [ 74.514058330620543, 33.599218472151541 ], [ 74.526864450951891, 33.616077120158323 ], [ 74.519476304606883, 33.641365092168499 ], [ 74.529327166400236, 33.643372074074072 ], [ 74.539670571283239, 33.680701937517668 ], [ 74.560357381049258, 33.690335450664406 ], [ 74.601238457491647, 33.680701937517668 ], [ 74.610104233105645, 33.694349414475539 ], [ 74.647044964830684, 33.689532657902177 ], [ 74.680045351838388, 33.702778738478933 ], [ 74.728807117715448, 33.685920090472152 ], [ 74.736195264060456, 33.665850271416453 ], [ 74.785449573027179, 33.678293559230987 ], [ 74.774613625054499, 33.663843289510886 ], [ 74.778553969771835, 33.644977659598531 ], [ 74.78692720229617, 33.655815361888607 ], [ 74.827808278738559, 33.654611172745263 ], [ 74.871152070629265, 33.623703651399488 ], [ 74.912033147071639, 33.653808379983033 ], [ 74.906615173085299, 33.665047478654223 ], [ 74.928779612120323, 33.667857253322019 ], [ 74.935675215375667, 33.656216758269721 ], [ 74.965720343845362, 33.681103333898783 ], [ 74.957839654410691, 33.682307523042127 ], [ 74.965720343845362, 33.693948018094432 ], [ 74.950944051155346, 33.739305809160307 ], [ 74.998720730853066, 33.739707205541414 ], [ 74.999705817032407, 33.750544907831497 ], [ 75.01645228208109, 33.737700223635848 ], [ 75.037631634936773, 33.771016123268303 ], [ 75.031228574771106, 33.780649636415042 ], [ 75.077035082110157, 33.766199366694934 ], [ 75.081467969917156, 33.706391305908959 ], [ 75.0927964609795, 33.688729865139948 ], [ 75.084423228455165, 33.755763060785974 ], [ 75.070139478854813, 33.780649636415042 ], [ 75.079005254468825, 33.783459411082838 ], [ 75.09131883171051, 33.764593781170483 ] ] ] } },
{ "type": "Feature", "properties": { "dt_code": "006", "district": "Rajouri", "st_nm": "Jammu and Kashmir", "st_code": "01", "year": "2011_c" }, "geometry": { "type": "Polygon", "coordinates": [ [ [ 74.421952772852777, 33.567508158043537 ], [ 74.489431176137188, 33.516932214023178 ], [ 74.528342080220895, 33.468764648289508 ], [ 74.539670571283239, 33.465954873621712 ], [ 74.540163114372902, 33.487228881820748 ], [ 74.572178415201279, 33.490440052869658 ], [ 74.574148587559947, 33.507298700876447 ], [ 74.626358155064665, 33.496059602205257 ], [ 74.635223930678677, 33.484820503534067 ], [ 74.629805956692337, 33.467159062765056 ], [ 74.601238457491647, 33.457926945999432 ], [ 74.618477465629994, 33.440666901611536 ], [ 74.66723923150704, 33.431033388464797 ], [ 74.664776516058708, 33.396914696070112 ], [ 74.685463325824728, 33.359584832626517 ], [ 74.669701946955385, 33.347944337574212 ], [ 74.648030051010025, 33.348747130336442 ], [ 74.647537507920362, 33.323057761945151 ], [ 74.669209403865707, 33.299776771840541 ], [ 74.651477852637697, 33.270474836019226 ], [ 74.691866385990409, 33.241975692960132 ], [ 74.68349315346606, 33.198223487418716 ], [ 74.660343628251709, 33.183773217698615 ], [ 74.620447637988661, 33.203441640373192 ], [ 74.60714897456765, 33.19139974893978 ], [ 74.567252984304602, 33.201033262086511 ], [ 74.573163501380606, 33.18738578512864 ], [ 74.553461777793927, 33.178555064744131 ], [ 74.534252597296899, 33.191801145320895 ], [ 74.520461390786224, 33.185780199604181 ], [ 74.521939020055214, 33.174139704551877 ], [ 74.544103459090252, 33.163302002261801 ], [ 74.578581475366946, 33.152062903590611 ], [ 74.599760828222642, 33.156478263782866 ], [ 74.62882087051301, 33.14162659768165 ], [ 74.614044577822995, 33.123965156912632 ], [ 74.625865611975001, 33.104296734238055 ], [ 74.633253758320009, 33.107106508905851 ], [ 74.621432724167988, 33.10068416680803 ], [ 74.634238844499336, 33.091853446423521 ], [ 74.603208629850315, 33.089043671755725 ], [ 74.590402509518967, 33.06696687079446 ], [ 74.561342467228599, 33.06616407803223 ], [ 74.555924493242259, 33.049706826406556 ], [ 74.577596389187619, 33.019200701441896 ], [ 74.572178415201279, 32.999532278767312 ], [ 74.549521433076578, 32.983877819903874 ], [ 74.519968847696546, 33.014383944868534 ], [ 74.446579927336145, 33.013581152106305 ], [ 74.448057556605136, 32.999933675148426 ], [ 74.365310317541045, 32.950963316652526 ], [ 74.333787559802346, 32.953773091320329 ], [ 74.315070922394995, 33.00595462086514 ], [ 74.320488896381335, 33.030439800113086 ], [ 74.163367650777502, 33.075797591178961 ], [ 74.17617377110885, 33.094261824710202 ], [ 74.157457133701499, 33.10790930166808 ], [ 74.146621185728819, 33.139218219394962 ], [ 74.082590584072079, 33.174541100932991 ], [ 74.066336662113059, 33.194209523607576 ], [ 74.019545068594681, 33.205047225897651 ], [ 74.00082843118733, 33.217490513712185 ], [ 73.997380629559657, 33.237961729148992 ], [ 74.004768775904665, 33.260038530110258 ], [ 74.137755410114806, 33.311818663273961 ], [ 74.14366592719081, 33.343127581000843 ], [ 74.161397478418834, 33.355570868815377 ], [ 74.140218125563138, 33.373633705965503 ], [ 74.134800151576798, 33.396914696070112 ], [ 74.184547003633185, 33.419794289793607 ], [ 74.226905709344564, 33.488834467345207 ], [ 74.209666701206217, 33.544628564320043 ], [ 74.244144717482925, 33.553459284704552 ], [ 74.253010493096923, 33.540213204127788 ], [ 74.263846441069603, 33.549445320893412 ], [ 74.284533250835636, 33.545431357082272 ], [ 74.30669768987066, 33.570317932711333 ], [ 74.369743205348058, 33.578747256714728 ], [ 74.421952772852777, 33.567508158043537 ] ] ] } },
{ "type": "Feature", "properties": { "dt_code": "017", "district": "Ramban", "st_nm": "Jammu and Kashmir", "st_code": "01", "year": "2011_c" }, "geometry": { "type": "Polygon", "coordinates": [ [ [ 75.147961287022227, 33.565501176137971 ], [ 75.151901631739577, 33.556670455753462 ], [ 75.140573140677219, 33.524558745264343 ], [ 75.175051156953927, 33.524558745264343 ], [ 75.224305465920651, 33.500474962397512 ], [ 75.330202230199092, 33.396914696070112 ], [ 75.377978909896811, 33.378851858919987 ], [ 75.366650418834467, 33.307804699462821 ], [ 75.348918867606443, 33.29736839355386 ], [ 75.376501280627807, 33.202237451229855 ], [ 75.351381583054788, 33.151260110828382 ], [ 75.335127661095768, 33.140823804919421 ], [ 75.348918867606443, 33.102691148713596 ], [ 75.35926227248946, 33.098275788521342 ], [ 75.356799557041128, 33.068171059937796 ], [ 75.297201843191388, 33.10068416680803 ], [ 75.244499732597006, 33.090247860899062 ], [ 75.231201069175995, 33.101888355951367 ], [ 75.232678698444985, 33.150457318066152 ], [ 75.215439690306638, 33.15687966016398 ], [ 75.18096167402993, 33.149253128922815 ], [ 75.145991114663559, 33.182167632174156 ], [ 75.121856503269868, 33.179357857506361 ], [ 75.097229348786513, 33.194209523607576 ], [ 75.0927964609795, 33.184576010460837 ], [ 75.082453056096497, 33.199026280180945 ], [ 75.037139091847109, 33.20665281142211 ], [ 75.04896012599913, 33.239165918292336 ], [ 75.018422454439758, 33.245989656771272 ], [ 75.025810600784766, 33.278502763641505 ], [ 75.017437368260431, 33.312220059655075 ], [ 75.032213660950447, 33.341923391857506 ], [ 75.059796073971796, 33.357979247102065 ], [ 75.009064135736082, 33.416583118744697 ], [ 75.036154005667782, 33.441871090754873 ], [ 75.015959738991427, 33.493651223918576 ], [ 75.034676376398778, 33.504488926208651 ], [ 75.082453056096497, 33.494454016680798 ], [ 75.097721891876176, 33.505291718970881 ], [ 75.066199134137477, 33.545832753463387 ], [ 75.117916158552532, 33.592796130053713 ], [ 75.139095511408229, 33.578345860333613 ], [ 75.126289391076881, 33.565902572519079 ], [ 75.147961287022227, 33.565501176137971 ] ] ] } },
{ "type": "Feature", "properties": { "dt_code": "020", "district": "Reasi", "st_nm": "Jammu and Kashmir", "st_code": "01", "year": "2011_c" }, "geometry": { "type": "Polygon", "coordinates": [ [ [ 74.757867160005816, 33.488834467345207 ], [ 74.78692720229617, 33.486426089058526 ], [ 74.795300434820518, 33.465954873621712 ], [ 74.890853794215957, 33.480806539722927 ], [ 74.915973491788975, 33.496862394967486 ], [ 74.939615560093003, 33.490841449250773 ], [ 74.957347111321027, 33.512918250212039 ], [ 75.003646161749742, 33.504087529827537 ], [ 75.013497023543081, 33.510509871925358 ], [ 75.024825514605439, 33.500876358778626 ], [ 75.01645228208109, 33.480405143341812 ], [ 75.036154005667782, 33.441871090754873 ], [ 75.009064135736082, 33.416583118744697 ], [ 75.059796073971796, 33.357979247102065 ], [ 75.032213660950447, 33.341923391857506 ], [ 75.017437368260431, 33.312220059655075 ], [ 75.025810600784766, 33.278502763641505 ], [ 75.018422454439758, 33.245989656771272 ], [ 75.04896012599913, 33.239165918292336 ], [ 75.036154005667782, 33.207455604184332 ], [ 75.082453056096497, 33.199026280180945 ], [ 75.0927964609795, 33.184576010460837 ], [ 75.077527625199821, 33.162900605880687 ], [ 75.050437755268121, 33.150457318066152 ], [ 75.029258402412438, 33.100282770426915 ], [ 75.083438142275824, 33.06616407803223 ], [ 75.069154392675486, 33.050509619168785 ], [ 75.048467582909453, 33.055727772123269 ], [ 75.022855342246757, 33.046094258976531 ], [ 75.038616721116114, 33.022010476109699 ], [ 74.999705817032407, 33.00515182810291 ], [ 75.00561633410841, 32.986286198190555 ], [ 74.989854955239068, 32.957385658750354 ], [ 75.006601420287751, 32.93370327226463 ], [ 74.963257628397031, 32.92968930845349 ], [ 74.9607949129487, 32.894767823296576 ], [ 74.948973878796679, 32.899584579869945 ], [ 74.951929137334687, 32.892359445009895 ], [ 74.933705043017, 32.888345481198755 ], [ 74.911540603981976, 32.922865569974554 ], [ 74.896271768202297, 32.92246417359344 ], [ 74.888391078767611, 32.95618146960701 ], [ 74.873614786077596, 32.95216750579587 ], [ 74.849972717773582, 32.989095972858351 ], [ 74.823867934021209, 32.989497369239466 ], [ 74.794315348641177, 33.03244678201866 ], [ 74.736687807150119, 33.059340339553295 ], [ 74.710090480308097, 33.050509619168785 ], [ 74.675612464031389, 33.060544528696632 ], [ 74.675119920941725, 33.04689705173876 ], [ 74.652462938817024, 33.02441885439638 ], [ 74.636209016858018, 33.020806286966355 ], [ 74.625865611975001, 33.030841196494201 ], [ 74.620447637988661, 32.999933675148426 ], [ 74.648522594099688, 32.97946245971162 ], [ 74.606656431477973, 32.955378676844781 ], [ 74.604686259119305, 32.945343767316935 ], [ 74.608626603836655, 32.98668759457167 ], [ 74.584491992442949, 33.002743449816229 ], [ 74.606163888388309, 33.013982548487419 ], [ 74.592865224967298, 33.020806286966355 ], [ 74.592865224967298, 33.034052367543111 ], [ 74.570208242842611, 33.02843281820752 ], [ 74.555924493242259, 33.049706826406556 ], [ 74.561342467228599, 33.06616407803223 ], [ 74.597790655863975, 33.070579438224485 ], [ 74.603208629850315, 33.089043671755725 ], [ 74.634238844499336, 33.091853446423521 ], [ 74.621432724167988, 33.10068416680803 ], [ 74.633253758320009, 33.107106508905851 ], [ 74.625865611975001, 33.104296734238055 ], [ 74.614044577822995, 33.123965156912632 ], [ 74.62882087051301, 33.14162659768165 ], [ 74.599760828222642, 33.156478263782866 ], [ 74.578581475366946, 33.152062903590611 ], [ 74.544103459090252, 33.163302002261801 ], [ 74.521939020055214, 33.174139704551877 ], [ 74.520461390786224, 33.185780199604181 ], [ 74.534252597296899, 33.191801145320895 ], [ 74.553461777793927, 33.178555064744131 ], [ 74.573163501380606, 33.18738578512864 ], [ 74.567252984304602, 33.201033262086511 ], [ 74.60714897456765, 33.19139974893978 ], [ 74.620447637988661, 33.203441640373192 ], [ 74.660343628251709, 33.183773217698615 ], [ 74.68349315346606, 33.198223487418716 ], [ 74.691866385990409, 33.241172900197903 ], [ 74.651477852637697, 33.270474836019226 ], [ 74.669209403865707, 33.299776771840541 ], [ 74.647537507920362, 33.323057761945151 ], [ 74.648030051010025, 33.348747130336442 ], [ 74.669701946955385, 33.347944337574212 ], [ 74.685463325824728, 33.359584832626517 ], [ 74.664776516058708, 33.396914696070112 ], [ 74.66723923150704, 33.431033388464797 ], [ 74.618477465629994, 33.440666901611536 ], [ 74.602716086760637, 33.463947891716138 ], [ 74.627835784333669, 33.464750684478368 ], [ 74.635223930678677, 33.484820503534067 ], [ 74.626358155064665, 33.496059602205257 ], [ 74.649015137189352, 33.514523835736497 ], [ 74.655910740444696, 33.505693115351988 ], [ 74.679552808748724, 33.504890322589766 ], [ 74.711075566487423, 33.524157348883236 ], [ 74.757867160005816, 33.488834467345207 ] ] ] } },
{ "type": "Feature", "properties": { "dt_code": "016", "district": "Doda", "st_nm": "Jammu and Kashmir", "st_code": "01", "year": "2011_c" }, "geometry": { "type": "Polygon", "coordinates": [ [ [ 75.473039726202586, 33.390090957591177 ], [ 75.508995371748284, 33.380457444444446 ], [ 75.540518129486983, 33.327071725756291 ], [ 75.604056188054059, 33.256425962680233 ], [ 75.647399979944765, 33.241172900197903 ], [ 75.693206487283817, 33.238764521911222 ], [ 75.803536139369271, 33.159288038450661 ], [ 75.804521225548612, 33.137211237489396 ], [ 75.82816329385264, 33.141225201300536 ], [ 75.859193508501676, 33.125169346055976 ], [ 75.908940360558063, 33.122359571388181 ], [ 75.944403463014098, 33.101085563189145 ], [ 75.959179755704113, 33.124767949674862 ], [ 75.969523160587116, 33.107106508905851 ], [ 75.982821824008141, 33.113528851003672 ], [ 76.000060832146488, 33.087036689850152 ], [ 76.098076906990258, 33.121155382244837 ], [ 76.116793544397609, 33.161696416737342 ], [ 76.111868113500947, 33.175745290076335 ], [ 76.142405785060305, 33.16490758778626 ], [ 76.192152637116692, 33.097071599378005 ], [ 76.214317076151715, 33.087839482612381 ], [ 76.221705222496723, 33.02120768334747 ], [ 76.182794318413016, 33.020806286966355 ], [ 76.165062767185006, 33.006757413627369 ], [ 76.11236065659061, 33.006356017246254 ], [ 76.111375570411269, 32.987891783715014 ], [ 76.088226045196919, 32.95618146960701 ], [ 76.043897167126872, 32.93691444331354 ], [ 76.032076132974851, 32.916844624257841 ], [ 75.953761781717773, 32.87349381509754 ], [ 75.924701739427405, 32.90640831834888 ], [ 75.849835189797986, 32.930090704834605 ], [ 75.803536139369271, 32.885937102912074 ], [ 75.763640149106237, 32.889549670342099 ], [ 75.741475710071214, 32.875099400621991 ], [ 75.692713944194153, 32.87670498614645 ], [ 75.681877996221473, 32.862254716426349 ], [ 75.661191186455454, 32.921259984450096 ], [ 75.594697869350384, 32.94815354198473 ], [ 75.580906662839695, 32.945343767316935 ], [ 75.562682568522007, 32.965413586372627 ], [ 75.533129983141976, 32.947752145603616 ], [ 75.520816405900305, 32.958188451512576 ], [ 75.451860373346889, 32.959794037037035 ], [ 75.407038952187179, 33.010771377438502 ], [ 75.40260606438018, 33.05893894317218 ], [ 75.35926227248946, 33.070980834605599 ], [ 75.35926227248946, 33.098275788521342 ], [ 75.348918867606443, 33.102691148713596 ], [ 75.335127661095768, 33.140823804919421 ], [ 75.351381583054788, 33.151260110828382 ], [ 75.376501280627807, 33.202237451229855 ], [ 75.348918867606443, 33.29736839355386 ], [ 75.366650418834467, 33.307804699462821 ], [ 75.379949082255479, 33.363197400056542 ], [ 75.419352529428863, 33.381661633587782 ], [ 75.442502054643214, 33.378450462538872 ], [ 75.451367830257226, 33.397316092451227 ], [ 75.467129209126583, 33.403337038167933 ], [ 75.473039726202586, 33.390090957591177 ] ] ] } },
{ "type": "Feature", "properties": { "dt_code": "021", "district": "Jammu", "st_nm": "Jammu and Kashmir", "st_code": "01", "year": "2011_c" }, "geometry": { "type": "Polygon", "coordinates": [ [ [ 74.333787559802346, 32.953773091320329 ], [ 74.365310317541045, 32.950963316652526 ], [ 74.405206307804093, 32.970631739327111 ], [ 74.448057556605136, 32.999933675148426 ], [ 74.446579927336145, 33.013581152106305 ], [ 74.519968847696546, 33.014383944868534 ], [ 74.554446863973254, 32.984680612666097 ], [ 74.575133673739273, 33.003546242578452 ], [ 74.570700785932274, 33.028031421826405 ], [ 74.59089505260863, 33.034052367543111 ], [ 74.606163888388309, 33.01317975572519 ], [ 74.584491992442949, 33.002743449816229 ], [ 74.608626603836655, 32.98668759457167 ], [ 74.605671345298646, 32.945343767316935 ], [ 74.606656431477973, 32.955378676844781 ], [ 74.648522594099688, 32.97946245971162 ], [ 74.620447637988661, 32.999933675148426 ], [ 74.625865611975001, 33.030841196494201 ], [ 74.636209016858018, 33.020806286966355 ], [ 74.652462938817024, 33.02441885439638 ], [ 74.675119920941725, 33.04689705173876 ], [ 74.675612464031389, 33.060544528696632 ], [ 74.710090480308097, 33.050509619168785 ], [ 74.736687807150119, 33.059340339553295 ], [ 74.794315348641177, 33.03244678201866 ], [ 74.823867934021209, 32.989497369239466 ], [ 74.849972717773582, 32.989095972858351 ], [ 74.873614786077596, 32.95216750579587 ], [ 74.888391078767611, 32.95618146960701 ], [ 74.896271768202297, 32.92246417359344 ], [ 74.911540603981976, 32.922865569974554 ], [ 74.935182672286004, 32.887141292055411 ], [ 74.951929137334687, 32.892760841391009 ], [ 74.948973878796679, 32.899584579869945 ], [ 74.9607949129487, 32.894767823296576 ], [ 74.963257628397031, 32.92968930845349 ], [ 74.974093576369711, 32.935308857789082 ], [ 75.009556678825746, 32.890352463104321 ], [ 75.109542926028183, 32.827333231269435 ], [ 75.130229735794217, 32.810073186881539 ], [ 75.128259563435549, 32.793615935255865 ], [ 75.155841976456912, 32.787193593158044 ], [ 75.165692838250251, 32.765919584959001 ], [ 75.128259563435549, 32.74825814418999 ], [ 75.128259563435549, 32.737420441899914 ], [ 75.111020555297188, 32.739828820186595 ], [ 75.090826288620832, 32.718554811987559 ], [ 75.053393013806129, 32.74023021656771 ], [ 75.042557065833449, 32.725779946847609 ], [ 75.013497023543081, 32.729392514277635 ], [ 75.003153618660079, 32.743842783997735 ], [ 74.958332197500354, 32.70972409160305 ], [ 74.9607949129487, 32.68323193044953 ], [ 74.900212112919633, 32.651923012722648 ], [ 74.881495475512281, 32.60375544698897 ], [ 74.893809052753952, 32.596931708510034 ], [ 74.915480948699312, 32.625430851569128 ], [ 74.933705043017, 32.606565221656773 ], [ 74.920898922685652, 32.595326122985576 ], [ 74.957347111321027, 32.590107970031099 ], [ 74.942078275541348, 32.585291213457729 ], [ 74.95537693896236, 32.568432565450948 ], [ 74.928779612120323, 32.569636754594285 ], [ 74.927301982851333, 32.560003241447554 ], [ 74.93912301700334, 32.55799625954198 ], [ 74.924346724313324, 32.547559953633019 ], [ 74.904645000726632, 32.553179502968618 ], [ 74.901197199098959, 32.535919458580715 ], [ 74.917943664147643, 32.525081756290639 ], [ 74.889376164946952, 32.521469188860614 ], [ 74.869181898270597, 32.486146307322585 ], [ 74.819927589303873, 32.498589595137119 ], [ 74.812046899869202, 32.479723965224764 ], [ 74.715015911204759, 32.476111397794739 ], [ 74.71058302339776, 32.492568649420413 ], [ 74.680537894928065, 32.491765856658184 ], [ 74.690881299811068, 32.53150409838846 ], [ 74.6618212575207, 32.545954368108568 ], [ 74.661328714431036, 32.55398229573084 ], [ 74.67265720549338, 32.552778106587503 ], [ 74.67265720549338, 32.568432565450948 ], [ 74.651970395727361, 32.563214412496464 ], [ 74.648030051010025, 32.585692609838844 ], [ 74.658865998982705, 32.596931708510034 ], [ 74.641134447754681, 32.59974148317783 ], [ 74.637686646127008, 32.613388960135708 ], [ 74.655418197355033, 32.616198734803504 ], [ 74.653940568086028, 32.63747274300254 ], [ 74.669701946955385, 32.638676932145884 ], [ 74.695314187618081, 32.66075373310715 ], [ 74.666254145327713, 32.675605399208365 ], [ 74.652955481906702, 32.696879407407408 ], [ 74.663298886789704, 32.725779946847609 ], [ 74.654925654265369, 32.72818832513429 ], [ 74.704672506321756, 32.820910889171614 ], [ 74.704672506321756, 32.841783500989536 ], [ 74.666254145327713, 32.824523456601639 ], [ 74.655910740444696, 32.832551384223919 ], [ 74.633746301409673, 32.809671790500424 ], [ 74.658865998982705, 32.787594989539159 ], [ 74.631776129051005, 32.775553098105739 ], [ 74.637686646127008, 32.7514693152389 ], [ 74.616999836360989, 32.761102828385638 ], [ 74.579074018456623, 32.747856747808875 ], [ 74.562820096497603, 32.760300035623409 ], [ 74.54755126071791, 32.745849765903309 ], [ 74.54213328673157, 32.752673504382244 ], [ 74.513565787530879, 32.74424418037885 ], [ 74.511103072082548, 32.764313999434549 ], [ 74.484998288330175, 32.765116792196778 ], [ 74.459386047667493, 32.788397782301381 ], [ 74.443132125708473, 32.78920057506361 ], [ 74.433773807004798, 32.822516474696066 ], [ 74.413579540328442, 32.839375122702855 ], [ 74.411116824880096, 32.89597201243992 ], [ 74.366787946810049, 32.9184502097823 ], [ 74.323936698009007, 32.920457191687866 ], [ 74.30669768987066, 32.934907461407974 ], [ 74.333787559802346, 32.953773091320329 ] ] ] } },
{ "type": "Feature", "properties": { "dt_code": "007", "district": "Kathua", "st_nm": "Jammu and Kashmir", "st_code": "01", "year": "2011_c" }, "geometry": { "type": "Polygon", "coordinates": [ [ [ 75.228245810637986, 32.451224822165678 ], [ 75.259276025287022, 32.4865477037037 ], [ 75.263216370004358, 32.51625103590613 ], [ 75.283903179770377, 32.517053828668359 ], [ 75.256320766749013, 32.541940404297428 ], [ 75.2789777488737, 32.575657700310998 ], [ 75.316411023688417, 32.571242340118744 ], [ 75.34300835053044, 32.584087024314385 ], [ 75.329217144019765, 32.614593149279045 ], [ 75.28833606757739, 32.629846211761375 ], [ 75.283903179770377, 32.64148670681368 ], [ 75.330694773288769, 32.66396490415606 ], [ 75.344978522889107, 32.664366300537175 ], [ 75.344485979799444, 32.65673976929601 ], [ 75.355814470861787, 32.668781660729429 ], [ 75.3646802464758, 32.660352336726035 ], [ 75.374038565179475, 32.667577471586085 ], [ 75.363695160296459, 32.676408191970594 ], [ 75.373053479000149, 32.670387246253888 ], [ 75.377978909896811, 32.677612381113939 ], [ 75.374038565179475, 32.698083596550745 ], [ 75.392755202586827, 32.667176075204971 ], [ 75.413442012352846, 32.679619363019505 ], [ 75.427233218863535, 32.66075373310715 ], [ 75.442994597732891, 32.672394228159455 ], [ 75.459741062781575, 32.66476769691829 ], [ 75.475994984740581, 32.682429137687301 ], [ 75.475009898561254, 32.708921298840821 ], [ 75.494711622147946, 32.764715395815664 ], [ 75.551846620549341, 32.771539134294599 ], [ 75.558249680715008, 32.755884675431155 ], [ 75.581399205929372, 32.742638594854391 ], [ 75.585339550646708, 32.759095846480065 ], [ 75.615384679116403, 32.773546116200166 ], [ 75.655280669379451, 32.771539134294599 ], [ 75.689758685656159, 32.794418728018094 ], [ 75.68138545313181, 32.81970670002827 ], [ 75.694191573463158, 32.836966744416173 ], [ 75.681877996221473, 32.862254716426349 ], [ 75.692713944194153, 32.87670498614645 ], [ 75.738520451533205, 32.874296607859769 ], [ 75.769058123092577, 32.889951066723206 ], [ 75.801565967010603, 32.885535706530959 ], [ 75.823237862955963, 32.853825392422955 ], [ 75.88382066298503, 32.812080168787105 ], [ 75.890716266240375, 32.782778232965789 ], [ 75.92617936869641, 32.745448369522194 ], [ 75.889731180061034, 32.652324409103755 ], [ 75.908940360558063, 32.659148147582698 ], [ 75.918298679261738, 32.64469787786259 ], [ 75.936522773579412, 32.647909048911508 ], [ 75.930119713413745, 32.631451797285834 ], [ 75.918791222351402, 32.633057382810293 ], [ 75.902044757302718, 32.592917744698894 ], [ 75.880865404447022, 32.586495402601074 ], [ 75.880865404447022, 32.570840943737629 ], [ 75.869044370295015, 32.563615808877579 ], [ 75.875939973550359, 32.550369728300815 ], [ 75.841461957273651, 32.523476170766187 ], [ 75.832596181659639, 32.503406351710488 ], [ 75.775461183258244, 32.464069506361319 ], [ 75.728669589739866, 32.452830407690129 ], [ 75.729654675919193, 32.438781534351143 ], [ 75.743938425519545, 32.431957795872208 ], [ 75.728669589739866, 32.432359192253323 ], [ 75.722266529574185, 32.405465634718688 ], [ 75.711430581601505, 32.411085184054279 ], [ 75.68680342711815, 32.390613968617473 ], [ 75.596668041709052, 32.377769284421824 ], [ 75.559727309984012, 32.357298068985017 ], [ 75.539533043307657, 32.336425457167088 ], [ 75.542488301845665, 32.305517935821314 ], [ 75.535100155500658, 32.279025774667794 ], [ 75.525741836796968, 32.276216 ], [ 75.503577397761944, 32.291469062482328 ], [ 75.511950630286293, 32.307926314108002 ], [ 75.481905501816598, 32.320369601922529 ], [ 75.47993532945793, 32.334418475261522 ], [ 75.494711622147946, 32.340840817359343 ], [ 75.489293648161606, 32.346058970313827 ], [ 75.468606838395573, 32.338833835453769 ], [ 75.467621752216246, 32.325587754877013 ], [ 75.43117356358087, 32.315954241730275 ], [ 75.341530721261435, 32.346058970313827 ], [ 75.331679859468096, 32.326791944020357 ], [ 75.32232154076442, 32.344453384789368 ], [ 75.28833606757739, 32.355692483460558 ], [ 75.289321153756717, 32.370544149561773 ], [ 75.257798396018018, 32.371748338705117 ], [ 75.256320766749013, 32.389409779474128 ], [ 75.24499227568667, 32.384593022900759 ], [ 75.21248443176863, 32.402254463669777 ], [ 75.209036630140972, 32.394627932428612 ], [ 75.192782708181952, 32.401050274526433 ], [ 75.191797622002611, 32.411486580435394 ], [ 75.232678698444985, 32.431155003109978 ], [ 75.228245810637986, 32.451224822165678 ] ] ] } },
{ "type": "Feature", "properties": { "dt_code": "019", "district": "Udhampur", "st_nm": "Jammu and Kashmir", "st_code": "01", "year": "2011_c" }, "geometry": { "type": "MultiPolygon", "coordinates": [ [ [ [ 75.201648483795964, 32.669584453491659 ], [ 75.205588828513299, 32.657542562058239 ], [ 75.155841976456912, 32.672795624540569 ], [ 75.141065683766897, 32.692865443596268 ], [ 75.15239417482924, 32.695675218264064 ], [ 75.201648483795964, 32.669584453491659 ] ] ], [ [ [ 75.121856503269868, 33.179357857506361 ], [ 75.147961287022227, 33.181364839411927 ], [ 75.18096167402993, 33.149253128922815 ], [ 75.215439690306638, 33.15687966016398 ], [ 75.234648870803653, 33.149253128922815 ], [ 75.231201069175995, 33.101888355951367 ], [ 75.244499732597006, 33.090247860899062 ], [ 75.297201843191388, 33.10068416680803 ], [ 75.332664945647437, 33.07419200565451 ], [ 75.402113521290502, 33.059340339553295 ], [ 75.407038952187179, 33.010771377438502 ], [ 75.451860373346889, 32.959794037037035 ], [ 75.520816405900305, 32.958188451512576 ], [ 75.533129983141976, 32.947752145603616 ], [ 75.561204939253017, 32.966216379134856 ], [ 75.580906662839695, 32.945343767316935 ], [ 75.655280669379451, 32.926076741023465 ], [ 75.693206487283817, 32.841783500989536 ], [ 75.68138545313181, 32.81970670002827 ], [ 75.689266142566481, 32.794017331636979 ], [ 75.655280669379451, 32.771539134294599 ], [ 75.599130757157383, 32.76672237772123 ], [ 75.581399205929372, 32.742638594854391 ], [ 75.558249680715008, 32.755884675431155 ], [ 75.551846620549341, 32.771539134294599 ], [ 75.494711622147946, 32.764715395815664 ], [ 75.475009898561254, 32.708921298840821 ], [ 75.475994984740581, 32.682429137687301 ], [ 75.459741062781575, 32.66476769691829 ], [ 75.442994597732891, 32.672394228159455 ], [ 75.427233218863535, 32.66075373310715 ], [ 75.413442012352846, 32.679619363019505 ], [ 75.392755202586827, 32.667176075204971 ], [ 75.374038565179475, 32.698083596550745 ], [ 75.376008737538143, 32.671591435397225 ], [ 75.363695160296459, 32.676408191970594 ], [ 75.373546022089812, 32.666774678823863 ], [ 75.359754815579123, 32.657542562058239 ], [ 75.355814470861787, 32.668781660729429 ], [ 75.344485979799444, 32.65673976929601 ], [ 75.344978522889107, 32.664366300537175 ], [ 75.330694773288769, 32.66396490415606 ], [ 75.285380809039381, 32.64148670681368 ], [ 75.239081758610666, 32.654331391009329 ], [ 75.229230896817313, 32.633057382810293 ], [ 75.190812535823284, 32.6334587791914 ], [ 75.194260337450942, 32.647106256149279 ], [ 75.216917319575643, 32.657542562058239 ], [ 75.215439690306638, 32.686041705117326 ], [ 75.18096167402993, 32.700090578456319 ], [ 75.163722665891584, 32.723772964942036 ], [ 75.122841589449209, 32.704505938648573 ], [ 75.09131883171051, 32.715745037319763 ], [ 75.108065296759193, 32.737821838281029 ], [ 75.128259563435549, 32.737420441899914 ], [ 75.128259563435549, 32.74825814418999 ], [ 75.16470775207091, 32.764313999434549 ], [ 75.155841976456912, 32.787193593158044 ], [ 75.129737192704539, 32.792411746112521 ], [ 75.130229735794217, 32.810073186881539 ], [ 75.033198747129774, 32.871085436810851 ], [ 74.977541377997383, 32.927682326547917 ], [ 75.006601420287751, 32.93370327226463 ], [ 74.989854955239068, 32.957385658750354 ], [ 75.00561633410841, 32.986286198190555 ], [ 74.999705817032407, 33.00515182810291 ], [ 75.038616721116114, 33.022010476109699 ], [ 75.022855342246757, 33.046094258976531 ], [ 75.048467582909453, 33.055727772123269 ], [ 75.069154392675486, 33.050509619168785 ], [ 75.082945599186161, 33.065361285270001 ], [ 75.029258402412438, 33.0998813740458 ], [ 75.050437755268121, 33.150457318066152 ], [ 75.077527625199821, 33.162900605880687 ], [ 75.097229348786513, 33.194209523607576 ], [ 75.121856503269868, 33.179357857506361 ] ] ] ] } },
{ "type": "Feature", "properties": { "dt_code": "022", "district": "Samba", "st_nm": "Jammu and Kashmir", "st_code": "01", "year": "2011_c" }, "geometry": { "type": "Polygon", "coordinates": [ [ [ 75.042557065833449, 32.725779946847609 ], [ 75.053393013806129, 32.74023021656771 ], [ 75.079990340648152, 32.73220228894543 ], [ 75.092303917889836, 32.714540848176419 ], [ 75.122841589449209, 32.704505938648573 ], [ 75.150424002470572, 32.723371568560928 ], [ 75.170618269146928, 32.722167379417584 ], [ 75.180469130940267, 32.700893371218548 ], [ 75.218394948844647, 32.682027741306193 ], [ 75.216917319575643, 32.657542562058239 ], [ 75.194260337450942, 32.647106256149279 ], [ 75.190812535823284, 32.6334587791914 ], [ 75.227753267548323, 32.632655986429178 ], [ 75.239081758610666, 32.654331391009329 ], [ 75.250902792762673, 32.6535285982471 ], [ 75.277992662694373, 32.645902067005935 ], [ 75.28833606757739, 32.629846211761375 ], [ 75.320843911495416, 32.621015491376873 ], [ 75.341530721261435, 32.601748465083404 ], [ 75.336112747275109, 32.576861889454335 ], [ 75.279470291963378, 32.576059096692113 ], [ 75.257305852928354, 32.543947386202994 ], [ 75.283903179770377, 32.517053828668359 ], [ 75.263216370004358, 32.51625103590613 ], [ 75.259276025287022, 32.4865477037037 ], [ 75.228245810637986, 32.451224822165678 ], [ 75.227753267548323, 32.425936850155495 ], [ 75.200170854526959, 32.416303337008763 ], [ 75.187364734195612, 32.426739642917724 ], [ 75.153379261008567, 32.421521489963247 ], [ 75.131707365063221, 32.408676805767598 ], [ 75.126781934166544, 32.423929868249928 ], [ 75.134170080511552, 32.427943832061068 ], [ 75.108065296759193, 32.46005554255018 ], [ 75.108065296759193, 32.473703019508058 ], [ 75.085408314634492, 32.468886262934689 ], [ 75.026795686964107, 32.496582613231553 ], [ 75.017929911350095, 32.466076488266893 ], [ 74.984436981252728, 32.450020633022334 ], [ 74.969168145473034, 32.459654146169065 ], [ 74.947496249527688, 32.447210858354538 ], [ 74.93912301700334, 32.470893244840255 ], [ 74.918928750326984, 32.463668109980205 ], [ 74.877062587705268, 32.477716983319198 ], [ 74.889376164946952, 32.521469188860614 ], [ 74.917943664147643, 32.525081756290639 ], [ 74.901197199098959, 32.535919458580715 ], [ 74.904645000726632, 32.553179502968618 ], [ 74.925331810492651, 32.547961350014134 ], [ 74.93912301700334, 32.55799625954198 ], [ 74.927301982851333, 32.560003241447554 ], [ 74.928779612120323, 32.569636754594285 ], [ 74.942570818631012, 32.564017205258693 ], [ 74.956854568231364, 32.574052114786539 ], [ 74.942078275541348, 32.585291213457729 ], [ 74.957347111321027, 32.590107970031099 ], [ 74.920898922685652, 32.595326122985576 ], [ 74.933705043017, 32.606565221656773 ], [ 74.915480948699312, 32.625430851569128 ], [ 74.893809052753952, 32.596931708510034 ], [ 74.881495475512281, 32.60375544698897 ], [ 74.894301595843629, 32.619811302233529 ], [ 74.897256854381624, 32.646303463387049 ], [ 74.9607949129487, 32.68323193044953 ], [ 74.958332197500354, 32.70972409160305 ], [ 75.006108877198074, 32.742638594854391 ], [ 75.013989566632759, 32.729392514277635 ], [ 75.042557065833449, 32.725779946847609 ] ], [ [ 75.141065683766897, 32.692865443596268 ], [ 75.155841976456912, 32.672795624540569 ], [ 75.205588828513299, 32.657542562058239 ], [ 75.201648483795964, 32.669584453491659 ], [ 75.149438916291231, 32.696076614645179 ], [ 75.141065683766897, 32.692865443596268 ] ] ] } },
{ "type": "Feature", "properties": { "dt_code": "992", "district": "Muzaffarabad", "st_nm": "Jammu and Kashmir", "st_code": "01", "year": "2011_c" }, "geometry": { "type": "Polygon", "coordinates": [ [ [ 74.319503810202008, 34.786548967486567 ], [ 74.283548164656295, 34.747212122137405 ], [ 74.157949676791162, 34.682988701159175 ], [ 74.136770323935465, 34.64887000876449 ], [ 74.109680454003779, 34.663320278484591 ], [ 74.106725195465771, 34.687002664970315 ], [ 74.066336662113059, 34.67937613372915 ], [ 74.030873559657024, 34.691819421543677 ], [ 74.004768775904665, 34.682185908396946 ], [ 73.977678905972965, 34.685798475826971 ], [ 73.938768001889258, 34.632412757138816 ], [ 73.938768001889258, 34.610335956177551 ], [ 73.945171062054925, 34.597892668363016 ], [ 73.961424984013945, 34.596688479219679 ], [ 73.965857871820958, 34.577822849307324 ], [ 73.897394382357206, 34.5051701043257 ], [ 73.888528606743208, 34.48188911422109 ], [ 73.892961494550207, 34.450178800113086 ], [ 73.841737013224815, 34.424088035340681 ], [ 73.809229169306789, 34.42569362086514 ], [ 73.756527058712393, 34.380737226180379 ], [ 73.760467403429729, 34.3526394795024 ], [ 73.789527445720097, 34.335780831495619 ], [ 73.807258996948107, 34.346618533785694 ], [ 73.862423822990834, 34.323337543681085 ], [ 73.869319426246179, 34.334978038733389 ], [ 73.884095718936194, 34.330562678541135 ], [ 73.906752701060896, 34.34942830845349 ], [ 73.917096105943898, 34.34541434464235 ], [ 73.937782915709917, 34.332569660446701 ], [ 73.922021536840575, 34.312901237772124 ], [ 73.92596188155791, 34.304070517387615 ], [ 73.943200889696257, 34.306077499293181 ], [ 73.939260544978922, 34.283197905569693 ], [ 73.946648691323929, 34.27396578880407 ], [ 73.988022310855982, 34.269550428611815 ], [ 74.010186749891005, 34.222185655640374 ], [ 74.003291146635661, 34.184454395815663 ], [ 73.932364941723577, 34.141103586655355 ], [ 73.927439510826915, 34.107386290641784 ], [ 73.906752701060896, 34.10618210149844 ], [ 73.894931666908874, 34.06523967062482 ], [ 73.791005074989101, 34.084908093299404 ], [ 73.697421887952331, 34.079288543963813 ], [ 73.680675422903647, 34.064035481481483 ], [ 73.653093009882284, 34.064035481481483 ], [ 73.623540424502252, 34.089724849872773 ], [ 73.608271588722559, 34.073267598247099 ], [ 73.594972925301548, 34.082098318631608 ], [ 73.533897582182817, 34.151539892564315 ], [ 73.514688401685802, 34.155152459994341 ], [ 73.488091074843766, 34.144314757704265 ], [ 73.492523962650779, 34.219777277353685 ], [ 73.469374437436414, 34.251487591461689 ], [ 73.477747669960763, 34.290021644048629 ], [ 73.466911721988083, 34.29564119338422 ], [ 73.453120515477394, 34.277979752615209 ], [ 73.452627972387731, 34.296845382527565 ], [ 73.423567930097363, 34.339393398925644 ], [ 73.424060473187026, 34.353040875883515 ], [ 73.400910947972676, 34.357857632456884 ], [ 73.390075, 34.374314884082551 ], [ 73.408299094317684, 34.386356775515971 ], [ 73.419627585380027, 34.417264296861745 ], [ 73.421597757738695, 34.470248619168785 ], [ 73.436866593518374, 34.503965915182356 ], [ 73.428985904083703, 34.520824563189144 ], [ 73.447209998401391, 34.573808885496184 ], [ 73.52207654803081, 34.574210281877292 ], [ 73.556554564307504, 34.593075911789647 ], [ 73.617629907426249, 34.585449380548482 ], [ 73.638809260281931, 34.565780957873905 ], [ 73.650137751344275, 34.567787939779471 ], [ 73.65949607004795, 34.609934559796436 ], [ 73.695451715593663, 34.653686765337852 ], [ 73.665899130213631, 34.665728656771272 ], [ 73.666884216392958, 34.684192890302512 ], [ 73.749138912367386, 34.786548967486567 ], [ 73.772780980671413, 34.796182480633306 ], [ 73.820557660369133, 34.795379687871076 ], [ 73.849125159569823, 34.817055092451227 ], [ 73.866364167708184, 34.811034146734521 ], [ 73.900349640895215, 34.821470452643482 ], [ 73.917096105943898, 34.813843921402317 ], [ 73.934827657171923, 34.833110947695786 ], [ 73.963395156372613, 34.841138875318066 ], [ 73.97373856125563, 34.864821261803783 ], [ 74.02939593038802, 34.877264549618317 ], [ 74.043187136898709, 34.921418151540848 ], [ 74.073232265368404, 34.939480988690981 ], [ 74.059441058857715, 34.993268103760244 ], [ 74.107217738555434, 35.018957472151541 ], [ 74.065351575933732, 35.047858011591742 ], [ 74.094411618224086, 35.096828370087643 ], [ 74.133322522307807, 35.107666072377718 ], [ 74.162875107687839, 35.085990667797567 ], [ 74.222472821537565, 35.085990667797567 ], [ 74.226905709344564, 35.067125037885212 ], [ 74.249562691469265, 35.067125037885212 ], [ 74.253010493096923, 35.037421705682782 ], [ 74.26877187196628, 35.035013327396094 ], [ 74.297339371166984, 35.044646840542832 ], [ 74.30817531913965, 35.059899903025162 ], [ 74.380086610231061, 35.057491524738474 ], [ 74.429833462287448, 35.112884225332202 ], [ 74.472684711088505, 35.115694 ], [ 74.515535959889547, 35.094821388182076 ], [ 74.539178028193575, 35.059097110262933 ], [ 74.53523768347624, 35.031400759966068 ], [ 74.587447250980958, 35.009725355385918 ], [ 74.571685872111601, 34.965973149844501 ], [ 74.576611303008278, 34.910580449250773 ], [ 74.567745527394266, 34.872849189426063 ], [ 74.530312252579563, 34.856793334181511 ], [ 74.505192555006531, 34.863617072660446 ], [ 74.457415875308811, 34.852377973989256 ], [ 74.413579540328442, 34.799393651682216 ], [ 74.395847989100417, 34.803809011874471 ], [ 74.319503810202008, 34.786548967486567 ] ] ] } },
{ "type": "Feature", "properties": { "dt_code": "991", "district": "Mirpur", "st_nm": "Jammu and Kashmir", "st_code": "01", "year": "2011_c" }, "geometry": { "type": "Polygon", "coordinates": [ [ [ 73.731407361139361, 33.586373787955893 ], [ 73.744706024560386, 33.596810093864853 ], [ 73.742243309112041, 33.627717615210628 ], [ 73.767855549774737, 33.616077120158323 ], [ 73.814154600203452, 33.622098065875036 ], [ 73.847647530300819, 33.593197526434828 ], [ 73.920051364481907, 33.604838021487133 ], [ 73.952559208399933, 33.622098065875036 ], [ 73.982111793779964, 33.604838021487133 ], [ 74.015112180787668, 33.606443607011592 ], [ 74.038261706002032, 33.590387751767032 ], [ 74.044664766167699, 33.567508158043537 ], [ 74.064859032844055, 33.550248113655641 ], [ 74.15450187516349, 33.544628564320043 ], [ 74.147606271908145, 33.539811807746673 ], [ 74.157457133701499, 33.508502890019791 ], [ 74.144651013370151, 33.459933927905006 ], [ 74.164845280046507, 33.415780325982468 ], [ 74.134800151576798, 33.396914696070112 ], [ 74.140218125563138, 33.373633705965503 ], [ 74.161397478418834, 33.355570868815377 ], [ 74.14366592719081, 33.343127581000843 ], [ 74.143173384101146, 33.321050780039577 ], [ 74.130859806859462, 33.307403303081706 ], [ 74.004768775904665, 33.260038530110258 ], [ 74.00082843118733, 33.217490513712185 ], [ 74.027918301119016, 33.200230469324282 ], [ 74.066336662113059, 33.194209523607576 ], [ 74.082590584072079, 33.174541100932991 ], [ 74.146621185728819, 33.139218219394962 ], [ 74.157457133701499, 33.10790930166808 ], [ 74.17617377110885, 33.094261824710202 ], [ 74.163367650777502, 33.075797591178961 ], [ 74.320488896381335, 33.030439800113086 ], [ 74.315070922394995, 33.00595462086514 ], [ 74.333787559802346, 32.953773091320329 ], [ 74.30669768987066, 32.934907461407974 ], [ 74.323936698009007, 32.920457191687866 ], [ 74.366787946810049, 32.9184502097823 ], [ 74.411116824880096, 32.89597201243992 ], [ 74.413579540328442, 32.839375122702855 ], [ 74.433773807004798, 32.822516474696066 ], [ 74.44953518587414, 32.783581025728019 ], [ 74.405698850893756, 32.782376836584675 ], [ 74.38304186876907, 32.757490260955613 ], [ 74.353489283389038, 32.763109810291205 ], [ 74.30817531913965, 32.792010349731406 ], [ 74.300787172794642, 32.822917871077181 ], [ 74.216562304461561, 32.844994672038446 ], [ 74.201786011771546, 32.870282644048629 ], [ 74.177158857288177, 32.882725931863156 ], [ 74.058948515768051, 32.908816696635562 ], [ 74.047620024705708, 32.932097686740171 ], [ 73.987529767766304, 32.935308857789082 ], [ 73.996395543380316, 32.959794037037035 ], [ 73.967828044179626, 32.969026153802659 ], [ 73.957484639296609, 32.98668759457167 ], [ 73.828930892893467, 33.007158810008477 ], [ 73.807751540037785, 32.972237324851569 ], [ 73.785587101002761, 32.965413586372627 ], [ 73.778691497747417, 32.974244306757136 ], [ 73.788049816451093, 32.99792669324286 ], [ 73.742735852201704, 33.038869124116481 ], [ 73.73436261967737, 33.06616407803223 ], [ 73.687571026158992, 33.088240878993496 ], [ 73.626988226129924, 33.08944506813684 ], [ 73.62551059686092, 33.139619615776077 ], [ 73.655555725330615, 33.1689215515974 ], [ 73.657033354599619, 33.207857000565447 ], [ 73.640286889550936, 33.226321234096687 ], [ 73.627973312309251, 33.215483531806612 ], [ 73.624525510681579, 33.23635614362454 ], [ 73.604823787094901, 33.251207809725756 ], [ 73.597435640749893, 33.282516727452645 ], [ 73.603346157825897, 33.294960015267172 ], [ 73.581181718790873, 33.326268932994061 ], [ 73.590047494404885, 33.336705238903022 ], [ 73.564927796831853, 33.342324788238621 ], [ 73.570345770818193, 33.355972265196492 ], [ 73.557539650486845, 33.368014156629911 ], [ 73.563942710652512, 33.394104921402317 ], [ 73.590540037494549, 33.421801271699181 ], [ 73.581674261880536, 33.429026406559231 ], [ 73.587092235866876, 33.443075279898217 ], [ 73.624032967591916, 33.457124153237203 ], [ 73.612211933439909, 33.480003746960698 ], [ 73.600883442377551, 33.477996765055131 ], [ 73.595958011480889, 33.500073566016397 ], [ 73.608764131812237, 33.500474962397512 ], [ 73.606301416363891, 33.519741988690981 ], [ 73.632406200116264, 33.532988069267738 ], [ 73.618122450515912, 33.543825771557813 ], [ 73.62009262287458, 33.573930500141358 ], [ 73.599898356198224, 33.592796130053713 ], [ 73.602853614736233, 33.607246399773814 ], [ 73.588569865135881, 33.604035228724904 ], [ 73.560494909024854, 33.620893876731692 ], [ 73.568375598459525, 33.640562299406277 ], [ 73.562465081383522, 33.675483784563184 ], [ 73.596943097660215, 33.716024819055697 ], [ 73.642749604999267, 33.651801398077467 ], [ 73.704810034297338, 33.622098065875036 ], [ 73.731407361139361, 33.586373787955893 ] ] ] } }
]
}
