{
"type": "FeatureCollection",
"name": "kerala",
"crs": { "type": "name", "properties": { "name": "urn:ogc:def:crs:OGC:1.3:CRS84" } },
"features": [
{ "type": "Feature", "properties": { "dt_code": "588", "district": "Kasaragod", "st_code": "32", "year": "2011_c", "st_nm": "Kerala" }, "geometry": { "type": "Polygon", "coordinates": [ [ [ 75.414440262769489, 12.289960558398931 ], [ 75.391979764433515, 12.290334223715664 ], [ 75.345217743307771, 12.266793308761548 ], [ 75.298823927072775, 12.269408965978672 ], [ 75.287409575459407, 12.260440998377105 ], [ 75.289250599913174, 12.233163430255669 ], [ 75.252061905947031, 12.218590482903121 ], [ 75.232547046737082, 12.221206140120245 ], [ 75.203090655476771, 12.190565584148221 ], [ 75.17363426421646, 12.189444588198024 ], [ 75.196462967443196, 12.1401207663894 ], [ 75.187994254955868, 12.12891080688744 ], [ 75.191308098972655, 12.113590528901428 ], [ 75.187994254955868, 12.096401924331756 ], [ 75.187257845174358, 12.095654593698292 ], [ 75.1765799033425, 12.102006904082735 ], [ 75.16553375661988, 12.08967594863058 ], [ 75.126872243090716, 12.202522874283645 ], [ 75.041816913326571, 12.388608202016179 ], [ 75.014937956301551, 12.418127762038008 ], [ 74.974067213427858, 12.501081462352513 ], [ 74.956393378671677, 12.555262933278652 ], [ 74.95455235421791, 12.54928428821094 ], [ 74.938351339024734, 12.591508469001656 ], [ 74.954184149327162, 12.60533408572074 ], [ 74.941665183041522, 12.607576077621133 ], [ 74.939455953697006, 12.595618787485709 ], [ 74.932091855881922, 12.613554722688843 ], [ 74.950133895528865, 12.636348307009495 ], [ 74.928041602083638, 12.611686396105185 ], [ 74.887907268991455, 12.707718382505307 ], [ 74.905949308638398, 12.694640096419688 ], [ 74.891957522789752, 12.71182870098936 ], [ 74.885329834756178, 12.709586709088967 ], [ 74.867656, 12.751437224562952 ], [ 74.869128819563016, 12.758910530897591 ], [ 74.882384195630152, 12.754052881780076 ], [ 74.932828265663431, 12.780583119268048 ], [ 74.96412568137751, 12.780209453951315 ], [ 74.968544140066555, 12.776472800783996 ], [ 74.978117467226156, 12.779835788634584 ], [ 74.982904130805963, 12.78133044990151 ], [ 74.987322589495008, 12.783198776485172 ], [ 74.988795409058014, 12.7940350706704 ], [ 74.989531818839524, 12.795156066620596 ], [ 74.998368736217614, 12.786188099019029 ], [ 75.002787194906674, 12.791045748136543 ], [ 75.003523604688169, 12.791045748136543 ], [ 75.009414882940234, 12.767504833182429 ], [ 74.982535925915201, 12.738358938477331 ], [ 75.011255907394002, 12.727896309608836 ], [ 75.000946170452892, 12.715565354156681 ], [ 75.050285625813913, 12.719302007324 ], [ 75.054704084502958, 12.694640096419688 ], [ 75.039607683982055, 12.686793124768315 ], [ 75.046603576906378, 12.666615197664788 ], [ 75.069432280133114, 12.663999540447664 ], [ 75.085265090435527, 12.673714838682695 ], [ 75.085265090435527, 12.705476390604915 ], [ 75.105516359427, 12.698003084270276 ], [ 75.111775842569813, 12.680814479700604 ], [ 75.133131726233543, 12.674462169316159 ], [ 75.152646585443492, 12.682309140967533 ], [ 75.150069151208214, 12.673714838682695 ], [ 75.160378888149324, 12.671472846782304 ], [ 75.137550184922588, 12.6445689439776 ], [ 75.161115297930834, 12.621028029023485 ], [ 75.201617835913751, 12.628875000674856 ], [ 75.198303991896978, 12.613181057372111 ], [ 75.209350138619584, 12.601597432553419 ], [ 75.200513221241494, 12.588892811784532 ], [ 75.208613728838074, 12.592255799635119 ], [ 75.220396285342204, 12.568341219364271 ], [ 75.237701915207637, 12.568341219364271 ], [ 75.273417789610761, 12.616917710539433 ], [ 75.278572658081316, 12.617291375856164 ], [ 75.311342893358415, 12.591134803684923 ], [ 75.32533467920706, 12.592255799635119 ], [ 75.314656737375202, 12.573946199115252 ], [ 75.289618804803936, 12.584035162667016 ], [ 75.283727526551871, 12.570956876581395 ], [ 75.271944970047741, 12.570209545947932 ], [ 75.269735740703226, 12.549657953527671 ], [ 75.280045477644336, 12.524248711989895 ], [ 75.302874180871072, 12.522754050722968 ], [ 75.304347000434092, 12.503323454252904 ], [ 75.332330572131383, 12.499586801085584 ], [ 75.33638082592968, 12.464088595996044 ], [ 75.359945938937926, 12.465209591946241 ], [ 75.372096700332804, 12.476793216764932 ], [ 75.367678241643759, 12.491739829434213 ], [ 75.382038232383152, 12.502202458302708 ], [ 75.415913082332509, 12.499586801085584 ], [ 75.420331541021554, 12.487255845633427 ], [ 75.422540770366084, 12.47268289828088 ], [ 75.39345258399652, 12.451383975227156 ], [ 75.366205422080739, 12.457736285611599 ], [ 75.365837217189977, 12.457736285611599 ], [ 75.365837217189977, 12.412149116970296 ], [ 75.379092593257127, 12.392344855183499 ], [ 75.421436155693812, 12.372914258713436 ], [ 75.410390008971206, 12.347131351858927 ], [ 75.431745892634922, 12.308643824235531 ], [ 75.430273073071916, 12.307149162968603 ], [ 75.414440262769489, 12.289960558398931 ] ] ] } },
{ "type": "Feature", "properties": { "dt_code": "590", "district": "Wayanad", "st_code": "32", "year": "2011_c", "st_nm": "Kerala" }, "geometry": { "type": "Polygon", "coordinates": [ [ [ 75.936554797858477, 11.940957152571244 ], [ 75.936923002749239, 11.941704483204708 ], [ 76.003199883084932, 11.931615519652944 ], [ 76.070213173202134, 11.967113724742484 ], [ 76.113661350311091, 11.979818345511372 ], [ 76.112556735638833, 11.978697349561177 ], [ 76.112924940529581, 11.858377117573472 ], [ 76.119920833453904, 11.8505301459221 ], [ 76.15600491274779, 11.870334407708896 ], [ 76.190247967587894, 11.871455403659093 ], [ 76.207553597453327, 11.86174010542406 ], [ 76.209762826797856, 11.827362896284717 ], [ 76.223754612646502, 11.808305965131385 ], [ 76.24547870120098, 11.803074650697136 ], [ 76.280089960931846, 11.812416283615436 ], [ 76.30770532773839, 11.784765050177269 ], [ 76.318383269570248, 11.751508836988121 ], [ 76.345630431486029, 11.740672542802892 ], [ 76.352258119519604, 11.7384305509025 ], [ 76.413748336275503, 11.758608478006028 ], [ 76.410434492258716, 11.742914534703285 ], [ 76.410434492258716, 11.742540869386552 ], [ 76.410434492258716, 11.742540869386552 ], [ 76.427371917233387, 11.726099595450345 ], [ 76.403438599334393, 11.711152982781064 ], [ 76.404175009115903, 11.70853732556394 ], [ 76.416693975401529, 11.672291789840937 ], [ 76.416693975401529, 11.671918124524204 ], [ 76.417062180292277, 11.671918124524204 ], [ 76.44394113731731, 11.647256213619892 ], [ 76.432158580813194, 11.631188605000418 ], [ 76.387973993922728, 11.629693943733489 ], [ 76.37803246187238, 11.60204271029532 ], [ 76.341580177687746, 11.587469762942773 ], [ 76.341211972796984, 11.587469762942773 ], [ 76.335688899435681, 11.595690399910877 ], [ 76.302182254377072, 11.571402154323296 ], [ 76.29592277123426, 11.590085420159896 ], [ 76.278985346259574, 11.600921714345125 ], [ 76.23443255447836, 11.568786497106172 ], [ 76.233327939806102, 11.568039166472708 ], [ 76.2373781936044, 11.560939525454801 ], [ 76.250265364780773, 11.526935981632189 ], [ 76.234064349587612, 11.527683312265653 ], [ 76.234064349587612, 11.527683312265653 ], [ 76.234064349587612, 11.527683312265653 ], [ 76.22412281753725, 11.508626381112322 ], [ 76.193561811604681, 11.498537417560556 ], [ 76.190984377369404, 11.497790086927093 ], [ 76.190616172478656, 11.494800764393236 ], [ 76.185829508898848, 11.472754510706048 ], [ 76.142749536680654, 11.45070825701886 ], [ 76.123234677470691, 11.472754510706048 ], [ 76.086782393286057, 11.486580127425132 ], [ 76.090464442193593, 11.509373711745784 ], [ 76.077945475907967, 11.520957336564477 ], [ 76.077945475907967, 11.520957336564477 ], [ 76.03670652814354, 11.502274070727877 ], [ 75.973007082043111, 11.545619247468789 ], [ 75.951282993488633, 11.581117452558328 ], [ 75.908939431051948, 11.599800718394928 ], [ 75.89678866965707, 11.642024899185644 ], [ 75.900102513673843, 11.675281112374792 ], [ 75.915198914194761, 11.68985405972734 ], [ 75.850394853422074, 11.702185015179497 ], [ 75.810260520329905, 11.742167204069821 ], [ 75.792218480682962, 11.742540869386552 ], [ 75.799582578498047, 11.752256167621585 ], [ 75.783381563304872, 11.759729473956224 ], [ 75.79405950513673, 11.789622699294785 ], [ 75.772335416582251, 11.80195365474694 ], [ 75.796268734481259, 11.817647598049685 ], [ 75.797741554044279, 11.818021263366417 ], [ 75.797373349153517, 11.818021263366417 ], [ 75.790009251338446, 11.840814847687069 ], [ 75.808787700766885, 11.855761460356348 ], [ 75.926981470698877, 11.842309508953996 ], [ 75.931031724497174, 11.857629786940009 ], [ 75.911148660396464, 11.874071060876217 ], [ 75.936186592967729, 11.890138669495693 ], [ 75.929190700043407, 11.914800580400005 ], [ 75.926613265808129, 11.923768548001572 ], [ 75.9339773636232, 11.936099503453729 ], [ 75.939500436984517, 11.940583487254512 ], [ 75.936554797858477, 11.940957152571244 ] ] ] } },
{ "type": "Feature", "properties": { "dt_code": "591", "district": "Kozhikode", "st_code": "32", "year": "2011_c", "st_nm": "Kerala" }, "geometry": { "type": "Polygon", "coordinates": [ [ [ 75.79405950513673, 11.789622699294785 ], [ 75.783381563304872, 11.759729473956224 ], [ 75.799582578498047, 11.752256167621585 ], [ 75.792218480682962, 11.742540869386552 ], [ 75.810260520329905, 11.742167204069821 ], [ 75.850394853422074, 11.702185015179497 ], [ 75.915198914194761, 11.68985405972734 ], [ 75.900102513673843, 11.675281112374792 ], [ 75.89678866965707, 11.642024899185644 ], [ 75.908939431051948, 11.599800718394928 ], [ 75.951282993488633, 11.581117452558328 ], [ 75.973007082043111, 11.545619247468789 ], [ 76.03670652814354, 11.502274070727877 ], [ 76.077945475907967, 11.520957336564477 ], [ 76.077945475907967, 11.520957336564477 ], [ 76.090464442193593, 11.509373711745784 ], [ 76.086782393286057, 11.486580127425132 ], [ 76.123234677470691, 11.472754510706048 ], [ 76.142749536680654, 11.45070825701886 ], [ 76.142749536680654, 11.45070825701886 ], [ 76.142381331789892, 11.418946705096641 ], [ 76.131335185067286, 11.426420011431281 ], [ 76.117711604109388, 11.407736745594681 ], [ 76.105192637823748, 11.409231406861609 ], [ 76.100037769353207, 11.386811487857688 ], [ 76.091937261756613, 11.351686948084881 ], [ 76.092305466647375, 11.351686948084881 ], [ 76.117343399218626, 11.336366670098869 ], [ 76.114029555201853, 11.314320416411681 ], [ 76.08346854926927, 11.30684711007704 ], [ 76.045175240630869, 11.263875598652861 ], [ 76.013509620026042, 11.266864921186716 ], [ 75.993626555925331, 11.255654961684757 ], [ 75.974479901606131, 11.267985917136913 ], [ 75.918144553320786, 11.23547703458123 ], [ 75.900470718564605, 11.24145567964894 ], [ 75.897156874547818, 11.229124724196785 ], [ 75.856286131674139, 11.204462813292473 ], [ 75.861809205035442, 11.188021539356265 ], [ 75.884637908262192, 11.184284886188944 ], [ 75.887951752278966, 11.171580265420058 ], [ 75.864754844161482, 11.170832934786592 ], [ 75.852235877875842, 11.152523334266725 ], [ 75.858863565909417, 11.140566044131301 ], [ 75.845239984951519, 11.142060705398229 ], [ 75.826093330632318, 11.122630108928165 ], [ 75.80436924207784, 11.156633652750777 ], [ 75.809155905657647, 11.16298596313522 ], [ 75.748402098683258, 11.318430734895733 ], [ 75.736619542179128, 11.325156710596909 ], [ 75.731832878599334, 11.356170931885664 ], [ 75.697958028649978, 11.425299015481084 ], [ 75.664083178700622, 11.462665547154284 ], [ 75.633890377658801, 11.462291881837553 ], [ 75.618057567356388, 11.477238494506832 ], [ 75.536684286499778, 11.693964378211392 ], [ 75.553253506583701, 11.702558680496228 ], [ 75.569454521776876, 11.674533781741328 ], [ 75.600383732600193, 11.686117406560021 ], [ 75.587864766314567, 11.711900313414528 ], [ 75.66592420315439, 11.757861147372564 ], [ 75.691330340616403, 11.798590666896352 ], [ 75.716368273187669, 11.796348674995961 ], [ 75.728887239473295, 11.779533735743021 ], [ 75.753188762263051, 11.783644054227072 ], [ 75.746192869338728, 11.798217001579621 ], [ 75.765707728548691, 11.802700985380405 ], [ 75.79405950513673, 11.789622699294785 ] ] ] } },
{ "type": "Feature", "properties": { "dt_code": "592", "district": "Malappuram", "st_code": "32", "year": "2011_c", "st_nm": "Kerala" }, "geometry": { "type": "Polygon", "coordinates": [ [ [ 76.142749536680654, 11.45070825701886 ], [ 76.185829508898848, 11.472754510706048 ], [ 76.190616172478656, 11.494800764393236 ], [ 76.190984377369404, 11.497790086927093 ], [ 76.193561811604681, 11.498537417560556 ], [ 76.22412281753725, 11.508626381112322 ], [ 76.234064349587612, 11.527683312265653 ], [ 76.234064349587612, 11.527683312265653 ], [ 76.234064349587612, 11.527683312265653 ], [ 76.251369979453045, 11.502274070727877 ], [ 76.247319725654748, 11.467896861588532 ], [ 76.284508419620892, 11.482843474257812 ], [ 76.294818156562002, 11.465654869688141 ], [ 76.32611557227608, 11.454071244869448 ], [ 76.342316587469242, 11.467523196271801 ], [ 76.397915525973076, 11.436508974983045 ], [ 76.418534999855297, 11.441740289417293 ], [ 76.415589360729271, 11.423430688897424 ], [ 76.460510357401233, 11.389053479758081 ], [ 76.517582115468088, 11.371491209871676 ], [ 76.508008788308487, 11.354302605302005 ], [ 76.547774916509908, 11.358786589102788 ], [ 76.549984145854424, 11.331135355664621 ], [ 76.53709697467805, 11.313946751094949 ], [ 76.545565687165379, 11.300494799692597 ], [ 76.52678723773694, 11.288537509557173 ], [ 76.521632369266385, 11.270601574354037 ], [ 76.453146259586163, 11.23958735306528 ], [ 76.449096005787865, 11.205583809242668 ], [ 76.442468317754305, 11.201473490758616 ], [ 76.404543214006651, 11.209694127726721 ], [ 76.402333984662121, 11.187647874039532 ], [ 76.413748336275503, 11.170832934786592 ], [ 76.408593467804948, 11.118519790444113 ], [ 76.385764764578198, 11.111420149426205 ], [ 76.388342198813476, 11.098715528657317 ], [ 76.344157611923009, 11.08825289978882 ], [ 76.329429416292868, 11.074053617753005 ], [ 76.331270440746636, 11.054623021282941 ], [ 76.29444995167124, 11.050512702798889 ], [ 76.28414021473013, 11.03556609012961 ], [ 76.28414021473013, 11.035192424812877 ], [ 76.288558673419189, 11.021366808093793 ], [ 76.311755581536673, 11.029587445061898 ], [ 76.327956596729848, 11.024356130627648 ], [ 76.324274547822313, 11.004925534157586 ], [ 76.334216079872661, 10.998573223773141 ], [ 76.371036568948043, 10.996331231872748 ], [ 76.360726832006947, 10.973537647552098 ], [ 76.328324801620596, 10.979142627303077 ], [ 76.320592498914763, 10.935423785245433 ], [ 76.333111465200403, 10.921971833843081 ], [ 76.332375055418893, 10.904409563956676 ], [ 76.295554566343512, 10.91972984194269 ], [ 76.268307404427716, 10.914872192825174 ], [ 76.252474594125303, 10.885726298120078 ], [ 76.232959734915354, 10.885352632803345 ], [ 76.215654105049921, 10.914124862191709 ], [ 76.205712572999559, 10.897683588255502 ], [ 76.193193606713933, 10.896562592305305 ], [ 76.188038738243378, 10.909640878390926 ], [ 76.174046952394733, 10.905156894590142 ], [ 76.169628493705687, 10.914498527508442 ], [ 76.150850044277234, 10.889836616604128 ], [ 76.130598775285776, 10.895815261671842 ], [ 76.130966980176524, 10.877879326468705 ], [ 76.115502374764858, 10.881615979636026 ], [ 76.111820325857323, 10.865922036333281 ], [ 76.103719818260743, 10.871527016084261 ], [ 76.09672392533642, 10.842381121379166 ], [ 76.080154705252497, 10.839391798845309 ], [ 76.067267534076109, 10.838270802895114 ], [ 76.044070625958611, 10.847986101130145 ], [ 76.043702421067863, 10.847238770496681 ], [ 76.02713320098394, 10.821455863642173 ], [ 76.049961904210676, 10.800156940588449 ], [ 76.038915757488056, 10.767274392716033 ], [ 76.040756781941823, 10.761295747648322 ], [ 76.045175240630869, 10.746349134979042 ], [ 76.046648060193888, 10.742612481811722 ], [ 76.047752674866146, 10.742612481811722 ], [ 76.048857289538418, 10.741117820544794 ], [ 76.066162919403851, 10.738128498010937 ], [ 76.068372148748367, 10.732897183576689 ], [ 76.069108558529877, 10.730281526359565 ], [ 76.068740353639114, 10.730281526359565 ], [ 76.067635738966857, 10.728786865092637 ], [ 76.066899329185347, 10.723555550658389 ], [ 76.065058304731579, 10.724676546608585 ], [ 76.051434723773696, 10.704498619505058 ], [ 76.024555766748662, 10.698893639754077 ], [ 76.012036800463022, 10.690673002785974 ], [ 75.982948614093473, 10.686936349618653 ], [ 75.980371179858196, 10.690299337469241 ], [ 75.957174271740698, 10.685441688351725 ], [ 75.910044045724206, 10.793430964887273 ], [ 75.826093330632318, 11.122630108928165 ], [ 75.845239984951519, 11.142060705398229 ], [ 75.858863565909417, 11.140566044131301 ], [ 75.852235877875842, 11.152523334266725 ], [ 75.864754844161482, 11.170832934786592 ], [ 75.887951752278966, 11.171580265420058 ], [ 75.884637908262192, 11.184284886188944 ], [ 75.861809205035442, 11.188021539356265 ], [ 75.856286131674139, 11.204462813292473 ], [ 75.897156874547818, 11.229124724196785 ], [ 75.900470718564605, 11.24145567964894 ], [ 75.918144553320786, 11.23547703458123 ], [ 75.974479901606131, 11.267985917136913 ], [ 75.993626555925331, 11.255654961684757 ], [ 76.013509620026042, 11.266864921186716 ], [ 76.045175240630869, 11.263875598652861 ], [ 76.08346854926927, 11.30684711007704 ], [ 76.114029555201853, 11.314320416411681 ], [ 76.117343399218626, 11.336366670098869 ], [ 76.092305466647375, 11.351686948084881 ], [ 76.091937261756613, 11.351686948084881 ], [ 76.100037769353207, 11.386811487857688 ], [ 76.105192637823748, 11.409231406861609 ], [ 76.117711604109388, 11.407736745594681 ], [ 76.131335185067286, 11.426420011431281 ], [ 76.142381331789892, 11.418946705096641 ], [ 76.142749536680654, 11.45070825701886 ], [ 76.142749536680654, 11.45070825701886 ] ] ] } },
{ "type": "Feature", "properties": { "dt_code": "593", "district": "Palakkad", "st_code": "32", "year": "2011_c", "st_nm": "Kerala" }, "geometry": { "type": "Polygon", "coordinates": [ [ [ 76.069108558529877, 10.730281526359565 ], [ 76.068372148748367, 10.732897183576689 ], [ 76.066162919403851, 10.738128498010937 ], [ 76.048857289538418, 10.741117820544794 ], [ 76.047752674866146, 10.742612481811722 ], [ 76.046648060193888, 10.742612481811722 ], [ 76.045175240630869, 10.746349134979042 ], [ 76.040756781941823, 10.761295747648322 ], [ 76.038915757488056, 10.767274392716033 ], [ 76.049961904210676, 10.800156940588449 ], [ 76.02713320098394, 10.821455863642173 ], [ 76.043702421067863, 10.847238770496681 ], [ 76.044070625958611, 10.847986101130145 ], [ 76.067267534076109, 10.838270802895114 ], [ 76.080154705252497, 10.839391798845309 ], [ 76.09672392533642, 10.842381121379166 ], [ 76.103719818260743, 10.871527016084261 ], [ 76.111820325857323, 10.865922036333281 ], [ 76.115502374764858, 10.881615979636026 ], [ 76.130966980176524, 10.877879326468705 ], [ 76.130598775285776, 10.895815261671842 ], [ 76.150850044277234, 10.889836616604128 ], [ 76.169628493705687, 10.914498527508442 ], [ 76.174046952394733, 10.905156894590142 ], [ 76.188038738243378, 10.909640878390926 ], [ 76.193193606713933, 10.896562592305305 ], [ 76.205712572999559, 10.897683588255502 ], [ 76.215654105049921, 10.914124862191709 ], [ 76.232959734915354, 10.885352632803345 ], [ 76.252474594125303, 10.885726298120078 ], [ 76.268307404427716, 10.914872192825174 ], [ 76.295554566343512, 10.91972984194269 ], [ 76.332375055418893, 10.904409563956676 ], [ 76.333111465200403, 10.921971833843081 ], [ 76.320592498914763, 10.935423785245433 ], [ 76.328324801620596, 10.979142627303077 ], [ 76.360726832006947, 10.973537647552098 ], [ 76.371036568948043, 10.996331231872748 ], [ 76.334216079872661, 10.998573223773141 ], [ 76.324274547822313, 11.004925534157586 ], [ 76.327956596729848, 11.024356130627648 ], [ 76.311755581536673, 11.029587445061898 ], [ 76.288558673419189, 11.021366808093793 ], [ 76.28414021473013, 11.035192424812877 ], [ 76.28414021473013, 11.03556609012961 ], [ 76.29444995167124, 11.050512702798889 ], [ 76.331270440746636, 11.054623021282941 ], [ 76.329429416292868, 11.074053617753005 ], [ 76.344157611923009, 11.08825289978882 ], [ 76.388342198813476, 11.098715528657317 ], [ 76.385764764578198, 11.111420149426205 ], [ 76.408593467804948, 11.118519790444113 ], [ 76.413748336275503, 11.170832934786592 ], [ 76.402333984662121, 11.187647874039532 ], [ 76.404543214006651, 11.209694127726721 ], [ 76.442468317754305, 11.201473490758616 ], [ 76.451673440023143, 11.199605164174958 ], [ 76.458301128056718, 11.187647874039532 ], [ 76.473397528577621, 11.195121180374173 ], [ 76.472292913905363, 11.208946797093256 ], [ 76.496226231804371, 11.211188788993649 ], [ 76.499171870930397, 11.211562454310382 ], [ 76.533783130661263, 11.185779547455873 ], [ 76.628779992475756, 11.194373849740709 ], [ 76.691006619013166, 11.235103369264497 ], [ 76.697266102155979, 11.239213687748549 ], [ 76.701316355954276, 11.237345361164889 ], [ 76.706839429315579, 11.238466357115085 ], [ 76.706839429315579, 11.23958735306528 ], [ 76.73555941079438, 11.215672772794433 ], [ 76.728563517870057, 11.191384527206854 ], [ 76.695056872811449, 11.166722616302541 ], [ 76.705734814643321, 11.141687040081496 ], [ 76.711994297786134, 11.151028672999796 ], [ 76.731509156996083, 11.131598076529734 ], [ 76.748078377080006, 11.135334729697053 ], [ 76.743291713500213, 11.102452181824637 ], [ 76.754706065113581, 11.07891126687052 ], [ 76.743659918390961, 11.073306287119541 ], [ 76.746605557517, 11.056865013183334 ], [ 76.778271178121827, 11.042292065830786 ], [ 76.800731676457815, 11.053875690649477 ], [ 76.791894759079725, 11.037434416713269 ], [ 76.766488621617711, 11.029213779745165 ], [ 76.717149166256689, 11.040423739247125 ], [ 76.71567634669367, 11.040423739247125 ], [ 76.699843536391256, 11.026598122528041 ], [ 76.664127661988132, 10.955975377665693 ], [ 76.65565894950079, 10.939160438412753 ], [ 76.660077408189835, 10.9350501199287 ], [ 76.669282530458688, 10.9257084870104 ], [ 76.676646628273758, 10.918235180675762 ], [ 76.740714279264935, 10.890957612554326 ], [ 76.781585022138614, 10.891331277871057 ], [ 76.828347043264358, 10.872648012034457 ], [ 76.853753180726372, 10.839765464162042 ], [ 76.850071131818837, 10.819213871741781 ], [ 76.850071131818837, 10.818092875791585 ], [ 76.900883406742864, 10.808003912239821 ], [ 76.901988021415136, 10.803519928439037 ], [ 76.906774684994929, 10.782221005385313 ], [ 76.889469055129496, 10.735139175477082 ], [ 76.888364440457238, 10.732523518259958 ], [ 76.888364440457238, 10.732523518259958 ], [ 76.887996235566476, 10.731776187626494 ], [ 76.892046489364773, 10.719071566857606 ], [ 76.889469055129496, 10.716082244323749 ], [ 76.868849581247275, 10.688804676202313 ], [ 76.86590394212125, 10.684694357718261 ], [ 76.871058810591805, 10.680957704550941 ], [ 76.882104957314425, 10.639107189076958 ], [ 76.814355257415713, 10.634996870592905 ], [ 76.810305003617415, 10.623786911090946 ], [ 76.817300896541738, 10.602861653353953 ], [ 76.838656780205469, 10.596135677652779 ], [ 76.835342936188681, 10.544569863943762 ], [ 76.843075238894514, 10.536722892292389 ], [ 76.81619628186948, 10.423128636005861 ], [ 76.833133706844151, 10.407434692703118 ], [ 76.823192174793803, 10.39473007193423 ], [ 76.848598312255817, 10.367452503812794 ], [ 76.833870116625661, 10.339053939741163 ], [ 76.832397297062641, 10.336064617207306 ], [ 76.81545987208797, 10.348395572659461 ], [ 76.80367731558384, 10.336064617207306 ], [ 76.753601450441323, 10.335690951890573 ], [ 76.763542982491671, 10.361100193428349 ], [ 76.71420352713065, 10.373057483563773 ], [ 76.686956365214868, 10.362968520012011 ], [ 76.661182022862093, 10.38538843901593 ], [ 76.65418612993777, 10.376794136731094 ], [ 76.623256919114453, 10.379036128631485 ], [ 76.58827745449284, 10.435085926141285 ], [ 76.558084653451019, 10.434338595507821 ], [ 76.52310518882939, 10.468715804647166 ], [ 76.473765733468383, 10.486278074533569 ], [ 76.440995498191285, 10.523644606206769 ], [ 76.431422171031684, 10.536722892292389 ], [ 76.438786268846755, 10.556153488762455 ], [ 76.401229369989863, 10.595388347019313 ], [ 76.412643721603231, 10.59464101638585 ], [ 76.428476531905659, 10.614071612855913 ], [ 76.417430385183039, 10.62640256830807 ], [ 76.423689868325852, 10.649196152628722 ], [ 76.450568825350885, 10.664142765298001 ], [ 76.440259088409775, 10.695530651903489 ], [ 76.456091898712188, 10.698893639754077 ], [ 76.477447782375918, 10.729907861042832 ], [ 76.468979069888576, 10.751206784096556 ], [ 76.396074501519308, 10.745601804345577 ], [ 76.380978100998405, 10.767648058032766 ], [ 76.364408880914482, 10.762416743598518 ], [ 76.353362734191862, 10.742238816494989 ], [ 76.288190468528427, 10.755690767897342 ], [ 76.251369979453045, 10.745975469662309 ], [ 76.243637676747213, 10.771758376516818 ], [ 76.190247967587894, 10.781473674751849 ], [ 76.205344368108811, 10.768021723349497 ], [ 76.203135138764281, 10.751206784096556 ], [ 76.191720787150913, 10.750085788146361 ], [ 76.171837723050203, 10.713466587106625 ], [ 76.165210035016642, 10.708235272672377 ], [ 76.163737215453622, 10.707114276722182 ], [ 76.162632600781365, 10.705993280771985 ], [ 76.157109527420047, 10.717576905590677 ], [ 76.157109527420047, 10.717950570907409 ], [ 76.15379568340326, 10.711598260522965 ], [ 76.132808004630292, 10.722434554708194 ], [ 76.122498267689181, 10.71047726457277 ], [ 76.096355720445658, 10.728413199775906 ], [ 76.069476763420624, 10.729534195726101 ], [ 76.069108558529877, 10.730281526359565 ] ] ] } },
{ "type": "Feature", "properties": { "dt_code": "594", "district": "Thrissur", "st_code": "32", "year": "2011_c", "st_nm": "Kerala" }, "geometry": { "type": "MultiPolygon", "coordinates": [ [ [ [ 75.957174271740698, 10.685441688351725 ], [ 75.980371179858196, 10.690299337469241 ], [ 75.982948614093473, 10.686936349618653 ], [ 76.012036800463022, 10.690673002785974 ], [ 76.024555766748662, 10.698893639754077 ], [ 76.051434723773696, 10.704498619505058 ], [ 76.065058304731579, 10.724676546608585 ], [ 76.066899329185347, 10.723555550658389 ], [ 76.067635738966857, 10.728786865092637 ], [ 76.068740353639114, 10.730281526359565 ], [ 76.069108558529877, 10.730281526359565 ], [ 76.069476763420624, 10.729534195726101 ], [ 76.096355720445658, 10.728413199775906 ], [ 76.122498267689181, 10.71047726457277 ], [ 76.132808004630292, 10.722434554708194 ], [ 76.15379568340326, 10.711598260522965 ], [ 76.157109527420047, 10.717950570907409 ], [ 76.157109527420047, 10.717576905590677 ], [ 76.162632600781365, 10.705993280771985 ], [ 76.163737215453622, 10.707114276722182 ], [ 76.165210035016642, 10.708235272672377 ], [ 76.171837723050203, 10.713466587106625 ], [ 76.191720787150913, 10.750085788146361 ], [ 76.203135138764281, 10.751206784096556 ], [ 76.205344368108811, 10.768021723349497 ], [ 76.190247967587894, 10.781473674751849 ], [ 76.243637676747213, 10.771758376516818 ], [ 76.251369979453045, 10.745975469662309 ], [ 76.288190468528427, 10.755690767897342 ], [ 76.353362734191862, 10.742238816494989 ], [ 76.364408880914482, 10.762416743598518 ], [ 76.380978100998405, 10.767648058032766 ], [ 76.396074501519308, 10.745601804345577 ], [ 76.468979069888576, 10.751206784096556 ], [ 76.477447782375918, 10.729907861042832 ], [ 76.456091898712188, 10.698893639754077 ], [ 76.440259088409775, 10.695530651903489 ], [ 76.450568825350885, 10.664142765298001 ], [ 76.423689868325852, 10.649196152628722 ], [ 76.417430385183039, 10.62640256830807 ], [ 76.428476531905659, 10.614071612855913 ], [ 76.412643721603231, 10.59464101638585 ], [ 76.401229369989863, 10.595388347019313 ], [ 76.438786268846755, 10.556153488762455 ], [ 76.431422171031684, 10.536722892292389 ], [ 76.440995498191285, 10.523644606206769 ], [ 76.473765733468383, 10.486278074533569 ], [ 76.52310518882939, 10.468715804647166 ], [ 76.558084653451019, 10.434338595507821 ], [ 76.58827745449284, 10.435085926141285 ], [ 76.623256919114453, 10.379036128631485 ], [ 76.65418612993777, 10.376794136731094 ], [ 76.661182022862093, 10.38538843901593 ], [ 76.686956365214868, 10.362968520012011 ], [ 76.71420352713065, 10.373057483563773 ], [ 76.763542982491671, 10.361100193428349 ], [ 76.753601450441323, 10.335690951890573 ], [ 76.80367731558384, 10.336064617207306 ], [ 76.81545987208797, 10.348395572659461 ], [ 76.832397297062641, 10.336064617207306 ], [ 76.833870116625661, 10.339053939741163 ], [ 76.837183960642449, 10.337185613157502 ], [ 76.835342936188681, 10.32747031492247 ], [ 76.828347043264358, 10.307292387818942 ], [ 76.830188067718126, 10.305050395918549 ], [ 76.848598312255817, 10.284498803498289 ], [ 76.873268039936335, 10.29757708958391 ], [ 76.873268039936335, 10.275530835896722 ], [ 76.891678284474025, 10.259463227277246 ], [ 76.87621367906236, 10.266562868295154 ], [ 76.860012663869185, 10.273662509313063 ], [ 76.840129599768474, 10.28263047691463 ], [ 76.835342936188681, 10.279267489064042 ], [ 76.809200388945158, 10.285246134131754 ], [ 76.80515013514686, 10.283751472864825 ], [ 76.803309110693093, 10.284498803498289 ], [ 76.768329646071479, 10.268057529562082 ], [ 76.746973762407748, 10.277772827797113 ], [ 76.695425077702211, 10.26394721107803 ], [ 76.661550227752855, 10.280014819697506 ], [ 76.621047689769924, 10.27328884399633 ], [ 76.576863102879457, 10.302434738701425 ], [ 76.576863102879457, 10.302061073384694 ], [ 76.566185161047599, 10.293466771099858 ], [ 76.573549258862684, 10.284498803498289 ], [ 76.554402604543469, 10.28263047691463 ], [ 76.415221155838509, 10.293466771099858 ], [ 76.391287837939515, 10.25460557815973 ], [ 76.339002743452468, 10.230317332572151 ], [ 76.330534030965126, 10.208644744201694 ], [ 76.310650966864415, 10.204908091034374 ], [ 76.311755581536673, 10.181740841396991 ], [ 76.301077639704815, 10.184730163930846 ], [ 76.298132000578789, 10.179125184179867 ], [ 76.273830477789033, 10.174641200379082 ], [ 76.260575101721884, 10.200424107233591 ], [ 76.259838691940374, 10.201545103183786 ], [ 76.219704358848205, 10.206402752301301 ], [ 76.21381308059614, 10.193324466215682 ], [ 76.163000805672112, 10.18360916798065 ], [ 76.100405974243955, 10.381651785848611 ], [ 75.957174271740698, 10.685441688351725 ] ] ], [ [ [ 76.898674177398348, 10.253484582209534 ], [ 76.900515201852116, 10.251616255625875 ], [ 76.899778792070606, 10.251989920942606 ], [ 76.898674177398348, 10.253484582209534 ] ] ] ] } },
{ "type": "Feature", "properties": { "dt_code": "596", "district": "Idukki", "st_code": "32", "year": "2011_c", "st_nm": "Kerala" }, "geometry": { "type": "Polygon", "coordinates": [ [ [ 77.048901772825928, 10.260957888544175 ], [ 77.050742797279696, 10.266562868295154 ], [ 77.052952026624212, 10.272167848046134 ], [ 77.043746904355373, 10.284125138181558 ], [ 77.094190974388653, 10.311029040986263 ], [ 77.095663793951672, 10.30878704908587 ], [ 77.133220692808564, 10.331954298723254 ], [ 77.180719123715804, 10.357737205577761 ], [ 77.23521344754738, 10.352879556460245 ], [ 77.227481144841548, 10.316634020737242 ], [ 77.263565224135434, 10.26394721107803 ], [ 77.259146765446388, 10.230317332572151 ], [ 77.284552902908402, 10.23218565915581 ], [ 77.288234951815937, 10.23218565915581 ], [ 77.29523084474026, 10.218360042436727 ], [ 77.274611370858054, 10.185103829247577 ], [ 77.267615477933717, 10.123449051986798 ], [ 77.267247273042969, 10.122328056036602 ], [ 77.240368316017936, 10.130175027687974 ], [ 77.207229875850089, 10.118591402869281 ], [ 77.206861670959341, 10.11821773755255 ], [ 77.203916031833302, 10.08832451221399 ], [ 77.263933429026181, 10.029285392170333 ], [ 77.254728306757343, 10.012470452917395 ], [ 77.265038043698439, 10.00424981594929 ], [ 77.272770346404272, 9.964267627058966 ], [ 77.246627799160748, 9.951936671606811 ], [ 77.218276022572709, 9.904854841698578 ], [ 77.220853456807987, 9.885050579911782 ], [ 77.212384744320644, 9.877577273577142 ], [ 77.23742267689191, 9.852168032039366 ], [ 77.223062686152502, 9.845442056338189 ], [ 77.221958071480245, 9.82302213733427 ], [ 77.241104725799445, 9.816296161633094 ], [ 77.246627799160748, 9.798360226429958 ], [ 77.222694481261755, 9.788271262878194 ], [ 77.232636013312103, 9.769214331724863 ], [ 77.220117047026477, 9.744926086137282 ], [ 77.223799095934012, 9.730353138784734 ], [ 77.203547826942554, 9.722132501816631 ], [ 77.206861670959341, 9.694854933695193 ], [ 77.180719123715804, 9.657862067338726 ], [ 77.17740527969903, 9.648520434420426 ], [ 77.167463747648668, 9.612648564014155 ], [ 77.169304772102436, 9.61190123338069 ], [ 77.208702695413109, 9.613395894647619 ], [ 77.234108832875123, 9.581634342725398 ], [ 77.269824707278246, 9.573040040440562 ], [ 77.317691343076248, 9.60255960046239 ], [ 77.329842104471126, 9.599196612611802 ], [ 77.325423645782081, 9.580139681458471 ], [ 77.339415431630727, 9.573413705757295 ], [ 77.361139520185205, 9.602185935145659 ], [ 77.365926183765012, 9.596207290077947 ], [ 77.357457471277669, 9.594712628811019 ], [ 77.359666700622185, 9.577524024241347 ], [ 77.350093373462585, 9.56706139537285 ], [ 77.365189773983502, 9.552862113337035 ], [ 77.365189773983502, 9.54650980295259 ], [ 77.385072838084213, 9.519232234831154 ], [ 77.400537443495864, 9.527452871799259 ], [ 77.402746672840394, 9.524089883948671 ], [ 77.41232, 9.50914327127939 ], [ 77.399064623932858, 9.496438650510502 ], [ 77.392436935899283, 9.459445784154035 ], [ 77.376972330487618, 9.452719808452859 ], [ 77.369608232672547, 9.457951122887106 ], [ 77.363716954420482, 9.457577457570375 ], [ 77.358193881059179, 9.45122514718593 ], [ 77.341624660975256, 9.423947579064494 ], [ 77.339783636521474, 9.419837260580444 ], [ 77.339783636521474, 9.420210925897175 ], [ 77.339783636521474, 9.419837260580444 ], [ 77.339783636521474, 9.419837260580444 ], [ 77.339415431630727, 9.408253635761751 ], [ 77.338310816958469, 9.373502761305675 ], [ 77.336469792504701, 9.364908459020839 ], [ 77.325055440891333, 9.33725722558267 ], [ 77.300017508320067, 9.336883560265939 ], [ 77.299281098538557, 9.311100653411431 ], [ 77.281975468673124, 9.298769697959274 ], [ 77.282711878454634, 9.273360456421498 ], [ 77.248837028505278, 9.289801730357707 ], [ 77.237054472001148, 9.282702089339798 ], [ 77.224535505715522, 9.296154040742151 ], [ 77.245891389379238, 9.381723398273779 ], [ 77.236318062219638, 9.399285668160182 ], [ 77.221589866589483, 9.425815905648154 ], [ 77.209070900303857, 9.448235824652075 ], [ 77.208702695413109, 9.448609489968806 ], [ 77.183664762841843, 9.454214469719787 ], [ 77.181087328606566, 9.472150404922923 ], [ 77.168568362320926, 9.461687776054427 ], [ 77.15457657647228, 9.471029408972727 ], [ 77.135061717262332, 9.45869845352057 ], [ 77.101923277094485, 9.468040086438871 ], [ 77.08572226190131, 9.46056678010423 ], [ 77.060684329330044, 9.447114828701878 ], [ 77.065839197800599, 9.417221603363318 ], [ 77.010240259296765, 9.408627301078482 ], [ 77.009503849515255, 9.408627301078482 ], [ 77.009872054406017, 9.409000966395215 ], [ 77.017236152221088, 9.441509848950899 ], [ 76.968633106641576, 9.463929767954818 ], [ 76.973419770221383, 9.465798094538478 ], [ 76.982256687599474, 9.469161082389066 ], [ 76.977470024019667, 9.497559646460699 ], [ 76.961269008826505, 9.508769605962659 ], [ 76.949854657213137, 9.489339009492594 ], [ 76.903460840978141, 9.520726896098083 ], [ 76.900515201852116, 9.537541835351023 ], [ 76.885418801331213, 9.539410161934683 ], [ 76.881736752423663, 9.580139681458471 ], [ 76.894992128490813, 9.58574466120945 ], [ 76.892046489364773, 9.629837168583826 ], [ 76.902356226305884, 9.633573821751146 ], [ 76.929235183330917, 9.614143225281083 ], [ 76.93475825669222, 9.620869200982259 ], [ 76.917820831717549, 9.643289119986179 ], [ 76.926657749095639, 9.653378083537943 ], [ 76.901988021415136, 9.676918998492059 ], [ 76.887628030675728, 9.716901187382383 ], [ 76.86664035190276, 9.734837122585517 ], [ 76.860380868759947, 9.729232142834539 ], [ 76.807727569382138, 9.788644928194927 ], [ 76.778639383012589, 9.807328194031527 ], [ 76.753969655332071, 9.816669826949827 ], [ 76.742187098827955, 9.803591540864206 ], [ 76.685483545651849, 9.836847754053354 ], [ 76.679960472290546, 9.839089745953746 ], [ 76.646085622341189, 9.839837076587211 ], [ 76.627675377803499, 9.850673370772439 ], [ 76.628779992475756, 9.854036358623027 ], [ 76.629516402257266, 9.856652015840151 ], [ 76.632093836492544, 9.863377991541327 ], [ 76.631725631601796, 9.898502531314135 ], [ 76.629148197366519, 9.912701813349951 ], [ 76.631357426711034, 9.913822809300147 ], [ 76.634671270727821, 9.914943805250342 ], [ 76.648294851685719, 9.920548785001323 ], [ 76.681065086962803, 9.911580817399754 ], [ 76.697634307046727, 9.910459821449559 ], [ 76.698370716828236, 9.911207152083023 ], [ 76.684747135870353, 9.923538107535178 ], [ 76.724145059181012, 9.956420655407594 ], [ 76.712362502676882, 9.972861929343802 ], [ 76.716412756475179, 9.985192884795959 ], [ 76.745500942844728, 9.991171529863671 ], [ 76.765752211836201, 9.980708900995173 ], [ 76.764279392273181, 10.009854795700271 ], [ 76.783057841701634, 10.035264037238047 ], [ 76.824664994356823, 10.012844118234126 ], [ 76.839393189986978, 10.024427743052819 ], [ 76.795945012878022, 10.041990012939221 ], [ 76.769434260743736, 10.066278258526802 ], [ 76.822455765012293, 10.062541605359481 ], [ 76.814723462306461, 10.081972201829545 ], [ 76.826874223701338, 10.088698177530722 ], [ 76.86443112255823, 10.073004234227978 ], [ 76.86664035190276, 10.094676822598434 ], [ 76.926657749095639, 10.178377853546403 ], [ 76.988516170742287, 10.160441918343267 ], [ 77.023863840254663, 10.179498849496598 ], [ 77.024600250036173, 10.179498849496598 ], [ 77.07393970539718, 10.176883192279474 ], [ 77.089036105918098, 10.184730163930846 ], [ 77.064366378237594, 10.212381397369015 ], [ 77.033437167414263, 10.208271078884962 ], [ 77.01539512776732, 10.222470360920777 ], [ 77.057738690204019, 10.240032630807182 ], [ 77.050374592388934, 10.261705219177639 ], [ 77.048901772825928, 10.260957888544175 ] ] ] } },
{ "type": "Feature", "properties": { "dt_code": "595", "district": "Ernakulam", "st_code": "32", "year": "2011_c", "st_nm": "Kerala" }, "geometry": { "type": "Polygon", "coordinates": [ [ [ 76.21381308059614, 10.193324466215682 ], [ 76.219704358848205, 10.206402752301301 ], [ 76.259838691940374, 10.201545103183786 ], [ 76.260575101721884, 10.200424107233591 ], [ 76.273830477789033, 10.174641200379082 ], [ 76.298132000578789, 10.179125184179867 ], [ 76.301077639704815, 10.184730163930846 ], [ 76.311755581536673, 10.181740841396991 ], [ 76.310650966864415, 10.204908091034374 ], [ 76.330534030965126, 10.208644744201694 ], [ 76.339002743452468, 10.230317332572151 ], [ 76.391287837939515, 10.25460557815973 ], [ 76.415221155838509, 10.293466771099858 ], [ 76.554402604543469, 10.28263047691463 ], [ 76.573549258862684, 10.284498803498289 ], [ 76.566185161047599, 10.293466771099858 ], [ 76.576863102879457, 10.302061073384694 ], [ 76.576863102879457, 10.302434738701425 ], [ 76.621047689769924, 10.27328884399633 ], [ 76.661550227752855, 10.280014819697506 ], [ 76.695425077702211, 10.26394721107803 ], [ 76.746973762407748, 10.277772827797113 ], [ 76.768329646071479, 10.268057529562082 ], [ 76.803309110693093, 10.284498803498289 ], [ 76.80515013514686, 10.283751472864825 ], [ 76.809200388945158, 10.285246134131754 ], [ 76.835342936188681, 10.279267489064042 ], [ 76.840129599768474, 10.28263047691463 ], [ 76.860012663869185, 10.273662509313063 ], [ 76.87621367906236, 10.266562868295154 ], [ 76.891678284474025, 10.259463227277246 ], [ 76.895728538272309, 10.257968566010318 ], [ 76.898674177398348, 10.253484582209534 ], [ 76.899778792070606, 10.251989920942606 ], [ 76.910088529011716, 10.237790638906789 ], [ 76.911929553465484, 10.234427651056201 ], [ 76.912297758356232, 10.234427651056201 ], [ 76.939544920272027, 10.238164304223522 ], [ 76.981888482708726, 10.219481038386922 ], [ 77.048533567935166, 10.259463227277246 ], [ 77.048901772825928, 10.260957888544175 ], [ 77.050374592388934, 10.261705219177639 ], [ 77.057738690204019, 10.240032630807182 ], [ 77.01539512776732, 10.222470360920777 ], [ 77.033437167414263, 10.208271078884962 ], [ 77.064366378237594, 10.212381397369015 ], [ 77.089036105918098, 10.184730163930846 ], [ 77.07393970539718, 10.176883192279474 ], [ 77.024600250036173, 10.179498849496598 ], [ 77.023863840254663, 10.179498849496598 ], [ 76.988516170742287, 10.160441918343267 ], [ 76.926657749095639, 10.178377853546403 ], [ 76.86664035190276, 10.094676822598434 ], [ 76.86443112255823, 10.073004234227978 ], [ 76.826874223701338, 10.088698177530722 ], [ 76.814723462306461, 10.081972201829545 ], [ 76.822455765012293, 10.062541605359481 ], [ 76.769434260743736, 10.066278258526802 ], [ 76.795945012878022, 10.041990012939221 ], [ 76.839393189986978, 10.024427743052819 ], [ 76.824664994356823, 10.012844118234126 ], [ 76.783057841701634, 10.035264037238047 ], [ 76.764279392273181, 10.009854795700271 ], [ 76.765752211836201, 9.980708900995173 ], [ 76.745500942844728, 9.991171529863671 ], [ 76.716412756475179, 9.985192884795959 ], [ 76.712362502676882, 9.972861929343802 ], [ 76.724145059181012, 9.956420655407594 ], [ 76.684747135870353, 9.923538107535178 ], [ 76.698370716828236, 9.911207152083023 ], [ 76.697634307046727, 9.910459821449559 ], [ 76.681065086962803, 9.911580817399754 ], [ 76.648294851685719, 9.920548785001323 ], [ 76.634671270727821, 9.914943805250342 ], [ 76.631357426711034, 9.913822809300147 ], [ 76.629148197366519, 9.912701813349951 ], [ 76.631725631601796, 9.898502531314135 ], [ 76.632093836492544, 9.863377991541327 ], [ 76.629516402257266, 9.856652015840151 ], [ 76.628779992475756, 9.854036358623027 ], [ 76.626202558240479, 9.855904685206687 ], [ 76.621784099551434, 9.855157354573223 ], [ 76.611842567501085, 9.851794366722634 ], [ 76.616629231080879, 9.836847754053354 ], [ 76.579808742005497, 9.842826399121066 ], [ 76.580176946896245, 9.821527476067342 ], [ 76.561030292577044, 9.820032814800415 ], [ 76.555507219215741, 9.800975883647082 ], [ 76.547774916509908, 9.800228553013618 ], [ 76.546302096946889, 9.800228553013618 ], [ 76.545933892056141, 9.800228553013618 ], [ 76.539306204022566, 9.820780145433879 ], [ 76.520159549703365, 9.82302213733427 ], [ 76.50616776385472, 9.849926040138975 ], [ 76.473765733468383, 9.84170540317087 ], [ 76.457564718275208, 9.847684048238582 ], [ 76.414116541166251, 9.822274806700806 ], [ 76.388342198813476, 9.844321060387994 ], [ 76.373982208074082, 9.837595084686818 ], [ 76.372877593401824, 9.836847754053354 ], [ 76.353362734191862, 9.883929583961587 ], [ 76.332375055418893, 9.877950938893875 ], [ 76.297395590797279, 9.889160898395835 ], [ 76.297395590797279, 9.85291536267283 ], [ 76.285981239183911, 9.849552374822242 ], [ 76.280826370713356, 9.829000782401982 ], [ 76.290399697872957, 9.809943851248651 ], [ 76.279353551150336, 9.789392258828391 ], [ 76.283772009839382, 9.751278396521727 ], [ 76.237746398495148, 9.956794320724326 ], [ 76.240692037621173, 9.982203562262102 ], [ 76.220808973520477, 9.999018501515042 ], [ 76.16778746925192, 10.181740841396991 ], [ 76.21381308059614, 10.193324466215682 ] ] ] } },
{ "type": "Feature", "properties": { "dt_code": "598", "district": "Alappuzha", "st_code": "32", "year": "2011_c", "st_nm": "Kerala" }, "geometry": { "type": "Polygon", "coordinates": [ [ [ 76.279353551150336, 9.789392258828391 ], [ 76.290399697872957, 9.809943851248651 ], [ 76.280826370713356, 9.829000782401982 ], [ 76.285981239183911, 9.849552374822242 ], [ 76.297395590797279, 9.85291536267283 ], [ 76.297395590797279, 9.889160898395835 ], [ 76.332375055418893, 9.877950938893875 ], [ 76.353362734191862, 9.883929583961587 ], [ 76.372877593401824, 9.836847754053354 ], [ 76.380978100998405, 9.820032814800415 ], [ 76.365145290695992, 9.79312891199571 ], [ 76.380978100998405, 9.751278396521727 ], [ 76.37582323252785, 9.697470590912319 ], [ 76.402702189552883, 9.685886966093626 ], [ 76.392024247721025, 9.547630798902787 ], [ 76.414116541166251, 9.563324742205531 ], [ 76.426267302561129, 9.549872790803178 ], [ 76.46603343076255, 9.561830080938602 ], [ 76.465297020981041, 9.54239948446854 ], [ 76.479288806829686, 9.537541835351023 ], [ 76.480393421501944, 9.507648610012463 ], [ 76.509113402980745, 9.496812315827235 ], [ 76.495121617132099, 9.443751840851291 ], [ 76.495121617132099, 9.443751840851291 ], [ 76.511322632325275, 9.436278534516651 ], [ 76.506535968745467, 9.40451698259443 ], [ 76.50616776385472, 9.403395986644234 ], [ 76.506535968745467, 9.403395986644234 ], [ 76.5142682714513, 9.400780329427111 ], [ 76.509113402980745, 9.376865749156263 ], [ 76.509113402980745, 9.376865749156263 ], [ 76.509113402980745, 9.376865749156263 ], [ 76.509113402980745, 9.37649208383953 ], [ 76.522736983938643, 9.365655789654303 ], [ 76.522368779047895, 9.36528212433757 ], [ 76.51647750079583, 9.352951168885415 ], [ 76.482970855737221, 9.34473053191731 ], [ 76.473397528577621, 9.331652245831691 ], [ 76.474870348140641, 9.331278580514958 ], [ 76.482602650846474, 9.328289257981103 ], [ 76.499908280711907, 9.322310612913391 ], [ 76.549984145854424, 9.323805274180319 ], [ 76.559557473014024, 9.342862205333651 ], [ 76.549984145854424, 9.350709176985022 ], [ 76.566553365938347, 9.355566826102539 ], [ 76.641298958761396, 9.340246548116527 ], [ 76.635039475618569, 9.326420931397443 ], [ 76.653449720156274, 9.291670056941367 ], [ 76.674805603819991, 9.291296391624634 ], [ 76.681065086962803, 9.278965436172479 ], [ 76.656027154391538, 9.264018823503198 ], [ 76.658604588626815, 9.243467231082938 ], [ 76.639826139198377, 9.233004602214443 ], [ 76.647190237013447, 9.206848030043203 ], [ 76.689902004340894, 9.176207474071179 ], [ 76.674437398929243, 9.168360502419807 ], [ 76.674069194038481, 9.153413889750526 ], [ 76.639089729416867, 9.148556240633011 ], [ 76.637248704963099, 9.148556240633011 ], [ 76.636512295181589, 9.144072256832228 ], [ 76.633934860946312, 9.139588273031443 ], [ 76.633934860946312, 9.141082934298371 ], [ 76.591959503400375, 9.13136763606334 ], [ 76.58459540558529, 9.11679468871079 ], [ 76.558821063232529, 9.109695047692883 ], [ 76.542251843148605, 9.135851619864123 ], [ 76.510586222543765, 9.136598950497588 ], [ 76.502117510056422, 9.134730623913928 ], [ 76.50616776385472, 9.124641660362164 ], [ 76.478184192157428, 9.123146999095235 ], [ 76.478184192157428, 9.122399668461771 ], [ 76.477447782375918, 9.122399668461771 ], [ 76.486652904644771, 9.08690146337223 ], [ 76.348207865721307, 9.387328378024758 ], [ 76.320224294024015, 9.482613033791418 ], [ 76.279353551150336, 9.789392258828391 ] ] ] } },
{ "type": "Feature", "properties": { "dt_code": "597", "district": "Kottayam", "st_code": "32", "year": "2011_c", "st_nm": "Kerala" }, "geometry": { "type": "Polygon", "coordinates": [ [ [ 76.628779992475756, 9.854036358623027 ], [ 76.627675377803499, 9.850673370772439 ], [ 76.646085622341189, 9.839837076587211 ], [ 76.679960472290546, 9.839089745953746 ], [ 76.685483545651849, 9.836847754053354 ], [ 76.742187098827955, 9.803591540864206 ], [ 76.753969655332071, 9.816669826949827 ], [ 76.778639383012589, 9.807328194031527 ], [ 76.807727569382138, 9.788644928194927 ], [ 76.860380868759947, 9.729232142834539 ], [ 76.86664035190276, 9.734837122585517 ], [ 76.887628030675728, 9.716901187382383 ], [ 76.901988021415136, 9.676918998492059 ], [ 76.926657749095639, 9.653378083537943 ], [ 76.917820831717549, 9.643289119986179 ], [ 76.93475825669222, 9.620869200982259 ], [ 76.929235183330917, 9.614143225281083 ], [ 76.902356226305884, 9.633573821751146 ], [ 76.892046489364773, 9.629837168583826 ], [ 76.894992128490813, 9.58574466120945 ], [ 76.881736752423663, 9.580139681458471 ], [ 76.885418801331213, 9.539410161934683 ], [ 76.900515201852116, 9.537541835351023 ], [ 76.903460840978141, 9.520726896098083 ], [ 76.949854657213137, 9.489339009492594 ], [ 76.961269008826505, 9.508769605962659 ], [ 76.977470024019667, 9.497559646460699 ], [ 76.982256687599474, 9.469161082389066 ], [ 76.973419770221383, 9.465798094538478 ], [ 76.962741828389525, 9.464303433271551 ], [ 76.94433158385182, 9.447862159335342 ], [ 76.939913125162775, 9.444872836801487 ], [ 76.939913125162775, 9.444125506168023 ], [ 76.942490559398053, 9.429552558815475 ], [ 76.952800296339163, 9.435157538566454 ], [ 76.984097712053241, 9.423573913747763 ], [ 76.92444851975111, 9.414979611462927 ], [ 76.924080314860362, 9.415353276779658 ], [ 76.853753180726372, 9.456830126936911 ], [ 76.848598312255817, 9.444872836801487 ], [ 76.832397297062641, 9.451598812502663 ], [ 76.823192174793803, 9.445246502118218 ], [ 76.799995266676305, 9.458324788203839 ], [ 76.765015802054691, 9.436278534516651 ], [ 76.748446581970768, 9.451598812502663 ], [ 76.74586914773549, 9.473645066189851 ], [ 76.708312248878599, 9.453467139086323 ], [ 76.700211741282004, 9.476260723406975 ], [ 76.675910218492248, 9.484107695058347 ], [ 76.642403573433654, 9.478502715307366 ], [ 76.635039475618569, 9.462061441371159 ], [ 76.626938968021989, 9.471029408972727 ], [ 76.625834353349731, 9.461314110737694 ], [ 76.591591298509613, 9.448235824652075 ], [ 76.593064118072633, 9.412363954245803 ], [ 76.578704127333225, 9.421705587164103 ], [ 76.559189268123276, 9.410869292978875 ], [ 76.553297989871211, 9.424321244381227 ], [ 76.51574109101432, 9.407132639811554 ], [ 76.5142682714513, 9.400780329427111 ], [ 76.506535968745467, 9.403395986644234 ], [ 76.50616776385472, 9.403395986644234 ], [ 76.506535968745467, 9.40451698259443 ], [ 76.511322632325275, 9.436278534516651 ], [ 76.495121617132099, 9.443751840851291 ], [ 76.495121617132099, 9.443751840851291 ], [ 76.509113402980745, 9.496812315827235 ], [ 76.480393421501944, 9.507648610012463 ], [ 76.479288806829686, 9.537541835351023 ], [ 76.465297020981041, 9.54239948446854 ], [ 76.46603343076255, 9.561830080938602 ], [ 76.426267302561129, 9.549872790803178 ], [ 76.414116541166251, 9.563324742205531 ], [ 76.392024247721025, 9.547630798902787 ], [ 76.402702189552883, 9.685886966093626 ], [ 76.37582323252785, 9.697470590912319 ], [ 76.380978100998405, 9.751278396521727 ], [ 76.365145290695992, 9.79312891199571 ], [ 76.380978100998405, 9.820032814800415 ], [ 76.372877593401824, 9.836847754053354 ], [ 76.373982208074082, 9.837595084686818 ], [ 76.388342198813476, 9.844321060387994 ], [ 76.414116541166251, 9.822274806700806 ], [ 76.457564718275208, 9.847684048238582 ], [ 76.473765733468383, 9.84170540317087 ], [ 76.50616776385472, 9.849926040138975 ], [ 76.520159549703365, 9.82302213733427 ], [ 76.539306204022566, 9.820780145433879 ], [ 76.545933892056141, 9.800228553013618 ], [ 76.546302096946889, 9.800228553013618 ], [ 76.547774916509908, 9.800228553013618 ], [ 76.555507219215741, 9.800975883647082 ], [ 76.561030292577044, 9.820032814800415 ], [ 76.580176946896245, 9.821527476067342 ], [ 76.579808742005497, 9.842826399121066 ], [ 76.616629231080879, 9.836847754053354 ], [ 76.611842567501085, 9.851794366722634 ], [ 76.621784099551434, 9.855157354573223 ], [ 76.626202558240479, 9.855904685206687 ], [ 76.628779992475756, 9.854036358623027 ] ] ] } },
{ "type": "Feature", "properties": { "dt_code": "599", "district": "Pathanamthitta", "st_code": "32", "year": "2011_c", "st_nm": "Kerala" }, "geometry": { "type": "Polygon", "coordinates": [ [ [ 76.973419770221383, 9.465798094538478 ], [ 76.968633106641576, 9.463929767954818 ], [ 77.017236152221088, 9.441509848950899 ], [ 77.009872054406017, 9.409000966395215 ], [ 77.009503849515255, 9.408627301078482 ], [ 77.010240259296765, 9.408627301078482 ], [ 77.065839197800599, 9.417221603363318 ], [ 77.060684329330044, 9.447114828701878 ], [ 77.08572226190131, 9.46056678010423 ], [ 77.101923277094485, 9.468040086438871 ], [ 77.135061717262332, 9.45869845352057 ], [ 77.15457657647228, 9.471029408972727 ], [ 77.168568362320926, 9.461687776054427 ], [ 77.181087328606566, 9.472150404922923 ], [ 77.183664762841843, 9.454214469719787 ], [ 77.208702695413109, 9.448609489968806 ], [ 77.209070900303857, 9.448235824652075 ], [ 77.221589866589483, 9.425815905648154 ], [ 77.236318062219638, 9.399285668160182 ], [ 77.245891389379238, 9.381723398273779 ], [ 77.224535505715522, 9.296154040742151 ], [ 77.237054472001148, 9.282702089339798 ], [ 77.248837028505278, 9.289801730357707 ], [ 77.282711878454634, 9.273360456421498 ], [ 77.281975468673124, 9.298769697959274 ], [ 77.288603156706699, 9.274107787054962 ], [ 77.275347780639549, 9.234872928798103 ], [ 77.282343673563872, 9.216936993594967 ], [ 77.252519077412813, 9.189659425473531 ], [ 77.264301633916944, 9.186296437622943 ], [ 77.267983682824479, 9.153413889750526 ], [ 77.24699600405151, 9.123894329728699 ], [ 77.212016539429882, 9.099979749457852 ], [ 77.204284236724064, 9.072328516019683 ], [ 77.203916031833302, 9.071207520069487 ], [ 77.10707814556504, 9.09400110439014 ], [ 77.057370485313257, 9.11679468871079 ], [ 77.054056641296484, 9.126883652262554 ], [ 77.018708971784108, 9.129872974796411 ], [ 76.930339798003175, 9.173965482170788 ], [ 76.926289544204892, 9.139214607714711 ], [ 76.960164394154248, 9.130246640113143 ], [ 76.94801363275937, 9.117168354027523 ], [ 76.897937767616838, 9.130620305429876 ], [ 76.884682391549703, 9.122399668461771 ], [ 76.87547726928085, 9.13136763606334 ], [ 76.841970624222256, 9.092132777806478 ], [ 76.783426046592382, 9.114179031493666 ], [ 76.765384006945439, 9.094748435023604 ], [ 76.770907080306756, 9.074944173236807 ], [ 76.770907080306756, 9.074570507920075 ], [ 76.767961441180717, 9.074196842603342 ], [ 76.759124523802626, 9.072702181336416 ], [ 76.758388114021116, 9.072702181336416 ], [ 76.753969655332071, 9.088396124639159 ], [ 76.746237352626238, 9.079801822354323 ], [ 76.691006619013166, 9.090264451222819 ], [ 76.674069194038481, 9.07755983045393 ], [ 76.672964579366223, 9.114926362127131 ], [ 76.66449586687888, 9.116421023394059 ], [ 76.652345105484002, 9.113805366176935 ], [ 76.635775885400079, 9.121652337828307 ], [ 76.633566656055564, 9.122773333778502 ], [ 76.633198451164802, 9.122773333778502 ], [ 76.633566656055564, 9.12613632162909 ], [ 76.633934860946312, 9.139588273031443 ], [ 76.636512295181589, 9.144072256832228 ], [ 76.637248704963099, 9.148556240633011 ], [ 76.639089729416867, 9.148556240633011 ], [ 76.674069194038481, 9.153413889750526 ], [ 76.674437398929243, 9.168360502419807 ], [ 76.689902004340894, 9.176207474071179 ], [ 76.647190237013447, 9.206848030043203 ], [ 76.639826139198377, 9.233004602214443 ], [ 76.658604588626815, 9.243467231082938 ], [ 76.656027154391538, 9.264018823503198 ], [ 76.681065086962803, 9.278965436172479 ], [ 76.674805603819991, 9.291296391624634 ], [ 76.653449720156274, 9.291670056941367 ], [ 76.635039475618569, 9.326420931397443 ], [ 76.641298958761396, 9.340246548116527 ], [ 76.566553365938347, 9.355566826102539 ], [ 76.549984145854424, 9.350709176985022 ], [ 76.559557473014024, 9.342862205333651 ], [ 76.549984145854424, 9.323805274180319 ], [ 76.499908280711907, 9.322310612913391 ], [ 76.482602650846474, 9.328289257981103 ], [ 76.474870348140641, 9.331278580514958 ], [ 76.473397528577621, 9.331652245831691 ], [ 76.482970855737221, 9.34473053191731 ], [ 76.51647750079583, 9.352951168885415 ], [ 76.522368779047895, 9.36528212433757 ], [ 76.522736983938643, 9.365655789654303 ], [ 76.509113402980745, 9.37649208383953 ], [ 76.509113402980745, 9.376865749156263 ], [ 76.509113402980745, 9.376865749156263 ], [ 76.509113402980745, 9.376865749156263 ], [ 76.5142682714513, 9.400780329427111 ], [ 76.51574109101432, 9.407132639811554 ], [ 76.553297989871211, 9.424321244381227 ], [ 76.559189268123276, 9.410869292978875 ], [ 76.578704127333225, 9.421705587164103 ], [ 76.593064118072633, 9.412363954245803 ], [ 76.591591298509613, 9.448235824652075 ], [ 76.625834353349731, 9.461314110737694 ], [ 76.626938968021989, 9.471029408972727 ], [ 76.635039475618569, 9.462061441371159 ], [ 76.642403573433654, 9.478502715307366 ], [ 76.675910218492248, 9.484107695058347 ], [ 76.700211741282004, 9.476260723406975 ], [ 76.708312248878599, 9.453467139086323 ], [ 76.74586914773549, 9.473645066189851 ], [ 76.748446581970768, 9.451598812502663 ], [ 76.765015802054691, 9.436278534516651 ], [ 76.799995266676305, 9.458324788203839 ], [ 76.823192174793803, 9.445246502118218 ], [ 76.832397297062641, 9.451598812502663 ], [ 76.848598312255817, 9.444872836801487 ], [ 76.853753180726372, 9.456830126936911 ], [ 76.924080314860362, 9.415353276779658 ], [ 76.92444851975111, 9.414979611462927 ], [ 76.984097712053241, 9.423573913747763 ], [ 76.952800296339163, 9.435157538566454 ], [ 76.942490559398053, 9.429552558815475 ], [ 76.939913125162775, 9.444125506168023 ], [ 76.939913125162775, 9.444872836801487 ], [ 76.94433158385182, 9.447862159335342 ], [ 76.962741828389525, 9.464303433271551 ], [ 76.973419770221383, 9.465798094538478 ] ] ] } },
{ "type": "Feature", "properties": { "dt_code": "600", "district": "Kollam", "st_code": "32", "year": "2011_c", "st_nm": "Kerala" }, "geometry": { "type": "Polygon", "coordinates": [ [ [ 76.478184192157428, 9.122399668461771 ], [ 76.478184192157428, 9.123146999095235 ], [ 76.50616776385472, 9.124641660362164 ], [ 76.502117510056422, 9.134730623913928 ], [ 76.510586222543765, 9.136598950497588 ], [ 76.542251843148605, 9.135851619864123 ], [ 76.558821063232529, 9.109695047692883 ], [ 76.58459540558529, 9.11679468871079 ], [ 76.591959503400375, 9.13136763606334 ], [ 76.633934860946312, 9.141082934298371 ], [ 76.633934860946312, 9.139588273031443 ], [ 76.633566656055564, 9.12613632162909 ], [ 76.633198451164802, 9.122773333778502 ], [ 76.633566656055564, 9.122773333778502 ], [ 76.635775885400079, 9.121652337828307 ], [ 76.652345105484002, 9.113805366176935 ], [ 76.66449586687888, 9.116421023394059 ], [ 76.672964579366223, 9.114926362127131 ], [ 76.674069194038481, 9.07755983045393 ], [ 76.691006619013166, 9.090264451222819 ], [ 76.746237352626238, 9.079801822354323 ], [ 76.753969655332071, 9.088396124639159 ], [ 76.758388114021116, 9.072702181336416 ], [ 76.759124523802626, 9.072702181336416 ], [ 76.767961441180717, 9.074196842603342 ], [ 76.770907080306756, 9.074570507920075 ], [ 76.770907080306756, 9.074944173236807 ], [ 76.765384006945439, 9.094748435023604 ], [ 76.783426046592382, 9.114179031493666 ], [ 76.841970624222256, 9.092132777806478 ], [ 76.87547726928085, 9.13136763606334 ], [ 76.884682391549703, 9.122399668461771 ], [ 76.897937767616838, 9.130620305429876 ], [ 76.94801363275937, 9.117168354027523 ], [ 76.960164394154248, 9.130246640113143 ], [ 76.926289544204892, 9.139214607714711 ], [ 76.930339798003175, 9.173965482170788 ], [ 77.018708971784108, 9.129872974796411 ], [ 77.054056641296484, 9.126883652262554 ], [ 77.057370485313257, 9.11679468871079 ], [ 77.10707814556504, 9.09400110439014 ], [ 77.203916031833302, 9.071207520069487 ], [ 77.197288343799727, 9.046545609165175 ], [ 77.16709554275792, 9.045050947898247 ], [ 77.146844273766447, 9.021510032944132 ], [ 77.196183729127469, 8.954623941249103 ], [ 77.192869885110682, 8.926225377177472 ], [ 77.221221661698735, 8.927346373127667 ], [ 77.221221661698735, 8.904179123490284 ], [ 77.257305740992621, 8.875780559418651 ], [ 77.263933429026181, 8.842150680912772 ], [ 77.231899603530593, 8.807026141139964 ], [ 77.229322169295315, 8.783858891502579 ], [ 77.213121154102154, 8.778627577068331 ], [ 77.217171407900437, 8.768164948199836 ], [ 77.213489358992902, 8.768538613516567 ], [ 77.199497573144257, 8.770780605416959 ], [ 77.191028860656914, 8.772275266683888 ], [ 77.10707814556504, 8.829819725460615 ], [ 77.050374592388934, 8.845887334080091 ], [ 77.031964347851243, 8.842150680912772 ], [ 77.020549996237875, 8.816367774058264 ], [ 77.008031029952249, 8.811883790257479 ], [ 77.024600250036173, 8.774890923901012 ], [ 77.003244366372442, 8.771527936050424 ], [ 76.981152072927216, 8.78946387125356 ], [ 76.972683360439873, 8.774890923901012 ], [ 76.934390051801472, 8.760317976548464 ], [ 76.914506987700761, 8.774890923901012 ], [ 76.920766470843574, 8.784232556819312 ], [ 76.899778792070606, 8.808894467723624 ], [ 76.883945981768193, 8.803663153289376 ], [ 76.854489590507882, 8.813378451524407 ], [ 76.81619628186948, 8.858965620165712 ], [ 76.801099881348563, 8.848129325980484 ], [ 76.782689636810872, 8.861954942699567 ], [ 76.775325538995801, 8.843271676862967 ], [ 76.79410398842424, 8.827577733560224 ], [ 76.782689636810872, 8.818983431275388 ], [ 76.792262963970472, 8.813004786207674 ], [ 76.770907080306756, 8.810762794307283 ], [ 76.760229138474884, 8.790958532520488 ], [ 76.721567624945735, 8.802915822655912 ], [ 76.709048658660095, 8.790584867203755 ], [ 76.692111233685424, 8.790958532520488 ], [ 76.682537906525823, 8.777132915801403 ], [ 76.681801496744313, 8.776011919851207 ], [ 76.681433291853565, 8.775638254534476 ], [ 76.610369747938066, 8.859712950799175 ], [ 76.581649766459265, 8.880264543219436 ], [ 76.565816956156851, 8.879890877902703 ], [ 76.547774916509908, 8.902684462223355 ], [ 76.53562415511503, 8.934072348828844 ], [ 76.544092867602373, 8.936314340729234 ], [ 76.53562415511503, 8.936314340729234 ], [ 76.478184192157428, 9.122399668461771 ] ] ] } },
{ "type": "Feature", "properties": { "dt_code": "601", "district": "Thiruvananthapuram", "st_code": "32", "year": "2011_c", "st_nm": "Kerala" }, "geometry": { "type": "Polygon", "coordinates": [ [ [ 76.681801496744313, 8.776011919851207 ], [ 76.682537906525823, 8.777132915801403 ], [ 76.692111233685424, 8.790958532520488 ], [ 76.709048658660095, 8.790584867203755 ], [ 76.721567624945735, 8.802915822655912 ], [ 76.760229138474884, 8.790958532520488 ], [ 76.770907080306756, 8.810762794307283 ], [ 76.792262963970472, 8.813004786207674 ], [ 76.782689636810872, 8.818983431275388 ], [ 76.79410398842424, 8.827577733560224 ], [ 76.775325538995801, 8.843271676862967 ], [ 76.782689636810872, 8.861954942699567 ], [ 76.801099881348563, 8.848129325980484 ], [ 76.81619628186948, 8.858965620165712 ], [ 76.854489590507882, 8.813378451524407 ], [ 76.883945981768193, 8.803663153289376 ], [ 76.899778792070606, 8.808894467723624 ], [ 76.920766470843574, 8.784232556819312 ], [ 76.914506987700761, 8.774890923901012 ], [ 76.934390051801472, 8.760317976548464 ], [ 76.972683360439873, 8.774890923901012 ], [ 76.981152072927216, 8.78946387125356 ], [ 77.003244366372442, 8.771527936050424 ], [ 77.024600250036173, 8.774890923901012 ], [ 77.008031029952249, 8.811883790257479 ], [ 77.020549996237875, 8.816367774058264 ], [ 77.031964347851243, 8.842150680912772 ], [ 77.050374592388934, 8.845887334080091 ], [ 77.10707814556504, 8.829819725460615 ], [ 77.191028860656914, 8.772275266683888 ], [ 77.199497573144257, 8.770780605416959 ], [ 77.198761163362747, 8.769285944150031 ], [ 77.198024753581237, 8.769285944150031 ], [ 77.191397065547676, 8.742008376028595 ], [ 77.172618616119223, 8.749481682363236 ], [ 77.170041181883946, 8.742008376028595 ], [ 77.206861670959341, 8.684463917251868 ], [ 77.200970392707276, 8.669143639265855 ], [ 77.23447703776587, 8.62691945847514 ], [ 77.248468823614516, 8.621314478724159 ], [ 77.246259594270001, 8.603752208837756 ], [ 77.267615477933717, 8.579463963250175 ], [ 77.269456502387499, 8.578716632616711 ], [ 77.269824707278246, 8.57834296729998 ], [ 77.283816493126892, 8.546955080694492 ], [ 77.261724199681666, 8.506599226487436 ], [ 77.261724199681666, 8.506225561170703 ], [ 77.238895496454916, 8.496136597618939 ], [ 77.213489358992902, 8.512204206238415 ], [ 77.201338597598024, 8.500994246736456 ], [ 77.2271129399508, 8.446812775810315 ], [ 77.206125261177831, 8.44382345327646 ], [ 77.16783195253943, 8.383663337282607 ], [ 77.150526322673997, 8.384410667916072 ], [ 77.160836059615107, 8.373574373730843 ], [ 77.152367347127765, 8.354891107894243 ], [ 77.173723230791481, 8.358627761061564 ], [ 77.16635913297641, 8.342560152442088 ], [ 77.179614509043546, 8.323129555972024 ], [ 77.179614509043546, 8.322755890655293 ], [ 77.172986821009985, 8.31864557217124 ], [ 77.168568362320926, 8.332471188890324 ], [ 77.128802234119519, 8.324624217238952 ], [ 77.097873023296188, 8.292489 ], [ 76.986306941397771, 8.375816365631236 ], [ 76.959796189263486, 8.421777199589272 ], [ 76.699475331500494, 8.738645388178007 ], [ 76.681801496744313, 8.776011919851207 ] ] ] } },
{ "type": "Feature", "properties": { "dt_code": "589", "district": "Kannur", "st_code": "32", "year": "2011_c", "st_nm": "Kerala" }, "geometry": { "type": "Polygon", "coordinates": [ [ [ 75.16553375661988, 12.08967594863058 ], [ 75.1765799033425, 12.102006904082735 ], [ 75.187257845174358, 12.095654593698292 ], [ 75.187994254955868, 12.096401924331756 ], [ 75.191308098972655, 12.113590528901428 ], [ 75.187994254955868, 12.12891080688744 ], [ 75.196462967443196, 12.1401207663894 ], [ 75.17363426421646, 12.189444588198024 ], [ 75.203090655476771, 12.190565584148221 ], [ 75.232547046737082, 12.221206140120245 ], [ 75.252061905947031, 12.218590482903121 ], [ 75.289250599913174, 12.233163430255669 ], [ 75.287409575459407, 12.260440998377105 ], [ 75.298823927072775, 12.269408965978672 ], [ 75.345217743307771, 12.266793308761548 ], [ 75.391979764433515, 12.290334223715664 ], [ 75.414440262769489, 12.289960558398931 ], [ 75.414072057878741, 12.2895868930822 ], [ 75.484767396903479, 12.289960558398931 ], [ 75.539629925625803, 12.215601160369264 ], [ 75.53263403270148, 12.200654547699983 ], [ 75.552517096802191, 12.191686580098416 ], [ 75.577186824482709, 12.15693570564234 ], [ 75.592283225003612, 12.146846742090576 ], [ 75.619530386919394, 12.155814709692145 ], [ 75.636099607003331, 12.148341403357504 ], [ 75.648986778179705, 12.108732879783911 ], [ 75.661505744465344, 12.098643916232149 ], [ 75.703112897120533, 12.10835921446718 ], [ 75.702008282448261, 12.092291605847704 ], [ 75.717841092750689, 12.085565630146528 ], [ 75.714895453624649, 12.070619017477249 ], [ 75.753556967153813, 12.085565630146528 ], [ 75.80289642251482, 12.079586985078816 ], [ 75.79405950513673, 12.055672404807968 ], [ 75.79405950513673, 12.055298739491237 ], [ 75.794427710027492, 12.054551408857773 ], [ 75.801055398061052, 12.036989138971368 ], [ 75.822779486615531, 12.01307455870052 ], [ 75.829407174649106, 11.984675994628889 ], [ 75.847081009405287, 11.982060337411765 ], [ 75.869909712632037, 11.952167112073205 ], [ 75.936554797858477, 11.940957152571244 ], [ 75.939500436984517, 11.940583487254512 ], [ 75.9339773636232, 11.936099503453729 ], [ 75.926613265808129, 11.923768548001572 ], [ 75.929190700043407, 11.914800580400005 ], [ 75.936186592967729, 11.890138669495693 ], [ 75.911148660396464, 11.874071060876217 ], [ 75.931031724497174, 11.857629786940009 ], [ 75.926981470698877, 11.842309508953996 ], [ 75.808787700766885, 11.855761460356348 ], [ 75.790009251338446, 11.840814847687069 ], [ 75.797373349153517, 11.818021263366417 ], [ 75.797741554044279, 11.818021263366417 ], [ 75.796268734481259, 11.817647598049685 ], [ 75.772335416582251, 11.80195365474694 ], [ 75.79405950513673, 11.789622699294785 ], [ 75.765707728548691, 11.802700985380405 ], [ 75.746192869338728, 11.798217001579621 ], [ 75.753188762263051, 11.783644054227072 ], [ 75.728887239473295, 11.779533735743021 ], [ 75.716368273187669, 11.796348674995961 ], [ 75.691330340616403, 11.798590666896352 ], [ 75.66592420315439, 11.757861147372564 ], [ 75.587864766314567, 11.711900313414528 ], [ 75.600383732600193, 11.686117406560021 ], [ 75.569454521776876, 11.674533781741328 ], [ 75.553253506583701, 11.702558680496228 ], [ 75.53705249139054, 11.705548003030085 ], [ 75.53263403270148, 11.70666899898028 ], [ 75.5245335251049, 11.708163660247209 ], [ 75.47629868441615, 11.766829114974133 ], [ 75.453838186080162, 11.771686764091648 ], [ 75.461570488785995, 11.779907401059752 ], [ 75.447578702937349, 11.782896723593609 ], [ 75.438005375777735, 11.805690307914261 ], [ 75.38608848618145, 11.856508790989812 ], [ 75.356263890030377, 11.860245444157133 ], [ 75.319443400954995, 11.905085282164972 ], [ 75.303610590652582, 11.951419781439741 ], [ 75.291828034148452, 11.954409103973596 ], [ 75.251693701056283, 12.008590574899737 ], [ 75.227760383157275, 12.023537187569016 ], [ 75.201249631023003, 12.006348582999344 ], [ 75.16553375661988, 12.08967594863058 ] ] ] } }
]
}
