{
"type": "FeatureCollection",
"name": "ladakh",
"crs": { "type": "name", "properties": { "name": "urn:ogc:def:crs:OGC:1.3:CRS84" } },
"features": [
{ "type": "Feature", "properties": { "dt_code": "003", "district": "Leh", "st_nm": "Ladakh", "st_code": "38", "year": "2011_c" }, "geometry": { "type": "Polygon", "coordinates": [ [ [ 77.317964234380426, 32.894544878652169 ], [ 77.276697909059351, 32.994607444870979 ], [ 77.292257343196809, 33.036552864043507 ], [ 77.314581748698373, 33.032509932075072 ], [ 77.316611240107605, 33.04312262849222 ], [ 77.336906154199923, 33.048176293452762 ], [ 77.33961214274558, 33.085068047664748 ], [ 77.364642536792786, 33.077992916719985 ], [ 77.40861485065949, 33.084057314672641 ], [ 77.418762307705663, 33.134088597782046 ], [ 77.403202873568205, 33.169969619001918 ], [ 77.420115301978484, 33.196754043292813 ], [ 77.468823095800062, 33.199280875773084 ], [ 77.538502300850396, 33.155819357112392 ], [ 77.521589872440131, 33.217474069631052 ], [ 77.476941061437003, 33.27407511718917 ], [ 77.500618461211388, 33.299343441991894 ], [ 77.498588969802157, 33.329160065259117 ], [ 77.508736426848316, 33.342804960652593 ], [ 77.543237780805271, 33.35897668852634 ], [ 77.535796312304754, 33.37413768340798 ], [ 77.493176992710858, 33.388793311793563 ], [ 77.499265466938567, 33.411534804116016 ], [ 77.479647049982646, 33.420126034548943 ], [ 77.443116204616445, 33.492393443484751 ], [ 77.397114399340509, 33.490877343996587 ], [ 77.361260051110719, 33.47470561612284 ], [ 77.337582651336334, 33.490877343996587 ], [ 77.300375308833736, 33.484812946043931 ], [ 77.256402994967019, 33.526758365216466 ], [ 77.234078589465469, 33.588413077735126 ], [ 77.238814069420343, 33.600036507144381 ], [ 77.209048195418262, 33.620251166986563 ], [ 77.207695201145441, 33.637433627852424 ], [ 77.150192944550497, 33.677357581040738 ], [ 77.129898030458179, 33.683421978993387 ], [ 77.101485150728905, 33.669777083599918 ], [ 77.054806848316559, 33.706668837811904 ], [ 77.020981991496001, 33.702625905843462 ], [ 76.985127643266225, 33.724356665173815 ], [ 76.965509226310303, 33.711722502772446 ], [ 76.940478832263096, 33.716270801236938 ], [ 76.901241998351267, 33.742044492535726 ], [ 76.913418946806658, 33.758721586905523 ], [ 76.889741547032287, 33.780957712731926 ], [ 76.859299175893781, 33.77438794828322 ], [ 76.82885680475529, 33.794097241629345 ], [ 76.759177599704969, 33.80521530454255 ], [ 76.738882685612637, 33.830483629345274 ], [ 76.72399974861159, 33.822397765408404 ], [ 76.705057828792093, 33.852719755171677 ], [ 76.646202577924328, 33.906793970249524 ], [ 76.621848681013532, 33.89769737332054 ], [ 76.599524275511968, 33.868891483045424 ], [ 76.57314088719194, 33.864343184580932 ], [ 76.556228458781675, 33.886073943911285 ], [ 76.527815579052415, 33.892138341863941 ], [ 76.516991624869831, 33.915385200682451 ], [ 76.529168573325236, 33.934589127532526 ], [ 76.5149621334606, 33.945201823949667 ], [ 76.554198967372443, 34.002813604499892 ], [ 76.583964841374524, 34.006856536468334 ], [ 76.57990585855606, 34.045264390168477 ], [ 76.60831873828532, 34.063962950522502 ], [ 76.661085514925375, 34.061436118042224 ], [ 76.688145400381813, 34.079629311900192 ], [ 76.661762012061786, 34.145326956387287 ], [ 76.682056926154118, 34.178175778630838 ], [ 76.671909469107945, 34.220121197803373 ], [ 76.675968451926408, 34.237809025165284 ], [ 76.690851388927456, 34.239830491149498 ], [ 76.701675343110026, 34.256002219023244 ], [ 76.703028337382847, 34.305022769140542 ], [ 76.723323251475179, 34.324732062486675 ], [ 76.625231166695585, 34.37729017807635 ], [ 76.590053315602219, 34.415192665280443 ], [ 76.563669927282191, 34.425299995201534 ], [ 76.574493881464775, 34.455116618468757 ], [ 76.556904955918085, 34.487965440712308 ], [ 76.549463487417569, 34.543555755278312 ], [ 76.560963938736549, 34.570340179569207 ], [ 76.529845070461647, 34.574383111537642 ], [ 76.525109590506773, 34.594597771379824 ], [ 76.47572529954877, 34.575393844529749 ], [ 76.452724396910796, 34.580447509490298 ], [ 76.473019311003128, 34.633510991576031 ], [ 76.448665414092332, 34.658273949882705 ], [ 76.445282928410279, 34.68556374066965 ], [ 76.420252534363073, 34.720434028897422 ], [ 76.278864632853171, 34.682026175197272 ], [ 76.235568816122878, 34.659790049370869 ], [ 76.215950399166957, 34.675961777244616 ], [ 76.13341774852482, 34.662822248347197 ], [ 76.043443629382153, 34.684553007677543 ], [ 76.015707246789304, 34.719423295905308 ], [ 75.973087927195422, 34.734078924290891 ], [ 75.934527590419989, 34.62390902815099 ], [ 75.893937762235339, 34.545071854766476 ], [ 75.789757203228049, 34.499588870121563 ], [ 75.59966150789657, 34.501610336105777 ], [ 75.556365691166263, 34.494029838664957 ], [ 75.508334394481082, 34.456632717956921 ], [ 75.494127954616459, 34.412160466304115 ], [ 75.467068069160007, 34.383354576029006 ], [ 75.384535418517871, 34.357075518234168 ], [ 75.377770447153765, 34.387397507997441 ], [ 75.365593498698374, 34.39245117295799 ], [ 75.37235847006248, 34.406601434847516 ], [ 75.319591693422424, 34.434901958626575 ], [ 75.357475533061432, 34.529910859884836 ], [ 75.301326270739324, 34.589038739923225 ], [ 75.256000962599785, 34.606221200789079 ], [ 75.23908853418952, 34.627951960119425 ], [ 75.131525489500177, 34.64665052047345 ], [ 75.078082215723711, 34.638564656536573 ], [ 75.061169787313432, 34.626435860631261 ], [ 75.020579959128781, 34.625930494135211 ], [ 74.92519386289483, 34.663327614843247 ], [ 74.864309120617847, 34.662822248347197 ], [ 74.848749686480389, 34.674445677756452 ], [ 74.833190252342931, 34.663327614843247 ], [ 74.733068676154119, 34.671413478780124 ], [ 74.651212522648393, 34.697187170078905 ], [ 74.606563711645265, 34.726498426850071 ], [ 74.593710266053449, 34.756820416613351 ], [ 74.571385860551885, 34.767938479526549 ], [ 74.319052428670602, 34.786131673384517 ], [ 74.396173102221454, 34.803819500746428 ], [ 74.413762027768144, 34.799271202281936 ], [ 74.457057844498436, 34.852334684367669 ], [ 74.505089141183618, 34.863452747280867 ], [ 74.530119535230824, 34.856882982832161 ], [ 74.568003374869832, 34.873054710705908 ], [ 74.576797837643184, 34.910451831413944 ], [ 74.571385860551885, 34.965536779483898 ], [ 74.586945294689343, 35.009503664640647 ], [ 74.535531512322109, 35.031234423970993 ], [ 74.541619986549804, 35.066610078694815 ], [ 74.498324169819512, 35.106534031883129 ], [ 74.439468918951746, 35.118157461292384 ], [ 74.379937170947585, 35.057513481765838 ], [ 74.308228474488018, 35.060040314246109 ], [ 74.297404520305449, 35.044373952868412 ], [ 74.268991640576189, 35.035277355939435 ], [ 74.253432206438731, 35.037298821923649 ], [ 74.249373223620267, 35.067115445190872 ], [ 74.227048818118703, 35.067115445190872 ], [ 74.222313338163829, 35.086319372040947 ], [ 74.151957635977098, 35.09339450298571 ], [ 74.110014813519612, 35.129780890701639 ], [ 74.113397299201665, 35.151511650031992 ], [ 74.038306117060046, 35.1469633515675 ], [ 74.008540243057965, 35.165661911921518 ], [ 73.999069283148216, 35.183855105779486 ], [ 73.958479454963552, 35.173747775858388 ], [ 73.91653663250608, 35.211650263062488 ], [ 73.864446353002435, 35.210134163574324 ], [ 73.846180930319335, 35.228832723928342 ], [ 73.795443645088511, 35.245004451802089 ], [ 73.731176417129475, 35.21670392802303 ], [ 73.715616982992017, 35.225295158455964 ], [ 73.726440937174587, 35.27785327404564 ], [ 73.699381051718149, 35.322830892194496 ], [ 73.699381051718149, 35.357701180422268 ], [ 73.737941388493581, 35.427441756877798 ], [ 73.79409065081569, 35.459785212625292 ], [ 73.783943193769531, 35.524977490616337 ], [ 73.734558902811528, 35.536095553529535 ], [ 73.719675965810481, 35.552772647899339 ], [ 73.6716446691253, 35.550751181915118 ], [ 73.634437326622702, 35.571471208253357 ], [ 73.570170098663652, 35.554288747387503 ], [ 73.48087247665741, 35.576524873213906 ], [ 73.405781294515791, 35.563385344316487 ], [ 73.366544460603961, 35.604825396992965 ], [ 73.27183486150642, 35.629082988803582 ], [ 73.215009102047901, 35.674565973448495 ], [ 73.135182439951407, 35.718532858605244 ], [ 73.135182439951407, 35.793327100021322 ], [ 73.153447862634508, 35.840831550650456 ], [ 73.088504137539047, 35.882776969822991 ], [ 73.074974194810835, 35.884798435807205 ], [ 73.037090355171813, 35.853971079547875 ], [ 72.999206515532805, 35.863067676476859 ], [ 72.92885081334606, 35.844874482618891 ], [ 72.903820419298853, 35.852960346555768 ], [ 72.901114430753211, 35.881260870334827 ], [ 72.857142116886493, 35.877217938366385 ], [ 72.829405734293644, 35.886819901791426 ], [ 72.82467025433877, 35.874185739390057 ], [ 72.798286866018742, 35.867110608445294 ], [ 72.797610368882331, 35.85498181253999 ], [ 72.776638957653589, 35.843358383130727 ], [ 72.736725626605349, 35.85801401151631 ], [ 72.690723821329399, 35.832240320217529 ], [ 72.64472201605345, 35.86559450895713 ], [ 72.600749702186747, 35.870648173917679 ], [ 72.56895433677542, 35.906529195137551 ], [ 72.533099988545644, 35.916636525058649 ], [ 72.530394, 35.952012179782471 ], [ 72.547982925546691, 35.962119509703562 ], [ 72.555424394047208, 35.99597906493922 ], [ 72.572336822457487, 35.99597906493922 ], [ 72.595337725095447, 36.02680642119855 ], [ 72.585190268049288, 36.05005328001706 ], [ 72.549335919819512, 36.056117677969716 ], [ 72.530394, 36.073805505331627 ], [ 72.535805977091286, 36.113729458519941 ], [ 72.573013319593898, 36.15011584623587 ], [ 72.550688914092333, 36.180437835999143 ], [ 72.559483376865671, 36.21177055875453 ], [ 72.584513770912878, 36.229963752612498 ], [ 72.594661227959037, 36.261801841863935 ], [ 72.635927553280112, 36.275952103753461 ], [ 72.693429809875042, 36.249673045958623 ], [ 72.69140031846581, 36.274941370761354 ], [ 72.77799195192641, 36.309306292493069 ], [ 72.828729237157233, 36.360348308594581 ], [ 72.88284900807011, 36.386627366389419 ], [ 72.88961397943423, 36.424024487097462 ], [ 72.878790025251647, 36.44272304745148 ], [ 72.921409344845543, 36.462432340797612 ], [ 72.943057253210696, 36.45788404233312 ], [ 72.961999173030193, 36.466980639262104 ], [ 72.991088549895863, 36.457378675837063 ], [ 73.003265498351269, 36.475571869695031 ], [ 72.989735555623042, 36.479614801663466 ], [ 72.995147532714341, 36.514485089891231 ], [ 73.060767754946198, 36.537226582213691 ], [ 73.111505040177022, 36.609493991149499 ], [ 73.09121012608469, 36.634256949456173 ], [ 73.084445154720584, 36.698943860951161 ], [ 73.125711480041659, 36.685804332053742 ], [ 73.188625713727873, 36.721179986777564 ], [ 73.21433260491149, 36.699449227447218 ], [ 73.252216444550498, 36.708545824376195 ], [ 73.313777683963906, 36.706018991895924 ], [ 73.359779489239841, 36.714610222328851 ], [ 73.371279940558836, 36.734319515674983 ], [ 73.399016323151685, 36.731287316698655 ], [ 73.44095914560917, 36.744426845596074 ], [ 73.543110213207214, 36.708545824376195 ], [ 73.599259475529337, 36.7196638872894 ], [ 73.606700944029853, 36.697933127959054 ], [ 73.632407835213471, 36.68934189752612 ], [ 73.654055743578624, 36.695406295478776 ], [ 73.700057548854559, 36.684288232565578 ], [ 73.724411445765355, 36.709556557368309 ], [ 73.78259019949671, 36.701470693431432 ], [ 73.808297090680327, 36.716126321817015 ], [ 73.883388272821932, 36.698438494455104 ], [ 73.900977198368622, 36.706524358391981 ], [ 73.89894770695939, 36.748975144060566 ], [ 73.862416861593204, 36.787382997760716 ], [ 73.828592004772645, 36.78889909724888 ], [ 73.80559110213467, 36.814672788547661 ], [ 73.723058451492534, 36.833876715397736 ], [ 73.71832297153766, 36.856618207720196 ], [ 73.680439131898652, 36.884918731499255 ], [ 73.68923359467199, 36.911703155790143 ], [ 73.744706359857688, 36.895531427916396 ], [ 73.767030765359252, 36.904122658349323 ], [ 73.808973587816737, 36.896036794412453 ], [ 73.817091553453665, 36.884918731499255 ], [ 73.848210421728567, 36.899068993388781 ], [ 73.877976295730647, 36.893509961932182 ], [ 73.912477649687602, 36.870768469609722 ], [ 73.936831546598398, 36.87329530209 ], [ 73.993657306056932, 36.825790851460866 ], [ 74.025452671468244, 36.825790851460866 ], [ 74.055218545470325, 36.805576191618684 ], [ 74.091749390836512, 36.837919647366178 ], [ 74.120162270565771, 36.831855249413522 ], [ 74.141810178930925, 36.839435746854335 ], [ 74.168193567250952, 36.902101192365109 ], [ 74.260197177802851, 36.885929464491362 ], [ 74.367760222492194, 36.95819687342717 ], [ 74.415115022040965, 36.972347135316696 ], [ 74.429321461905587, 36.98952959618255 ], [ 74.531472529503645, 36.985992030710172 ], [ 74.553796935005209, 36.953143208466621 ], [ 74.577474334779595, 36.948089543506079 ], [ 74.585592300416522, 37.044614544252504 ], [ 74.657977494012499, 37.057248706653866 ], [ 74.708038282106912, 37.076958 ], [ 74.733745173290529, 37.01985158594583 ], [ 74.751334098837205, 37.010754989016846 ], [ 74.777717487157233, 37.028948182874814 ], [ 74.83927872657064, 37.021873051930044 ], [ 74.845367200798336, 36.98952959618255 ], [ 74.921134880076366, 36.905638757837494 ], [ 74.940076799895863, 36.933939281616546 ], [ 75.017873970583125, 36.975884700789081 ], [ 75.094994644133976, 36.942025145553423 ], [ 75.149790912183263, 36.96628273736404 ], [ 75.207969665914618, 37.036023313819577 ], [ 75.264118928236726, 37.05118430870121 ], [ 75.342592596060399, 37.051689675197267 ], [ 75.350710561697326, 36.980432999253573 ], [ 75.375064458608122, 36.959712972915334 ], [ 75.400094852655329, 36.967293470356154 ], [ 75.421742761020482, 36.960218339411384 ], [ 75.425801743838946, 36.938487580081038 ], [ 75.407536321155845, 36.916251454254635 ], [ 75.41294829824713, 36.891488495947961 ], [ 75.442714172249225, 36.886434830987412 ], [ 75.473156543387717, 36.810124490083169 ], [ 75.615220942034014, 36.761103939965878 ], [ 75.674076192901765, 36.695406295478776 ], [ 75.747137883634153, 36.587763231819153 ], [ 75.768109294862896, 36.572602236937513 ], [ 75.84793595695939, 36.543796346662397 ], [ 75.922350641964599, 36.501850927489869 ], [ 76.075915491929891, 36.47355040371081 ], [ 76.171978085300239, 36.389659565365747 ], [ 76.197684976483856, 36.386627366389419 ], [ 76.253834238805965, 36.347208779697162 ], [ 76.351249826449148, 36.359337575602474 ], [ 76.431076488545642, 36.307790193004905 ], [ 76.448665414092332, 36.268876972808698 ], [ 76.431752985682053, 36.250683778950737 ], [ 76.456106882592849, 36.240071082533589 ], [ 76.480460779503645, 36.210759825762423 ], [ 76.543375013189859, 36.192061265408398 ], [ 76.56164043587296, 36.172351972062273 ], [ 76.600200772648378, 36.164771474621453 ], [ 76.643496589378685, 36.183470034975471 ], [ 76.702351840246436, 36.128385086905524 ], [ 76.718587771520305, 36.082902102260611 ], [ 76.80044392502603, 36.047526447536789 ], [ 76.806532399253726, 36.018215190765623 ], [ 76.768648559614718, 36.009118593836639 ], [ 76.721293760065947, 35.953022912774578 ], [ 76.778119519524466, 35.897937964704624 ], [ 76.810591382072204, 35.844369116122841 ], [ 76.856593187348139, 35.830724220729365 ], [ 76.893800529850751, 35.799391497973978 ], [ 76.93371386089899, 35.783725136596289 ], [ 77.01962899722318, 35.774123173171247 ], [ 77.079160745227355, 35.796864665493707 ], [ 77.114338596320721, 35.797370031989765 ], [ 77.14207497891357, 35.769069508210706 ], [ 77.163046390142313, 35.766037309234378 ], [ 77.165752378687955, 35.734199219982941 ], [ 77.219872149600832, 35.727629455534228 ], [ 77.226637120964938, 35.711963094156538 ], [ 77.266550452013192, 35.708425528684153 ], [ 77.27602141192294, 35.720048958093408 ], [ 77.313905251561962, 35.698823565259119 ], [ 77.326082200017353, 35.718532858605244 ], [ 77.357201068292255, 35.71701675911708 ], [ 77.400496885022562, 35.661931811047133 ], [ 77.429586261888232, 35.653845947110256 ], [ 77.435674736115928, 35.621502491362762 ], [ 77.425527279069769, 35.609879061953507 ], [ 77.45529315307185, 35.593201967583703 ], [ 77.464087615845187, 35.572987307741521 ], [ 77.459352135890313, 35.54721361644274 ], [ 77.48505902707393, 35.531547255065043 ], [ 77.470852587209308, 35.520429192151845 ], [ 77.450557673116975, 35.525988223608444 ], [ 77.434321741843107, 35.51689162667946 ], [ 77.376819485248177, 35.549740448923011 ], [ 77.319317228653247, 35.5320526215611 ], [ 77.347730108382507, 35.493139401364893 ], [ 77.43838072466157, 35.461301312113456 ], [ 77.511442415393958, 35.488085736404351 ], [ 77.567591677716067, 35.484548170931966 ], [ 77.612916985855605, 35.469387176050333 ], [ 77.643359356994097, 35.488591102900401 ], [ 77.671095739586946, 35.469892542546383 ], [ 77.721833024817769, 35.474946207506932 ], [ 77.723186019090591, 35.514870160695246 ], [ 77.731980481863928, 35.523966757624223 ], [ 77.771217315775772, 35.494655500853057 ], [ 77.817219121051721, 35.512343328214968 ], [ 77.863220926327656, 35.480505238963531 ], [ 77.885545331829221, 35.484548170931966 ], [ 77.899751771693857, 35.467365710066112 ], [ 77.9207231829226, 35.494150134357007 ], [ 77.980931428063172, 35.4552369141608 ], [ 77.982960919472404, 35.464333511089784 ], [ 77.964018999652893, 35.47848377297931 ], [ 77.963342502516483, 35.495666233845171 ], [ 77.930194142832349, 35.515375527191296 ], [ 77.965371993925714, 35.570965841757307 ], [ 77.951165554061092, 35.606341496481122 ], [ 77.98972589083651, 35.581578538174448 ], [ 78.040463176067334, 35.587137569631054 ], [ 78.07631752429711, 35.548729715930904 ], [ 78.091200461298158, 35.555804846875667 ], [ 78.135849272301286, 35.538622386009806 ], [ 78.155467689257208, 35.551761914907232 ], [ 78.150055712165909, 35.577535606206013 ], [ 78.164938649166956, 35.612911260929835 ], [ 78.160879666348492, 35.629082988803582 ], [ 78.184557066122878, 35.623523957346983 ], [ 78.19808700885109, 35.668501575495839 ], [ 78.253559774036788, 35.645254716677329 ], [ 78.270472202447067, 35.668501575495839 ], [ 78.271825196719888, 35.721565057581572 ], [ 78.337445418951745, 35.720048958093408 ], [ 78.384800218500516, 35.735209952975048 ], [ 78.422007561003127, 35.784735869588395 ], [ 78.520099645782707, 35.763510476754107 ], [ 78.559336479694551, 35.791811000533158 ], [ 78.573542919559173, 35.789284168052887 ], [ 78.578954896650473, 35.807477361910856 ], [ 78.618191730562302, 35.81657395883984 ], [ 78.663517038701841, 35.857003278524203 ], [ 78.76702110057272, 35.869132074429515 ], [ 78.822493865758418, 35.855487179036039 ], [ 78.938174876084688, 35.879239404350606 ], [ 78.95914628731343, 35.891873566751968 ], [ 79.020031029590413, 35.848412048091276 ], [ 79.130976559961823, 35.835777885689915 ], [ 79.192537799375216, 35.886314535295369 ], [ 79.188478816556753, 35.946958514821922 ], [ 79.21418570774037, 35.978291237577309 ], [ 79.376545020479, 35.994968331947106 ], [ 79.385339483252338, 35.989914666986564 ], [ 79.401575414526206, 35.918152624546813 ], [ 79.420517334345718, 35.89591649872041 ], [ 79.516579927716066, 35.883282336319041 ], [ 79.558522750173552, 35.861551576988695 ], [ 79.710734605866023, 35.81910079132011 ], [ 79.735764999913215, 35.801412963958199 ], [ 79.8697114329226, 35.782714403604182 ], [ 79.928566683790351, 35.82718665525698 ], [ 79.970509506247822, 35.840326184154407 ], [ 79.997569391704261, 35.837293985178079 ], [ 80.036806225616104, 35.799391497973978 ], [ 80.056424642572026, 35.749360214864573 ], [ 80.086867013710517, 35.7245972565579 ], [ 80.106485430666439, 35.680630371401151 ], [ 80.235696383720921, 35.641717151204944 ], [ 80.289816154633812, 35.606846862977179 ], [ 80.326347, 35.469387176050333 ], [ 80.295904628861507, 35.460290579121349 ], [ 80.279668697587638, 35.440581285775217 ], [ 80.28169818899687, 35.387517803689484 ], [ 80.269521240541479, 35.344056285028792 ], [ 80.2343433894481, 35.276337174557476 ], [ 80.22419593240194, 35.219736126999358 ], [ 80.181576612808044, 35.166167278417575 ], [ 80.184282601353701, 35.063072513222437 ], [ 80.172782150034706, 35.001923167199827 ], [ 80.122044864803883, 34.89326937054809 ], [ 80.071307579573059, 34.828077092557045 ], [ 80.067248596754595, 34.714369630944766 ], [ 79.942773123654973, 34.680510075709108 ], [ 79.858887478740016, 34.688595939645978 ], [ 79.814915164873298, 34.643112955001065 ], [ 79.774325336688648, 34.627446593623375 ], [ 79.791237765098927, 34.589038739923225 ], [ 79.769589856733774, 34.581963608978462 ], [ 79.756736411141958, 34.55416845169546 ], [ 79.808826690645603, 34.530921592876943 ], [ 79.812885673464066, 34.499588870121563 ], [ 79.792590759371748, 34.48493324173598 ], [ 79.66067381777161, 34.479374210279374 ], [ 79.591671109857685, 34.50059960311367 ], [ 79.569346704356121, 34.486449341224144 ], [ 79.507108967806317, 34.473815178822775 ], [ 79.526050887625829, 34.445009288547666 ], [ 79.526727384762239, 34.417719497760714 ], [ 79.559875744446373, 34.409633633823844 ], [ 79.552434275945856, 34.387397507997441 ], [ 79.557846253037141, 34.332312559927487 ], [ 79.590318115584864, 34.282281276818082 ], [ 79.584229641357169, 34.243873423117932 ], [ 79.570699698628943, 34.222648030283644 ], [ 79.542963316036094, 34.206981668905954 ], [ 79.517932921988887, 34.212540700362553 ], [ 79.505755973533496, 34.20546556941779 ], [ 79.488167047986806, 34.156950385796549 ], [ 79.492902527941681, 34.135724992962253 ], [ 79.418487842936486, 34.077607845915971 ], [ 79.413075865845187, 34.054360987097461 ], [ 79.436076768483161, 34.028081929302623 ], [ 79.425252814300592, 34.016963866389425 ], [ 79.354220614977436, 34.03667315973555 ], [ 79.19659678219368, 34.050823421625083 ], [ 79.169536896737242, 34.072554180955429 ], [ 79.14991847978132, 34.068005882490937 ], [ 79.134359045643876, 34.027071196310516 ], [ 79.111358143005901, 34.019490698869696 ], [ 79.060620857775078, 34.02858729579868 ], [ 79.020707526726824, 34.050318055129026 ], [ 78.950351824540093, 34.02858729579868 ], [ 78.904350019264143, 33.976029180208997 ], [ 78.94696933885804, 33.920438865642993 ], [ 78.942233858903151, 33.908310069737688 ], [ 78.999059618361684, 33.803193838558329 ], [ 79.018001538181181, 33.798645540093837 ], [ 79.015295549635539, 33.778430880251655 ], [ 79.032884475182229, 33.783484545212197 ], [ 79.04573792077403, 33.765796717850286 ], [ 79.058591366365846, 33.779946979739819 ], [ 79.066709332002773, 33.756194754425252 ], [ 79.041678937955567, 33.749624989976539 ], [ 79.019354532454003, 33.70565810481979 ], [ 79.052502892138151, 33.677862947536788 ], [ 79.089710234640748, 33.686454177969715 ], [ 79.089033737504337, 33.656637554702499 ], [ 79.105269668778206, 33.616713601514185 ], [ 79.046414417910441, 33.627326297931333 ], [ 78.988235664179101, 33.610649203561529 ], [ 78.920585950538012, 33.632885329387932 ], [ 78.913144482037481, 33.627326297931333 ], [ 78.913820979173892, 33.5742628158456 ], [ 78.941557361766741, 33.509070537854555 ], [ 78.93005691044776, 33.473694883130733 ], [ 78.932086401856992, 33.432254830454255 ], [ 78.948322333130861, 33.407997238643638 ], [ 78.952381315949324, 33.380707447856686 ], [ 78.967264252950358, 33.375148416400087 ], [ 78.98755916704269, 33.333202997227552 ], [ 79.01664854390836, 33.335224463211773 ], [ 79.10932865159667, 33.291762944551081 ], [ 79.239216101787576, 33.29732197600768 ], [ 79.314307283929196, 33.273064384197056 ], [ 79.368427054842073, 33.28216098112604 ], [ 79.453665694029851, 33.258408755811473 ], [ 79.444871231256514, 33.20534527372574 ], [ 79.375868523342589, 33.084562681168691 ], [ 79.392104454616458, 33.03604749754745 ], [ 79.330543215203051, 33.011789905736833 ], [ 79.382633494706695, 32.989048413414373 ], [ 79.383986488979517, 32.967823020580084 ], [ 79.420517334345718, 32.961253256131371 ], [ 79.566640715810479, 32.786396448496482 ], [ 79.58558263562999, 32.773762286095121 ], [ 79.601818566903844, 32.776794485071449 ], [ 79.62549596667823, 32.738891997867348 ], [ 79.513873939170423, 32.608002075389209 ], [ 79.468548631030885, 32.576163986137772 ], [ 79.446900722665745, 32.532197100981023 ], [ 79.40563439734467, 32.529670268500745 ], [ 79.392780951752854, 32.572121054169337 ], [ 79.31904276388407, 32.592335714011519 ], [ 79.293335872700453, 32.549884928342934 ], [ 79.27236446147171, 32.532197100981023 ], [ 79.249363558833736, 32.533713200469187 ], [ 79.236510113241934, 32.505412676690128 ], [ 79.193890793648038, 32.482671184367668 ], [ 79.135712039916697, 32.476606786415019 ], [ 79.129623565689002, 32.465994089997871 ], [ 79.145182999826446, 32.442747231179361 ], [ 79.143153508417214, 32.422532571337172 ], [ 79.124211588597703, 32.413435974408188 ], [ 79.113387634415133, 32.384124717637022 ], [ 79.032207978045818, 32.385640817125186 ], [ 79.013266058226307, 32.377049586692259 ], [ 78.980117698542173, 32.337631 ], [ 78.960499281586252, 32.365931523779061 ], [ 78.902320527854911, 32.392715948069956 ], [ 78.857671716851783, 32.440220398699083 ], [ 78.825876351440471, 32.438704299210919 ], [ 78.775139066209647, 32.557970792279804 ], [ 78.775139066209647, 32.573131787161444 ], [ 78.795433980301979, 32.597894745468118 ], [ 78.76093262634501, 32.655001159522286 ], [ 78.766344603436309, 32.697451945190871 ], [ 78.721695792433181, 32.661065557474942 ], [ 78.660811050156198, 32.653990426530179 ], [ 78.637810147518223, 32.609518174877373 ], [ 78.619544724835123, 32.596378645979954 ], [ 78.572189925286352, 32.61760403881425 ], [ 78.534306085647344, 32.608507441885266 ], [ 78.498451737417568, 32.581217651098314 ], [ 78.458538406369314, 32.57970155161015 ], [ 78.435537503731339, 32.561508357752189 ], [ 78.426743040958002, 32.531691734484966 ], [ 78.398330161228742, 32.52562733653231 ], [ 78.326621464769175, 32.472058487950527 ], [ 78.294826099357863, 32.503896577201964 ], [ 78.315121013450195, 32.52562733653231 ], [ 78.313091522040963, 32.573637153657501 ], [ 78.348269373134329, 32.581217651098314 ], [ 78.405095132592848, 32.619625504798464 ], [ 78.387506207046158, 32.634281133184047 ], [ 78.379388241409231, 32.668140688419705 ], [ 78.394271178410278, 32.715645139048839 ], [ 78.387506207046158, 32.757085191725317 ], [ 78.356387338771256, 32.757590558221374 ], [ 78.304297059267611, 32.734343699402856 ], [ 78.312415024904539, 32.709075374600133 ], [ 78.252883276900377, 32.690882180742165 ], [ 78.246118305536271, 32.67167825389209 ], [ 78.219734917216243, 32.664603122947327 ], [ 78.142614243665392, 32.681785583813181 ], [ 78.147349723620266, 32.654495793026236 ], [ 78.110818878254079, 32.662581656963106 ], [ 78.092553455570979, 32.647926028577523 ], [ 78.098641929798674, 32.630238201215612 ], [ 78.087141478479694, 32.624173803262956 ], [ 78.060758090159666, 32.626195269247177 ], [ 78.046551650295029, 32.644893829601195 ], [ 78.016109279156538, 32.619625504798464 ], [ 77.970107473880603, 32.646915295585416 ], [ 77.970783971016999, 32.655001159522286 ], [ 77.946430074106217, 32.661570923970999 ], [ 77.918693691513369, 32.690882180742165 ], [ 77.934253125650812, 32.72575246896993 ], [ 77.926135160013885, 32.772246186606957 ], [ 77.903810754512321, 32.7717408201109 ], [ 77.884192337556399, 32.787912547984646 ], [ 77.888251320374863, 32.798525244401795 ], [ 77.869309400555366, 32.826825768180854 ], [ 77.838867029416861, 32.841986763062486 ], [ 77.826013583825059, 32.836427731605887 ], [ 77.78068827568552, 32.865738988377053 ], [ 77.789482738458872, 32.890501946683727 ], [ 77.811130646824012, 32.906673674557474 ], [ 77.74077494463728, 32.968833753572191 ], [ 77.719803533408538, 32.968833753572191 ], [ 77.713038562044432, 32.982478648965667 ], [ 77.68259619090594, 32.988543046918323 ], [ 77.673801728132588, 32.960747889635321 ], [ 77.602093031673036, 32.94306006227341 ], [ 77.596004557445326, 32.927393700895713 ], [ 77.539178797986807, 32.886964381211349 ], [ 77.512795409666779, 32.877362417786308 ], [ 77.501294958347799, 32.885448281723185 ], [ 77.468823095800062, 32.85866385743229 ], [ 77.451910667389797, 32.864222888888889 ], [ 77.44446919888928, 32.879889250266579 ], [ 77.405232364977437, 32.882921449242907 ], [ 77.374113496702535, 32.854620925463855 ], [ 77.372760502429713, 32.823288202708468 ], [ 77.338935645609169, 32.816718438259755 ], [ 77.323376211471711, 32.850577993495413 ], [ 77.301051805970147, 32.849567260503306 ], [ 77.273991920513708, 32.87382485231393 ], [ 77.317964234380426, 32.894544878652169 ] ] ] } },
{ "type": "Feature", "properties": { "dt_code": "004", "district": "Kargil", "st_nm": "Ladakh", "st_code": "38", "year": "2011_c" }, "geometry": { "type": "Polygon", "coordinates": [ [ [ 77.538502300850396, 33.155819357112392 ], [ 77.454616655935439, 33.203829174237576 ], [ 77.419438804842073, 33.196248676796756 ], [ 77.403202873568205, 33.169969619001918 ], [ 77.418762307705663, 33.134088597782046 ], [ 77.40861485065949, 33.084057314672641 ], [ 77.364642536792786, 33.077992916719985 ], [ 77.33961214274558, 33.085068047664748 ], [ 77.336906154199923, 33.048176293452762 ], [ 77.316611240107605, 33.04312262849222 ], [ 77.314581748698373, 33.032509932075072 ], [ 77.292257343196809, 33.036552864043507 ], [ 77.276697909059351, 32.994607444870979 ], [ 77.317964234380426, 32.894544878652169 ], [ 77.303757794515789, 32.882921449242907 ], [ 77.254373503557787, 32.863717522392832 ], [ 77.236784578011111, 32.880899983258693 ], [ 77.243549549375217, 32.892523412667948 ], [ 77.198900738372089, 32.909200507037752 ], [ 77.188076784189519, 32.928909800383877 ], [ 77.170487858642829, 32.910716606525916 ], [ 77.156957915914617, 32.911727339518023 ], [ 77.163722887278723, 32.936995664320754 ], [ 77.161016898733081, 32.953167392194501 ], [ 77.148839950277676, 32.956199591170829 ], [ 77.149516447414086, 32.977930350501175 ], [ 77.116368087729953, 32.985005481445938 ], [ 77.110956110638668, 32.975403518020904 ], [ 77.085925716591461, 32.972371319044576 ], [ 77.04871837408885, 32.999155743335464 ], [ 77.010158037313431, 32.989048413414373 ], [ 76.992569111766741, 33.001682575815742 ], [ 76.971597700538013, 33.000671842823628 ], [ 76.93303736376258, 33.02846700010663 ], [ 76.905300981169731, 33.079003649712092 ], [ 76.909359963988194, 33.094164644593732 ], [ 76.885006067077398, 33.121454435380677 ], [ 76.855240193075318, 33.114379304435914 ], [ 76.844416238892748, 33.137626163254424 ], [ 76.816679856299899, 33.159862289080827 ], [ 76.81735635343631, 33.194227210812542 ], [ 76.834268781846575, 33.20483990722969 ], [ 76.825474319073237, 33.215452603646831 ], [ 76.843063244619927, 33.246785326402218 ], [ 76.830886296164522, 33.249312158882489 ], [ 76.820062341981952, 33.23617262998507 ], [ 76.799090930753209, 33.255881923331202 ], [ 76.756471611159313, 33.248301425890382 ], [ 76.737529691339816, 33.260935588291744 ], [ 76.717911274383894, 33.32865469876306 ], [ 76.696263366018741, 33.32814933226701 ], [ 76.670556474835124, 33.341794227660486 ], [ 76.631996138059705, 33.409513338131802 ], [ 76.628613652377652, 33.434781662934526 ], [ 76.615760206785836, 33.439835327895075 ], [ 76.581258852828881, 33.426190432501599 ], [ 76.569081904373476, 33.466114385689913 ], [ 76.549463487417569, 33.464598286201749 ], [ 76.508873659232904, 33.498963207933464 ], [ 76.502108687868798, 33.516145668799318 ], [ 76.458812871138491, 33.533833496161229 ], [ 76.464901345366187, 33.545456925570484 ], [ 76.450018408365153, 33.563144752932395 ], [ 76.435811968500516, 33.542424726594156 ], [ 76.414840557271773, 33.539392527617828 ], [ 76.379662706178408, 33.553037423011304 ], [ 76.381015700451229, 33.577295014821928 ], [ 76.358691294949665, 33.603574072616766 ], [ 76.307954009718841, 33.609638470569422 ], [ 76.299836044081914, 33.598520407656217 ], [ 76.309983501128073, 33.571735983365322 ], [ 76.259922713033674, 33.565166218916616 ], [ 76.245716273169037, 33.545456925570484 ], [ 76.224744861940295, 33.547478391554705 ], [ 76.205126444984387, 33.569209150885051 ], [ 76.225421359076705, 33.577295014821928 ], [ 76.231509833304415, 33.586896978246962 ], [ 76.224068364803884, 33.600541873640438 ], [ 76.240304296077753, 33.60509017210493 ], [ 76.229480341895169, 33.629853130411604 ], [ 76.270746667216244, 33.643498025805073 ], [ 76.28427660994447, 33.661185853166984 ], [ 76.26601118726137, 33.679884413521009 ], [ 76.265334690124959, 33.746592791000211 ], [ 76.238951301804931, 33.771861115802942 ], [ 76.201067462165909, 33.775398681275327 ], [ 76.169948593891007, 33.795107974621452 ], [ 76.139506222752516, 33.848676823203242 ], [ 76.09756340029503, 33.876471980486244 ], [ 76.047502612200617, 33.92903009607592 ], [ 76.022472218153425, 33.997254573043293 ], [ 75.979176401423118, 34.001802871507785 ], [ 75.980529395695939, 33.979061379185325 ], [ 75.943322053193342, 33.987147243122202 ], [ 75.864171888233258, 33.978556012689275 ], [ 75.856730419732727, 33.969459415760291 ], [ 75.862142396824012, 34.017469232885475 ], [ 75.81952307723013, 34.045264390168477 ], [ 75.799904660274208, 34.042737557688206 ], [ 75.77284477481777, 34.055371720089575 ], [ 75.747814380770564, 34.096811772766046 ], [ 75.712636529677198, 34.115004966624014 ], [ 75.686929638493581, 34.158971851780763 ], [ 75.699106586948972, 34.215067532842824 ], [ 75.691665118448455, 34.231239260716571 ], [ 75.675429187174586, 34.228207061740243 ], [ 75.655134273082268, 34.242862690125826 ], [ 75.594926027941682, 34.19839043847302 ], [ 75.580043090940649, 34.214562166346767 ], [ 75.555012696893442, 34.211529967370438 ], [ 75.496833943162102, 34.233260726700792 ], [ 75.474509537660538, 34.280765177329918 ], [ 75.413624795383541, 34.282786643314139 ], [ 75.393329881291223, 34.294915439219452 ], [ 75.397388864109686, 34.320689130518232 ], [ 75.377093950017354, 34.348484287801234 ], [ 75.467068069160007, 34.383354576029006 ], [ 75.494127954616459, 34.412160466304115 ], [ 75.508334394481082, 34.456632717956921 ], [ 75.556365691166263, 34.494029838664957 ], [ 75.59966150789657, 34.501610336105777 ], [ 75.789757203228049, 34.499588870121563 ], [ 75.893937762235339, 34.545071854766476 ], [ 75.934527590419989, 34.62390902815099 ], [ 75.973087927195422, 34.734078924290891 ], [ 76.015707246789304, 34.719423295905308 ], [ 76.043443629382153, 34.684553007677543 ], [ 76.13341774852482, 34.662822248347197 ], [ 76.215950399166957, 34.675961777244616 ], [ 76.235568816122878, 34.659790049370869 ], [ 76.278864632853171, 34.682026175197272 ], [ 76.420252534363073, 34.720434028897422 ], [ 76.445282928410279, 34.68556374066965 ], [ 76.448665414092332, 34.658273949882705 ], [ 76.473019311003128, 34.633510991576031 ], [ 76.452724396910796, 34.580447509490298 ], [ 76.47572529954877, 34.575393844529749 ], [ 76.525109590506773, 34.594597771379824 ], [ 76.529845070461647, 34.574383111537642 ], [ 76.560963938736549, 34.570340179569207 ], [ 76.549463487417569, 34.543555755278312 ], [ 76.556904955918085, 34.487965440712308 ], [ 76.574493881464775, 34.455116618468757 ], [ 76.563669927282191, 34.425299995201534 ], [ 76.590053315602219, 34.415192665280443 ], [ 76.625231166695585, 34.37729017807635 ], [ 76.723323251475179, 34.324732062486675 ], [ 76.703028337382847, 34.305022769140542 ], [ 76.701675343110026, 34.256002219023244 ], [ 76.690851388927456, 34.239830491149498 ], [ 76.675968451926408, 34.237809025165284 ], [ 76.671909469107945, 34.220121197803373 ], [ 76.682056926154118, 34.178175778630838 ], [ 76.661762012061786, 34.145326956387287 ], [ 76.688145400381813, 34.079629311900192 ], [ 76.661085514925375, 34.061436118042224 ], [ 76.60831873828532, 34.063962950522502 ], [ 76.57990585855606, 34.045264390168477 ], [ 76.583964841374524, 34.006856536468334 ], [ 76.554198967372443, 34.002813604499892 ], [ 76.5149621334606, 33.945201823949667 ], [ 76.529168573325236, 33.934589127532526 ], [ 76.516991624869831, 33.915385200682451 ], [ 76.527815579052415, 33.892138341863941 ], [ 76.556228458781675, 33.886073943911285 ], [ 76.57314088719194, 33.864343184580932 ], [ 76.599524275511968, 33.868891483045424 ], [ 76.621848681013532, 33.89769737332054 ], [ 76.646202577924328, 33.906793970249524 ], [ 76.705057828792093, 33.852719755171677 ], [ 76.72399974861159, 33.822397765408404 ], [ 76.738882685612637, 33.830483629345274 ], [ 76.759177599704969, 33.80521530454255 ], [ 76.82885680475529, 33.794097241629345 ], [ 76.859299175893781, 33.77438794828322 ], [ 76.889741547032287, 33.780957712731926 ], [ 76.913418946806658, 33.758721586905523 ], [ 76.901241998351267, 33.742044492535726 ], [ 76.940478832263096, 33.716270801236938 ], [ 76.965509226310303, 33.711722502772446 ], [ 76.985127643266225, 33.724356665173815 ], [ 77.020981991496001, 33.702625905843462 ], [ 77.054806848316559, 33.706668837811904 ], [ 77.101485150728905, 33.669777083599918 ], [ 77.129898030458179, 33.683421978993387 ], [ 77.150192944550497, 33.677357581040738 ], [ 77.207695201145441, 33.637433627852424 ], [ 77.209048195418262, 33.620251166986563 ], [ 77.238814069420343, 33.600036507144381 ], [ 77.234078589465469, 33.588413077735126 ], [ 77.256402994967019, 33.526758365216466 ], [ 77.300375308833736, 33.484812946043931 ], [ 77.337582651336334, 33.490877343996587 ], [ 77.361260051110719, 33.47470561612284 ], [ 77.397114399340509, 33.490877343996587 ], [ 77.443116204616445, 33.492393443484751 ], [ 77.479647049982646, 33.420126034548943 ], [ 77.499265466938567, 33.411534804116016 ], [ 77.493176992710858, 33.388793311793563 ], [ 77.535796312304754, 33.37413768340798 ], [ 77.543237780805271, 33.35897668852634 ], [ 77.508736426848316, 33.342804960652593 ], [ 77.498588969802157, 33.329160065259117 ], [ 77.500618461211388, 33.299343441991894 ], [ 77.476941061437003, 33.27407511718917 ], [ 77.521589872440131, 33.217474069631052 ], [ 77.538502300850396, 33.155819357112392 ] ] ] } }
]
}
