{
"type": "FeatureCollection",
"name": "manipur",
"crs": { "type": "name", "properties": { "name": "urn:ogc:def:crs:OGC:1.3:CRS84" } },
"features": [
{ "type": "Feature", "properties": { "dt_code": "770", "district": "Kamjong", "st_nm": "Manipur", "st_code": "14", "year": "2016_c" }, "geometry": { "type": "Polygon", "coordinates": [ [ [ 94.376566821086271, 24.51262138147953 ], [ 94.361476418530359, 24.518826332103323 ], [ 94.361162035143778, 24.518826332103323 ], [ 94.37279422044729, 24.547891627130557 ], [ 94.330981230031966, 24.54919793252504 ], [ 94.333181913738031, 24.565200173607451 ], [ 94.310546309904169, 24.571078547882621 ], [ 94.281937421725246, 24.600796995607098 ], [ 94.264646335463269, 24.595571774029171 ], [ 94.264017568690107, 24.596224926726411 ], [ 94.247984015974453, 24.617452389386752 ], [ 94.211829926517581, 24.61581950764365 ], [ 94.172217619808322, 24.632148325074681 ], [ 94.200197741214069, 24.625290221753648 ], [ 94.197053907348248, 24.655008669478125 ], [ 94.182592271565511, 24.671664063257776 ], [ 94.187622405750815, 24.715751870321562 ], [ 94.172217619808322, 24.733713569495695 ], [ 94.17913405431311, 24.76735093340362 ], [ 94.16058543450481, 24.794783346687755 ], [ 94.132919696485629, 24.802621179054647 ], [ 94.14675256549522, 24.829727015990162 ], [ 94.13920736421727, 24.87022248321912 ], [ 94.156184067092667, 24.883938689861186 ], [ 94.166873102236437, 24.927046767879109 ], [ 94.192023773162958, 24.94304900896152 ], [ 94.221890194888189, 24.941742703567037 ], [ 94.284138105431325, 24.961010708135653 ], [ 94.332553146964869, 24.986157086979443 ], [ 94.395429824281166, 24.986157086979443 ], [ 94.45390513418532, 25.017508416447022 ], [ 94.530300297124612, 25.033837233878053 ], [ 94.611096827476047, 25.102418267088385 ], [ 94.653852968051126, 25.115481321033212 ], [ 94.736535798722059, 25.113195286592866 ], [ 94.744081, 25.037102997364261 ], [ 94.727104297124612, 25.000199869970128 ], [ 94.696294725239625, 24.968195387805309 ], [ 94.713900194888183, 24.934884600246004 ], [ 94.70195362619809, 24.929659378668074 ], [ 94.687491990415339, 24.889490487787736 ], [ 94.656996801916947, 24.871528788613603 ], [ 94.631531747603844, 24.838871153751537 ], [ 94.617698878594254, 24.780740563697066 ], [ 94.628387913738024, 24.755920761201899 ], [ 94.593805741214069, 24.709220343349148 ], [ 94.578715338658156, 24.708567190651909 ], [ 94.575885888178917, 24.72522258443156 ], [ 94.570855753993627, 24.705954579862944 ], [ 94.545390699680524, 24.710526648743631 ], [ 94.534701664536755, 24.642925344579162 ], [ 94.496661274760399, 24.59067312879986 ], [ 94.454533900958481, 24.565853326304694 ], [ 94.425925012779558, 24.48159662836057 ], [ 94.374680520766788, 24.494333105956773 ], [ 94.374680520766788, 24.494333105956773 ], [ 94.376566821086271, 24.51262138147953 ] ] ] } },
{ "type": "Feature", "properties": { "dt_code": "272", "district": "Senapati", "st_nm": "Manipur", "st_code": "14", "year": "2011_c" }, "geometry": { "type": "Polygon", "coordinates": [ [ [ 94.467423619808315, 25.582158923212091 ], [ 94.460192801916946, 25.549501288350026 ], [ 94.413664060702885, 25.475695033561767 ], [ 94.421523645367429, 25.466224319451769 ], [ 94.41114899361024, 25.46263197961694 ], [ 94.393543523961668, 25.423442817782465 ], [ 94.383168872204479, 25.423116241433846 ], [ 94.3897709233227, 25.420177054296257 ], [ 94.379396271565511, 25.407767153048674 ], [ 94.377509971246013, 25.357147819012475 ], [ 94.335382597444095, 25.310120824811108 ], [ 94.325007945686906, 25.279422648040768 ], [ 94.289168239616629, 25.241866367949395 ], [ 94.252699766773176, 25.228803314004569 ], [ 94.246097715654969, 25.20365693516078 ], [ 94.221261428115028, 25.193859644702162 ], [ 94.214030610223659, 25.175244792830785 ], [ 94.193281306709281, 25.186674965032509 ], [ 94.072872469648573, 25.170346147601478 ], [ 93.997420456869023, 25.192226762959059 ], [ 94.017226610223659, 25.253296540151116 ], [ 93.970697869009598, 25.292485701985591 ], [ 93.991761555910557, 25.347350528553857 ], [ 93.987674571884995, 25.374782941837992 ], [ 93.960323217252409, 25.391438335617643 ], [ 93.921339677316311, 25.395357251801091 ], [ 93.919767760383394, 25.396663557195573 ], [ 93.917567076677329, 25.402541931470743 ], [ 93.892416405750808, 25.422789665085222 ], [ 93.833312329073493, 25.427361733965913 ], [ 93.820422610223659, 25.460672521525215 ], [ 93.805017824281165, 25.463611708662803 ], [ 93.81004795846647, 25.483859442277282 ], [ 93.800930840255603, 25.496269343524865 ], [ 93.786783587859446, 25.503454023194518 ], [ 93.766348667731648, 25.4936567327359 ], [ 93.758489083067104, 25.504107175891761 ], [ 93.765091134185326, 25.538724268845545 ], [ 93.816335626198097, 25.540030574240028 ], [ 93.83456986261983, 25.56060488420313 ], [ 93.861292450479255, 25.553420204533474 ], [ 93.88864380511184, 25.565176953083817 ], [ 93.960323217252409, 25.550807593744508 ], [ 93.982958821086271, 25.568442716570026 ], [ 94.007480725239631, 25.567136411175539 ], [ 94.002136207667746, 25.586404415744159 ], [ 94.012825242811516, 25.592609366367949 ], [ 94.037975913738038, 25.569749021964505 ], [ 94.048036182108646, 25.575627396239678 ], [ 94.067213568690107, 25.552113899138991 ], [ 94.084504654952084, 25.554726509927956 ], [ 94.094250539936112, 25.537417963451063 ], [ 94.084504654952084, 25.53023328378141 ], [ 94.108083408945703, 25.521742298717275 ], [ 94.140464897763593, 25.519456264276929 ], [ 94.156184067092667, 25.551134170093132 ], [ 94.164672418530358, 25.54133687963451 ], [ 94.178190904153368, 25.550807593744508 ], [ 94.192023773162958, 25.548848135652786 ], [ 94.186679255591073, 25.524028333157617 ], [ 94.218746361022383, 25.491697274644174 ], [ 94.284452488817905, 25.508026092075209 ], [ 94.321549728434519, 25.503127446845898 ], [ 94.385369555910557, 25.532192741873136 ], [ 94.416807894568706, 25.536764810753823 ], [ 94.424981862619816, 25.586730992092779 ], [ 94.479998955271583, 25.615143134422773 ], [ 94.488801690095855, 25.604692691266912 ], [ 94.467423619808315, 25.582158923212091 ] ] ] } },
{ "type": "Feature", "properties": { "dt_code": "273", "district": "Tamenglong", "st_nm": "Manipur", "st_code": "14", "year": "2011_c" }, "geometry": { "type": "Polygon", "coordinates": [ [ [ 93.887700654952084, 25.335267203654894 ], [ 93.919138993610233, 25.327755947636621 ], [ 93.954349932907363, 25.287587056756283 ], [ 93.955607466453685, 25.286280751361801 ], [ 93.953721166134201, 25.285301022315938 ], [ 93.942717747603851, 25.279422648040768 ], [ 93.926055428115035, 25.270605086628009 ], [ 93.902791057507997, 25.272237968371112 ], [ 93.853747249201291, 25.228803314004569 ], [ 93.826081511182124, 25.222271787032156 ], [ 93.792442488817912, 25.167406960463893 ], [ 93.772636335463275, 25.154017330170447 ], [ 93.796843856230041, 25.101111961693903 ], [ 93.79652947284346, 25.082497109822526 ], [ 93.813820559105451, 25.029591741345985 ], [ 93.816964392971258, 25.023386790722192 ], [ 93.816021242811516, 25.023060214373572 ], [ 93.790556188498414, 25.016528687401159 ], [ 93.79967330670928, 24.957418368300829 ], [ 93.758803466453685, 24.907452186961869 ], [ 93.772007568690114, 24.849648173256018 ], [ 93.772007568690114, 24.849321596907398 ], [ 93.771064418530372, 24.848015291512915 ], [ 93.743713063897772, 24.808172976981201 ], [ 93.743713063897772, 24.807519824283958 ], [ 93.750315115015994, 24.800008568265685 ], [ 93.757231549520782, 24.79217073589879 ], [ 93.757231549520782, 24.79217073589879 ], [ 93.75628839936104, 24.79217073589879 ], [ 93.649083664536761, 24.800335144614305 ], [ 93.634622028754009, 24.801314873660168 ], [ 93.615444642172534, 24.812745045861888 ], [ 93.576461102236436, 24.835605390265332 ], [ 93.560741932907362, 24.811112164118786 ], [ 93.543450846645385, 24.80915270602706 ], [ 93.497550872204485, 24.823195489017749 ], [ 93.407322840255603, 24.824828370760851 ], [ 93.398834488817911, 24.806540095238095 ], [ 93.371797517571906, 24.80915270602706 ], [ 93.36299478274762, 24.758533371990865 ], [ 93.340044795527177, 24.750695539623969 ], [ 93.329984527156569, 24.726202313477422 ], [ 93.339101645367435, 24.712486106835357 ], [ 93.303576322683725, 24.690278915129152 ], [ 93.284398936102249, 24.665785688982606 ], [ 93.279054418530365, 24.658927585661573 ], [ 93.252646214057521, 24.658927585661573 ], [ 93.216177741214082, 24.699423052890531 ], [ 93.216177741214082, 24.699423052890531 ], [ 93.209575690095861, 24.701382510982253 ], [ 93.200458571885008, 24.703995121771218 ], [ 93.200772955271589, 24.704321698119838 ], [ 93.222151025559128, 24.721956820945355 ], [ 93.232211293929737, 24.752654997715691 ], [ 93.177822968051132, 24.792497312247409 ], [ 93.175622284345067, 24.794130193990512 ], [ 93.176565434504809, 24.794783346687755 ], [ 93.196685971246026, 24.811438740467405 ], [ 93.194799670926542, 24.853893665788089 ], [ 93.204231172523976, 24.8509544786505 ], [ 93.226238009584677, 24.873161670356705 ], [ 93.221522258785967, 24.88165265542084 ], [ 93.232525677316318, 24.884918418907048 ], [ 93.225923626198096, 24.892103098576701 ], [ 93.240699645367428, 24.903533270778421 ], [ 93.235040744408963, 24.911371103145317 ], [ 93.248873613418553, 24.914963442980145 ], [ 93.236612661341866, 24.937170634686346 ], [ 93.251074297124617, 24.940762974521174 ], [ 93.245101012779571, 24.950886841328415 ], [ 93.26302086581471, 24.961337284484273 ], [ 93.249187996805134, 24.977339525566684 ], [ 93.259562648562323, 25.001832751713231 ], [ 93.24447224600641, 24.998240411878406 ], [ 93.243529095846668, 25.018488145492885 ], [ 93.253903747603857, 25.020447603584607 ], [ 93.263964015974466, 25.049512898611844 ], [ 93.299803722044743, 25.045920558777016 ], [ 93.314894124600656, 25.084783144262872 ], [ 93.332185210862633, 25.09360070567563 ], [ 93.345389313099062, 25.123319153400107 ], [ 93.345703696485643, 25.170019571252855 ], [ 93.381857785942515, 25.222924939729399 ], [ 93.381229019169353, 25.23958033350905 ], [ 93.42744337699682, 25.283341564224216 ], [ 93.469885134185319, 25.304242450535934 ], [ 93.453851581469664, 25.324816760499033 ], [ 93.472085817891397, 25.303262721490071 ], [ 93.472085817891397, 25.271258239325253 ], [ 93.506353607028771, 25.269298781233527 ], [ 93.501323472843467, 25.242519520646635 ], [ 93.555711798722058, 25.245785284132843 ], [ 93.5840063035144, 25.221618634334916 ], [ 93.588093287539948, 25.201044324371814 ], [ 93.60538437380194, 25.199084866280092 ], [ 93.66731790095848, 25.310773977508347 ], [ 93.664802833865835, 25.325796489544896 ], [ 93.681465153354651, 25.328735676682481 ], [ 93.686809670926536, 25.360087006150064 ], [ 93.709130891373817, 25.357147819012475 ], [ 93.742141146964869, 25.403848236865226 ], [ 93.774208252396178, 25.419523901599018 ], [ 93.805332207667746, 25.46295855596556 ], [ 93.820422610223659, 25.460672521525215 ], [ 93.833312329073493, 25.427361733965913 ], [ 93.892416405750808, 25.422789665085222 ], [ 93.917567076677329, 25.402541931470743 ], [ 93.919767760383394, 25.396663557195573 ], [ 93.921339677316311, 25.395357251801091 ], [ 93.92071091054315, 25.394377522755228 ], [ 93.922597210862634, 25.389152301177297 ], [ 93.913480092651767, 25.38458023229661 ], [ 93.903419824281158, 25.370864025654544 ], [ 93.887700654952084, 25.335267203654894 ] ] ] } },
{ "type": "Feature", "properties": { "dt_code": "277", "district": "Imphal West", "st_nm": "Manipur", "st_code": "14", "year": "2011_c" }, "geometry": { "type": "Polygon", "coordinates": [ [ [ 93.919767760383394, 24.962643589878756 ], [ 93.932028712460081, 24.967868811456686 ], [ 93.915995159744426, 24.913657137585663 ], [ 93.915366392971265, 24.910717950448078 ], [ 93.896817773162951, 24.907778763310493 ], [ 93.905620507987237, 24.88165265542084 ], [ 93.919138993610233, 24.880019773677738 ], [ 93.89901845686903, 24.858792311017396 ], [ 93.923225977635795, 24.858465734668776 ], [ 93.919138993610233, 24.851607631347743 ], [ 93.946175964856238, 24.831033321384645 ], [ 93.932971862619823, 24.80882612967844 ], [ 93.933600629392984, 24.80849955332982 ], [ 93.944604047923335, 24.800008568265685 ], [ 93.933286246006404, 24.751022115972589 ], [ 93.932971862619823, 24.750695539623969 ], [ 93.934229396166145, 24.746450047091901 ], [ 93.941145830670933, 24.719997362853629 ], [ 93.940831447284353, 24.719670786505009 ], [ 93.904362974440915, 24.699423052890531 ], [ 93.904677357827495, 24.674929826743984 ], [ 93.932657479233242, 24.664805959936743 ], [ 93.934858162939307, 24.649130295202951 ], [ 93.934858162939307, 24.648803718854332 ], [ 93.926055428115035, 24.653049211386399 ], [ 93.88864380511184, 24.61581950764365 ], [ 93.911593792332283, 24.611900591460202 ], [ 93.911279408945703, 24.610920862414339 ], [ 93.904677357827495, 24.5913262814971 ], [ 93.911593792332283, 24.573691158671586 ], [ 93.900590373801933, 24.554096577754351 ], [ 93.912536942492025, 24.555076306800213 ], [ 93.871981485623024, 24.551157390616765 ], [ 93.868837651757204, 24.526337588121596 ], [ 93.868837651757204, 24.526337588121596 ], [ 93.857834233226853, 24.529603351607804 ], [ 93.85594793290737, 24.545279016341592 ], [ 93.880784220447296, 24.558342070286418 ], [ 93.860349300319498, 24.566179902653314 ], [ 93.87166710223643, 24.597857808469513 ], [ 93.851860948881807, 24.574344311368829 ], [ 93.85028903194889, 24.583815025478827 ], [ 93.82891096166135, 24.594592044983308 ], [ 93.834884246006411, 24.610594286065719 ], [ 93.805960974440907, 24.617778965735372 ], [ 93.814134942492032, 24.642272191881919 ], [ 93.7993589233227, 24.660560467404675 ], [ 93.803760290734843, 24.676236132138467 ], [ 93.831426028754009, 24.685706846248465 ], [ 93.839285613418539, 24.667745147074328 ], [ 93.864750667731641, 24.658927585661573 ], [ 93.875439702875411, 24.665785688982606 ], [ 93.887386271565504, 24.698116747496048 ], [ 93.875439702875411, 24.702362240028116 ], [ 93.868523268370623, 24.738612214725006 ], [ 93.868523268370623, 24.739265367422245 ], [ 93.833941095846654, 24.721630244596732 ], [ 93.798101389776377, 24.740245096468108 ], [ 93.769806884984035, 24.735019874890178 ], [ 93.792756872204492, 24.765391475311898 ], [ 93.781753453674142, 24.804580637146373 ], [ 93.808476041533567, 24.835931966613952 ], [ 93.806904124600649, 24.864997261641189 ], [ 93.845887664536761, 24.929332802319454 ], [ 93.847773964856245, 24.95447918116324 ], [ 93.863493134185319, 24.960357555438414 ], [ 93.877954769968071, 24.986810239676682 ], [ 93.886443121405762, 24.98485078158496 ], [ 93.909078725239624, 24.974726914777719 ], [ 93.913165709265186, 24.971461151291514 ], [ 93.914108859424928, 24.970807998594271 ], [ 93.886757504792342, 24.939783245475311 ], [ 93.886443121405762, 24.939456669126692 ], [ 93.886757504792342, 24.939456669126692 ], [ 93.908449958466463, 24.929006225970831 ], [ 93.919767760383394, 24.962643589878756 ] ] ] } },
{ "type": "Feature", "properties": { "dt_code": "768", "district": "Kakching", "st_nm": "Manipur", "st_code": "14", "year": "2016_c" }, "geometry": { "type": "Polygon", "coordinates": [ [ [ 93.868837651757204, 24.526337588121596 ], [ 93.868837651757204, 24.526337588121596 ], [ 93.871981485623024, 24.551157390616765 ], [ 93.912536942492025, 24.555076306800213 ], [ 93.921654060702892, 24.576956922157795 ], [ 93.954664316293943, 24.577936651203657 ], [ 93.954664316293943, 24.577936651203657 ], [ 93.960323217252409, 24.555402883148833 ], [ 94.011253325878613, 24.542666405552627 ], [ 94.016597843450498, 24.541360100158144 ], [ 94.021942361022383, 24.52372497733263 ], [ 94.023199894568705, 24.519806061149183 ], [ 94.020684827476046, 24.518826332103323 ], [ 94.021313594249222, 24.510988499736428 ], [ 94.013139626198097, 24.508375888947462 ], [ 94.018484143769982, 24.495639411351256 ], [ 94.020370444089465, 24.491393918819188 ], [ 94.020370444089465, 24.488454731681603 ], [ 94.014397159744419, 24.480290322966088 ], [ 94.020684827476046, 24.457429978562644 ], [ 94.020999210862627, 24.455797096819541 ], [ 94.021313594249222, 24.454817367773678 ], [ 94.026972495207687, 24.456776825865401 ], [ 94.047721798722051, 24.461348894746092 ], [ 94.043320431309922, 24.455797096819541 ], [ 94.037975913738038, 24.448938993498508 ], [ 94.015969076677337, 24.434896210507819 ], [ 94.015654693290742, 24.435549363205062 ], [ 94.011882092651774, 24.444693500966437 ], [ 93.995534156549539, 24.446326382709543 ], [ 94.008423875399373, 24.4456732300123 ], [ 93.993647856230041, 24.467553845369885 ], [ 93.977928686900967, 24.463308352837814 ], [ 93.982958821086271, 24.485188968195398 ], [ 93.967239651757197, 24.488128155332983 ], [ 93.967239651757197, 24.501191209277806 ], [ 93.967239651757197, 24.502497514672289 ], [ 93.966610884984036, 24.501191209277806 ], [ 93.960008833865828, 24.485188968195398 ], [ 93.954978699680524, 24.472452490599192 ], [ 93.96095198402557, 24.471472761553329 ], [ 93.961895134185312, 24.450898451590231 ], [ 93.938316380191708, 24.442734042874715 ], [ 93.955293083067104, 24.438161973994028 ], [ 93.954978699680524, 24.437835397645404 ], [ 93.932657479233242, 24.432283599718854 ], [ 93.949005415335478, 24.423792614654719 ], [ 93.9317143290735, 24.419547122122651 ], [ 93.925741044728454, 24.406484068177825 ], [ 93.923854744408956, 24.421506580214373 ], [ 93.921968444089472, 24.416607934985066 ], [ 93.921339677316311, 24.414321900544721 ], [ 93.919767760383394, 24.410076408012653 ], [ 93.917252693290749, 24.40909667896679 ], [ 93.911279408945703, 24.411056137058516 ], [ 93.911908175718864, 24.407137220875068 ], [ 93.915366392971265, 24.376439044104728 ], [ 93.915366392971265, 24.376765620453348 ], [ 93.906249274760398, 24.385256605517483 ], [ 93.910650642172541, 24.374479586013003 ], [ 93.901847907348255, 24.378725078545074 ], [ 93.901847907348255, 24.378725078545074 ], [ 93.901847907348255, 24.37839850219645 ], [ 93.895874623003209, 24.364682295554385 ], [ 93.897446539936112, 24.353905276049904 ], [ 93.892416405750808, 24.350966088912319 ], [ 93.900590373801933, 24.33071835529784 ], [ 93.889901338658163, 24.312756656123703 ], [ 93.889586955271582, 24.311776927077844 ], [ 93.898075306709273, 24.311450350729224 ], [ 93.900590373801933, 24.29446838060095 ], [ 93.879841070287554, 24.293815227903707 ], [ 93.893045172523969, 24.274220646986471 ], [ 93.883299287539955, 24.270954883500263 ], [ 93.890215722044744, 24.25789182955544 ], [ 93.901847907348255, 24.253972913371992 ], [ 93.889586955271582, 24.211517988051309 ], [ 93.898075306709273, 24.204333308381656 ], [ 93.875754086261992, 24.199108086803726 ], [ 93.862864367412158, 24.208252224565104 ], [ 93.879212303514393, 24.224581041996135 ], [ 93.876697236421734, 24.225887347390618 ], [ 93.858463, 24.234051756106133 ], [ 93.865065051118222, 24.256258947812334 ], [ 93.869780801916946, 24.272587765243369 ], [ 93.878897920127812, 24.281731903004744 ], [ 93.868208884984043, 24.28924315902302 ], [ 93.867894501597462, 24.28924315902302 ], [ 93.866008201277964, 24.292508922509224 ], [ 93.866008201277964, 24.292835498857848 ], [ 93.864436284345061, 24.313083232472327 ], [ 93.85343286581471, 24.313409808820946 ], [ 93.85343286581471, 24.328432320857495 ], [ 93.863493134185319, 24.333984118784045 ], [ 93.850917798722065, 24.343128256545423 ], [ 93.862864367412158, 24.354231852398524 ], [ 93.849345881789148, 24.354231852398524 ], [ 93.851546565495227, 24.379378231242313 ], [ 93.838971230031959, 24.409749831664033 ], [ 93.847459581469664, 24.415301629590584 ], [ 93.837713696485636, 24.426731801792304 ], [ 93.881412987220457, 24.488781308030223 ], [ 93.873553402555928, 24.498578598488844 ], [ 93.883613670926536, 24.508702465296082 ], [ 93.868523268370623, 24.524378130029874 ], [ 93.868837651757204, 24.526337588121596 ] ] ] } },
{ "type": "Feature", "properties": { "dt_code": "275", "district": "Bishnupur", "st_nm": "Manipur", "st_code": "14", "year": "2011_c" }, "geometry": { "type": "MultiPolygon", "coordinates": [ [ [ [ 93.769806884984035, 24.735019874890178 ], [ 93.798101389776377, 24.740245096468108 ], [ 93.833941095846654, 24.721630244596732 ], [ 93.868523268370623, 24.739265367422245 ], [ 93.868523268370623, 24.738612214725006 ], [ 93.875439702875411, 24.702362240028116 ], [ 93.887386271565504, 24.698116747496048 ], [ 93.875439702875411, 24.665785688982606 ], [ 93.864750667731641, 24.658927585661573 ], [ 93.839285613418539, 24.667745147074328 ], [ 93.831426028754009, 24.685706846248465 ], [ 93.803760290734843, 24.676236132138467 ], [ 93.7993589233227, 24.660560467404675 ], [ 93.814134942492032, 24.642272191881919 ], [ 93.805960974440907, 24.617778965735372 ], [ 93.834884246006411, 24.610594286065719 ], [ 93.82891096166135, 24.594592044983308 ], [ 93.85028903194889, 24.583815025478827 ], [ 93.851860948881807, 24.574344311368829 ], [ 93.87166710223643, 24.597857808469513 ], [ 93.860349300319498, 24.566179902653314 ], [ 93.880784220447296, 24.558342070286418 ], [ 93.85594793290737, 24.545279016341592 ], [ 93.857834233226853, 24.529603351607804 ], [ 93.868837651757204, 24.526337588121596 ], [ 93.868523268370623, 24.524378130029874 ], [ 93.883613670926536, 24.508702465296082 ], [ 93.873553402555928, 24.498578598488844 ], [ 93.881412987220457, 24.488781308030223 ], [ 93.837713696485636, 24.426731801792304 ], [ 93.847459581469664, 24.415301629590584 ], [ 93.838971230031959, 24.409749831664033 ], [ 93.851546565495227, 24.379378231242313 ], [ 93.849345881789148, 24.354231852398524 ], [ 93.862864367412158, 24.354231852398524 ], [ 93.850917798722065, 24.343128256545423 ], [ 93.863493134185319, 24.333984118784045 ], [ 93.85343286581471, 24.328432320857495 ], [ 93.85343286581471, 24.313409808820946 ], [ 93.864436284345061, 24.313083232472327 ], [ 93.866008201277964, 24.292835498857848 ], [ 93.861292450479255, 24.301326483921983 ], [ 93.86097806709266, 24.301653060270603 ], [ 93.856576699680531, 24.309164316288879 ], [ 93.851232182108646, 24.306551705499913 ], [ 93.847773964856245, 24.308511163591636 ], [ 93.850917798722065, 24.313409808820946 ], [ 93.837084929712475, 24.313736385169566 ], [ 93.836141779552733, 24.32516655737129 ], [ 93.845887664536761, 24.326146286417149 ], [ 93.835198629392991, 24.335290424178528 ], [ 93.847459581469664, 24.338882764013356 ], [ 93.838656846645378, 24.342475103848184 ], [ 93.837713696485636, 24.362722837462663 ], [ 93.82073699361024, 24.360110226673697 ], [ 93.820422610223659, 24.349006630820593 ], [ 93.812877408945695, 24.358803921279215 ], [ 93.809419191693308, 24.342801680196803 ], [ 93.80753289137381, 24.362396261114039 ], [ 93.779552769968063, 24.358803921279215 ], [ 93.78866988817893, 24.373499856967143 ], [ 93.767606201277971, 24.379378231242313 ], [ 93.772007568690114, 24.390155250746794 ], [ 93.779552769968063, 24.378725078545074 ], [ 93.781753453674142, 24.386236334563346 ], [ 93.786154821086271, 24.376765620453348 ], [ 93.805960974440907, 24.376439044104728 ], [ 93.812248642172534, 24.392114708838516 ], [ 93.783010987220464, 24.402565151994377 ], [ 93.800930840255603, 24.431630447021615 ], [ 93.782067837060723, 24.429344412581269 ], [ 93.787412354632608, 24.417587664030926 ], [ 93.773265102236437, 24.416281358636443 ], [ 93.773265102236437, 24.401911999297138 ], [ 93.746542514377012, 24.408443526269551 ], [ 93.737425396166145, 24.397339930416447 ], [ 93.725793210862633, 24.414648476893341 ], [ 93.716361709265186, 24.40321830469162 ], [ 93.698441856230048, 24.399952541205412 ], [ 93.698127472843467, 24.412362442452995 ], [ 93.697813089456886, 24.424772343700582 ], [ 93.720448693290749, 24.466900692672642 ], [ 93.729880194888196, 24.484862391846775 ], [ 93.732395261980841, 24.562260986469866 ], [ 93.725164444089472, 24.571405124231244 ], [ 93.73459594568692, 24.597204655772273 ], [ 93.738682929712482, 24.608961404322617 ], [ 93.734281562300339, 24.612227167808822 ], [ 93.734281562300339, 24.617778965735372 ], [ 93.736796629392984, 24.624963645405025 ], [ 93.741826763578288, 24.625290221753648 ], [ 93.74276991373803, 24.633781206817783 ], [ 93.749371964856252, 24.681787930065017 ], [ 93.768234968051132, 24.692891525918117 ], [ 93.769806884984035, 24.735019874890178 ] ] ], [ [ [ 93.868208884984043, 24.28924315902302 ], [ 93.878897920127812, 24.281731903004744 ], [ 93.869780801916946, 24.272587765243369 ], [ 93.872610252396186, 24.281078750307504 ], [ 93.868208884984043, 24.28924315902302 ] ] ] ] } },
{ "type": "Feature", "properties": { "dt_code": "280", "district": "Chandel", "st_nm": "Manipur", "st_code": "14", "year": "2011_c" }, "geometry": { "type": "Polygon", "coordinates": [ [ [ 93.862864367412158, 24.208252224565104 ], [ 93.875754086261992, 24.199108086803726 ], [ 93.898075306709273, 24.204333308381656 ], [ 93.889586955271582, 24.211517988051309 ], [ 93.901847907348255, 24.253972913371992 ], [ 93.890215722044744, 24.25789182955544 ], [ 93.883299287539955, 24.270954883500263 ], [ 93.893045172523969, 24.274220646986471 ], [ 93.879841070287554, 24.293815227903707 ], [ 93.900590373801933, 24.29446838060095 ], [ 93.898075306709273, 24.311450350729224 ], [ 93.889586955271582, 24.311776927077844 ], [ 93.889901338658163, 24.312756656123703 ], [ 93.900590373801933, 24.33071835529784 ], [ 93.892416405750808, 24.350966088912319 ], [ 93.897446539936112, 24.353905276049904 ], [ 93.895874623003209, 24.364682295554385 ], [ 93.901847907348255, 24.37839850219645 ], [ 93.901847907348255, 24.378725078545074 ], [ 93.901847907348255, 24.378725078545074 ], [ 93.910650642172541, 24.374479586013003 ], [ 93.906249274760398, 24.385256605517483 ], [ 93.915366392971265, 24.376765620453348 ], [ 93.915366392971265, 24.376439044104728 ], [ 93.911908175718864, 24.407137220875068 ], [ 93.911279408945703, 24.411056137058516 ], [ 93.917252693290749, 24.40909667896679 ], [ 93.919767760383394, 24.410076408012653 ], [ 93.921339677316311, 24.414321900544721 ], [ 93.921968444089472, 24.416607934985066 ], [ 93.923854744408956, 24.421506580214373 ], [ 93.925741044728454, 24.406484068177825 ], [ 93.9317143290735, 24.419547122122651 ], [ 93.949005415335478, 24.423792614654719 ], [ 93.932657479233242, 24.432283599718854 ], [ 93.954978699680524, 24.437835397645404 ], [ 93.955293083067104, 24.438161973994028 ], [ 93.938316380191708, 24.442734042874715 ], [ 93.961895134185312, 24.450898451590231 ], [ 93.96095198402557, 24.471472761553329 ], [ 93.954978699680524, 24.472452490599192 ], [ 93.960008833865828, 24.485188968195398 ], [ 93.966610884984036, 24.501191209277806 ], [ 93.967239651757197, 24.502497514672289 ], [ 93.967239651757197, 24.501191209277806 ], [ 93.967239651757197, 24.488128155332983 ], [ 93.982958821086271, 24.485188968195398 ], [ 93.977928686900967, 24.463308352837814 ], [ 93.993647856230041, 24.467553845369885 ], [ 94.008423875399373, 24.4456732300123 ], [ 93.995534156549539, 24.446326382709543 ], [ 94.011882092651774, 24.444693500966437 ], [ 94.015654693290742, 24.435549363205062 ], [ 94.015969076677337, 24.434896210507819 ], [ 94.037975913738038, 24.448938993498508 ], [ 94.059039600638997, 24.424772343700582 ], [ 94.098966290734836, 24.419873698471271 ], [ 94.11154162619809, 24.397339930416447 ], [ 94.147695715654962, 24.382643994728518 ], [ 94.153354616613427, 24.300999907573363 ], [ 94.202712808306728, 24.266709390968195 ], [ 94.211201159744419, 24.245155351959234 ], [ 94.196425140575087, 24.133792817079598 ], [ 94.252385383386596, 24.114198236162363 ], [ 94.25458606709266, 24.08252033034616 ], [ 94.239495664536747, 24.052801882621683 ], [ 94.227863479233235, 24.056720798805131 ], [ 94.237294980830683, 24.035166759796169 ], [ 94.188251172523977, 23.959727623264804 ], [ 94.18982308945688, 23.933601515375155 ], [ 94.169702552715663, 23.928376293797225 ], [ 94.156498450479248, 23.848365088385169 ], [ 94.144866265175736, 23.849997970128275 ], [ 94.143923115015994, 23.835628610788966 ], [ 94.133862846645386, 23.833016 ], [ 94.116571760383394, 23.838567797926551 ], [ 94.09613684025561, 23.88951370831137 ], [ 94.048979332268388, 23.887554250219647 ], [ 94.040490980830683, 23.910741170971711 ], [ 94.016597843450498, 23.927069988402742 ], [ 93.975099236421741, 23.924457377613777 ], [ 93.944289664536754, 23.946011416622738 ], [ 93.893673939297145, 23.953196096292391 ], [ 93.859091766773176, 23.931968633632053 ], [ 93.807847274760405, 23.927069988402742 ], [ 93.772007568690114, 23.969198337374802 ], [ 93.759117849840266, 24.00348885397997 ], [ 93.740883613418546, 24.006428041117555 ], [ 93.740569230031966, 24.007407770163418 ], [ 93.774208252396178, 24.095583384290986 ], [ 93.774522635782759, 24.096889689685469 ], [ 93.775780169329096, 24.099828876823054 ], [ 93.775780169329096, 24.106033827446847 ], [ 93.780495920127805, 24.137058580565807 ], [ 93.788984271565511, 24.144569836584083 ], [ 93.815078092651774, 24.167103604638903 ], [ 93.836141779552733, 24.1860450328589 ], [ 93.850917798722065, 24.213804022491654 ], [ 93.861292450479255, 24.206619342822002 ], [ 93.861921217252416, 24.207272495519241 ], [ 93.862864367412158, 24.208252224565104 ] ] ] } },
{ "type": "Feature", "properties": { "dt_code": "274", "district": "Churachandpur", "st_nm": "Manipur", "st_code": "14", "year": "2011_c" }, "geometry": { "type": "Polygon", "coordinates": [ [ [ 93.862864367412158, 24.208252224565104 ], [ 93.861921217252416, 24.207272495519241 ], [ 93.861292450479255, 24.206619342822002 ], [ 93.850917798722065, 24.213804022491654 ], [ 93.836141779552733, 24.1860450328589 ], [ 93.815078092651774, 24.167103604638903 ], [ 93.788984271565511, 24.144569836584083 ], [ 93.780495920127805, 24.137058580565807 ], [ 93.775780169329096, 24.106033827446847 ], [ 93.775780169329096, 24.099828876823054 ], [ 93.774522635782759, 24.096889689685469 ], [ 93.774208252396178, 24.095583384290986 ], [ 93.740569230031966, 24.007407770163418 ], [ 93.740883613418546, 24.006428041117555 ], [ 93.741826763578288, 23.997283903356177 ], [ 93.623932993610239, 24.011326686346862 ], [ 93.608842591054326, 23.971810948163768 ], [ 93.591551504792349, 23.960707352310667 ], [ 93.55948439936104, 23.981934814971009 ], [ 93.550367281150173, 23.959401046916184 ], [ 93.505096073482449, 23.94241907678791 ], [ 93.461711166134208, 23.976383017044459 ], [ 93.463597466453692, 23.993691563521349 ], [ 93.433102277955285, 24.024389740291689 ], [ 93.416439958466469, 24.071743310841679 ], [ 93.377456418530372, 24.088398704621333 ], [ 93.39506188817893, 24.18506530381304 ], [ 93.478373485623024, 24.249400844491301 ], [ 93.491263204472858, 24.365662024600248 ], [ 93.365509849840279, 24.383623723774381 ], [ 93.350105063897786, 24.400605693902655 ], [ 93.361422865814717, 24.447306111755402 ], [ 93.38437285303516, 24.465267810929539 ], [ 93.392232437699704, 24.497925445791601 ], [ 93.408580373801939, 24.510988499736428 ], [ 93.38437285303516, 24.528297046213321 ], [ 93.388145453674142, 24.568139360745036 ], [ 93.396319421725252, 24.573691158671586 ], [ 93.39820572204475, 24.574997464066069 ], [ 93.448821447284359, 24.540706947460905 ], [ 93.47082828434506, 24.57401773502021 ], [ 93.489691287539955, 24.555076306800213 ], [ 93.512012507987237, 24.565853326304694 ], [ 93.531504277955293, 24.556709188543316 ], [ 93.539363862619822, 24.576303769460552 ], [ 93.567972750798745, 24.592959163240206 ], [ 93.595638488817912, 24.566179902653314 ], [ 93.628019977635802, 24.606675369882272 ], [ 93.649083664536761, 24.592632586891582 ], [ 93.661973383386595, 24.607981675276754 ], [ 93.697813089456886, 24.613206896854685 ], [ 93.714789792332283, 24.605695640836409 ], [ 93.722649376996827, 24.62104472922158 ], [ 93.734281562300339, 24.617452389386752 ], [ 93.734281562300339, 24.617778965735372 ], [ 93.734281562300339, 24.612227167808822 ], [ 93.738682929712482, 24.608961404322617 ], [ 93.73459594568692, 24.597204655772273 ], [ 93.725164444089472, 24.571405124231244 ], [ 93.732395261980841, 24.562260986469866 ], [ 93.729880194888196, 24.484862391846775 ], [ 93.720448693290749, 24.466900692672642 ], [ 93.697813089456886, 24.424772343700582 ], [ 93.698127472843467, 24.412362442452995 ], [ 93.698441856230048, 24.399952541205412 ], [ 93.716361709265186, 24.40321830469162 ], [ 93.725793210862633, 24.414648476893341 ], [ 93.737425396166145, 24.397339930416447 ], [ 93.746542514377012, 24.408443526269551 ], [ 93.773265102236437, 24.401911999297138 ], [ 93.773265102236437, 24.416281358636443 ], [ 93.787412354632608, 24.417587664030926 ], [ 93.782067837060723, 24.429344412581269 ], [ 93.800930840255603, 24.431630447021615 ], [ 93.783010987220464, 24.402565151994377 ], [ 93.812248642172534, 24.392114708838516 ], [ 93.805960974440907, 24.376439044104728 ], [ 93.786154821086271, 24.376765620453348 ], [ 93.781753453674142, 24.386236334563346 ], [ 93.779552769968063, 24.378725078545074 ], [ 93.772007568690114, 24.390155250746794 ], [ 93.767606201277971, 24.379378231242313 ], [ 93.78866988817893, 24.373499856967143 ], [ 93.779552769968063, 24.358803921279215 ], [ 93.80753289137381, 24.362396261114039 ], [ 93.809419191693308, 24.342801680196803 ], [ 93.812877408945695, 24.358803921279215 ], [ 93.820422610223659, 24.349006630820593 ], [ 93.82073699361024, 24.360110226673697 ], [ 93.837713696485636, 24.362722837462663 ], [ 93.838656846645378, 24.342475103848184 ], [ 93.847459581469664, 24.338882764013356 ], [ 93.835198629392991, 24.335290424178528 ], [ 93.845887664536761, 24.326146286417149 ], [ 93.836141779552733, 24.32516655737129 ], [ 93.837084929712475, 24.313736385169566 ], [ 93.850917798722065, 24.313409808820946 ], [ 93.847773964856245, 24.308511163591636 ], [ 93.851232182108646, 24.306551705499913 ], [ 93.856576699680531, 24.309164316288879 ], [ 93.86097806709266, 24.301653060270603 ], [ 93.861292450479255, 24.301326483921983 ], [ 93.866008201277964, 24.292835498857848 ], [ 93.866008201277964, 24.292508922509224 ], [ 93.867894501597462, 24.28924315902302 ], [ 93.868208884984043, 24.28924315902302 ], [ 93.872610252396186, 24.281078750307504 ], [ 93.869780801916946, 24.272587765243369 ], [ 93.865065051118222, 24.256258947812334 ], [ 93.858463, 24.234051756106133 ], [ 93.876697236421734, 24.225887347390618 ], [ 93.879212303514393, 24.224581041996135 ], [ 93.862864367412158, 24.208252224565104 ] ] ] } },
{ "type": "Feature", "properties": { "dt_code": "278", "district": "Imphal East", "st_nm": "Manipur", "st_code": "14", "year": "2011_c" }, "geometry": { "type": "Polygon", "coordinates": [ [ [ 93.940831447284353, 24.719670786505009 ], [ 93.941145830670933, 24.719997362853629 ], [ 93.934229396166145, 24.746450047091901 ], [ 93.932971862619823, 24.750695539623969 ], [ 93.933286246006404, 24.751022115972589 ], [ 93.944604047923335, 24.800008568265685 ], [ 93.933600629392984, 24.80849955332982 ], [ 93.932971862619823, 24.80882612967844 ], [ 93.946175964856238, 24.831033321384645 ], [ 93.919138993610233, 24.851607631347743 ], [ 93.923225977635795, 24.858465734668776 ], [ 93.89901845686903, 24.858792311017396 ], [ 93.919138993610233, 24.880019773677738 ], [ 93.905620507987237, 24.88165265542084 ], [ 93.896817773162951, 24.907778763310493 ], [ 93.915366392971265, 24.910717950448078 ], [ 93.911908175718864, 24.899940930943597 ], [ 93.933915012779565, 24.898961201897734 ], [ 93.94994856549522, 24.897981472851871 ], [ 93.96095198402557, 24.914636866631525 ], [ 93.947119115015994, 24.918882359163593 ], [ 93.963152667731649, 24.926393615181865 ], [ 93.951834865814718, 24.937823787383589 ], [ 93.951834865814718, 24.937823787383589 ], [ 93.960323217252409, 24.938150363732209 ], [ 93.968497185303534, 24.93749721103497 ], [ 93.976985536741225, 24.914963442980145 ], [ 93.984216354632608, 24.92345442804428 ], [ 93.98515950479235, 24.924760733438763 ], [ 93.981386904153368, 24.947294501493587 ], [ 93.953721166134201, 24.951213417677035 ], [ 93.953406782747621, 24.964929624319101 ], [ 93.991447172523976, 24.95415260481462 ], [ 93.982015670926529, 24.969175116851169 ], [ 93.995219773162958, 24.968521964153929 ], [ 94.001193057508004, 24.950560264979792 ], [ 94.012510859424935, 24.955785486557723 ], [ 94.013768392971258, 24.956438639254966 ], [ 94.020684827476046, 24.998566988227026 ], [ 93.997734840255603, 24.994321495694958 ], [ 94.019427293929724, 25.004445362502196 ], [ 94.016283460063917, 25.044940829731154 ], [ 94.026658111821106, 25.053431814795292 ], [ 94.027915645367429, 25.023386790722192 ], [ 94.047721798722051, 25.013589500263574 ], [ 94.030116329073493, 25.011630042171852 ], [ 94.029173178913751, 24.999546717272889 ], [ 94.040490980830683, 25.004771938850819 ], [ 94.04992248242813, 24.994974648392198 ], [ 94.033260162939314, 24.992688613951856 ], [ 94.031059479233235, 24.985830510630823 ], [ 94.046778648562309, 24.981911594447375 ], [ 94.030116329073493, 24.976033220172202 ], [ 94.027915645367429, 24.963949895273238 ], [ 94.041748514377005, 24.969501693199788 ], [ 94.039862214057521, 24.952519723071518 ], [ 94.055895766773176, 24.950233688631172 ], [ 94.044892348242826, 24.94304900896152 ], [ 94.059039600638997, 24.936844058337726 ], [ 94.056210150159757, 24.880999502723601 ], [ 94.084819038338665, 24.886551300650151 ], [ 94.089534789137389, 24.901247236338079 ], [ 94.120029977635795, 24.919862088209456 ], [ 94.121287511182118, 24.935537752943244 ], [ 94.134491613418547, 24.919208935512213 ], [ 94.1065114920128, 24.878386891934635 ], [ 94.10085259105432, 24.852913936742226 ], [ 94.085762188498421, 24.848668444210158 ], [ 94.099280674121417, 24.823195489017749 ], [ 94.085762188498421, 24.819276572834301 ], [ 94.067842335463268, 24.745143741697419 ], [ 94.054638233226854, 24.740245096468108 ], [ 94.059668367412158, 24.728161771569145 ], [ 94.052751932907356, 24.723263126339837 ], [ 94.04992248242813, 24.721303668248112 ], [ 94.0606115175719, 24.719670786505009 ], [ 94.052751932907356, 24.69387125496398 ], [ 94.065327268370623, 24.705954579862944 ], [ 94.07947452076678, 24.689952338780532 ], [ 94.032631396166153, 24.668724876120191 ], [ 94.025086194888189, 24.674929826743984 ], [ 94.010624559105452, 24.651089753294677 ], [ 94.001821824281166, 24.686686575294324 ], [ 93.973841702875418, 24.666112265331225 ], [ 93.957808150159764, 24.670357757863293 ], [ 93.95309239936104, 24.684400540853982 ], [ 93.962523900958487, 24.692891525918117 ], [ 93.945547198083077, 24.709873496046391 ], [ 93.942717747603851, 24.71934421015639 ], [ 93.94208898083069, 24.720323939202249 ], [ 93.940831447284353, 24.719670786505009 ] ] ] } },
{ "type": "Feature", "properties": { "dt_code": "766", "district": "Jiribam", "st_nm": "Manipur", "st_code": "14", "year": "2016_c" }, "geometry": { "type": "Polygon", "coordinates": [ [ [ 93.176565434504809, 24.794783346687755 ], [ 93.175622284345067, 24.794130193990512 ], [ 93.177822968051132, 24.792497312247409 ], [ 93.232211293929737, 24.752654997715691 ], [ 93.222151025559128, 24.721956820945355 ], [ 93.200772955271589, 24.704321698119838 ], [ 93.200458571885008, 24.703995121771218 ], [ 93.209575690095861, 24.701382510982253 ], [ 93.216177741214082, 24.699423052890531 ], [ 93.216177741214082, 24.699423052890531 ], [ 93.215234591054326, 24.697137018450185 ], [ 93.208946923322699, 24.68864603338605 ], [ 93.204231172523976, 24.674603250395361 ], [ 93.218692808306727, 24.671664063257776 ], [ 93.213348290734842, 24.667091994377088 ], [ 93.208003773162957, 24.662193349147778 ], [ 93.207689389776377, 24.662193349147778 ], [ 93.221836642172548, 24.639006428395714 ], [ 93.209575690095861, 24.62724967984537 ], [ 93.217120891373824, 24.593612315937445 ], [ 93.202659255591072, 24.586101059919173 ], [ 93.205488706070312, 24.569119089790899 ], [ 93.19071268690098, 24.570098818836762 ], [ 93.190398303514399, 24.570098818836762 ], [ 93.196685971246026, 24.563567291864349 ], [ 93.17719420127797, 24.536134878580214 ], [ 93.122805875399379, 24.554096577754351 ], [ 93.087594936102263, 24.572384853277104 ], [ 93.103942872204499, 24.58512133087331 ], [ 93.071247, 24.599817266561239 ], [ 93.084136718849862, 24.613533473203304 ], [ 93.075648367412157, 24.624637069056405 ], [ 93.086966169329088, 24.629535714285716 ], [ 93.08287918530354, 24.650110024248814 ], [ 93.095140137380213, 24.653049211386399 ], [ 93.103942872204499, 24.675582979441224 ], [ 93.090110003194908, 24.677542437532949 ], [ 93.073447683706092, 24.707914037954666 ], [ 93.086651785942507, 24.709546919697768 ], [ 93.107401089456886, 24.741224825513971 ], [ 93.097969587859438, 24.746776623440521 ], [ 93.100170271565517, 24.779434258302583 ], [ 93.109287389776384, 24.811438740467405 ], [ 93.121233958466476, 24.819276572834301 ], [ 93.118090124600656, 24.808172976981201 ], [ 93.138210661341873, 24.810132435072923 ], [ 93.148585313099062, 24.787598667018099 ], [ 93.173107217252422, 24.801968026357407 ], [ 93.176565434504809, 24.794783346687755 ] ] ] } },
{ "type": "Feature", "properties": { "dt_code": "767", "district": "Kangpokpi", "st_nm": "Manipur", "st_code": "14", "year": "2016_c" }, "geometry": { "type": "Polygon", "coordinates": [ [ [ 94.166873102236437, 24.927046767879109 ], [ 94.156184067092667, 24.883938689861186 ], [ 94.13920736421727, 24.87022248321912 ], [ 94.14675256549522, 24.829727015990162 ], [ 94.132919696485629, 24.802621179054647 ], [ 94.16058543450481, 24.794783346687755 ], [ 94.17913405431311, 24.76735093340362 ], [ 94.172217619808322, 24.733713569495695 ], [ 94.187622405750815, 24.715751870321562 ], [ 94.182592271565511, 24.671664063257776 ], [ 94.197053907348248, 24.655008669478125 ], [ 94.200197741214069, 24.625290221753648 ], [ 94.172217619808322, 24.632148325074681 ], [ 94.170331319488824, 24.632474901423301 ], [ 94.168130635782759, 24.633128054120544 ], [ 94.135120380191708, 24.61581950764365 ], [ 94.120029977635795, 24.625943374450888 ], [ 94.109655325878606, 24.63280147777192 ], [ 94.096765607028772, 24.664479383588123 ], [ 94.095193690095854, 24.668398299771571 ], [ 94.094879306709274, 24.668724876120191 ], [ 94.114999843450491, 24.676889284835706 ], [ 94.117829293929731, 24.68897260973467 ], [ 94.141722431309915, 24.689625762431909 ], [ 94.117200527156569, 24.69974962923915 ], [ 94.127575178913744, 24.73012122966087 ], [ 94.116257376996813, 24.709546919697768 ], [ 94.098023140575094, 24.715425293972942 ], [ 94.10368204153356, 24.709873496046391 ], [ 94.090477939297131, 24.691911796872255 ], [ 94.080103287539956, 24.68897260973467 ], [ 94.07947452076678, 24.689952338780532 ], [ 94.065327268370623, 24.705954579862944 ], [ 94.052751932907356, 24.69387125496398 ], [ 94.0606115175719, 24.719670786505009 ], [ 94.04992248242813, 24.721303668248112 ], [ 94.052751932907356, 24.723263126339837 ], [ 94.059668367412158, 24.728161771569145 ], [ 94.054638233226854, 24.740245096468108 ], [ 94.067842335463268, 24.745143741697419 ], [ 94.085762188498421, 24.819276572834301 ], [ 94.099280674121417, 24.823195489017749 ], [ 94.085762188498421, 24.848668444210158 ], [ 94.10085259105432, 24.852913936742226 ], [ 94.1065114920128, 24.878386891934635 ], [ 94.134491613418547, 24.919208935512213 ], [ 94.121287511182118, 24.935537752943244 ], [ 94.120029977635795, 24.919862088209456 ], [ 94.089534789137389, 24.901247236338079 ], [ 94.084819038338665, 24.886551300650151 ], [ 94.056210150159757, 24.880999502723601 ], [ 94.059039600638997, 24.936844058337726 ], [ 94.044892348242826, 24.94304900896152 ], [ 94.055895766773176, 24.950233688631172 ], [ 94.039862214057521, 24.952519723071518 ], [ 94.041748514377005, 24.969501693199788 ], [ 94.027915645367429, 24.963949895273238 ], [ 94.030116329073493, 24.976033220172202 ], [ 94.046778648562309, 24.981911594447375 ], [ 94.031059479233235, 24.985830510630823 ], [ 94.033260162939314, 24.992688613951856 ], [ 94.04992248242813, 24.994974648392198 ], [ 94.040490980830683, 25.004771938850819 ], [ 94.029173178913751, 24.999546717272889 ], [ 94.030116329073493, 25.011630042171852 ], [ 94.047721798722051, 25.013589500263574 ], [ 94.027915645367429, 25.023386790722192 ], [ 94.026658111821106, 25.053431814795292 ], [ 94.016283460063917, 25.044940829731154 ], [ 94.019427293929724, 25.004445362502196 ], [ 93.997734840255603, 24.994321495694958 ], [ 94.020684827476046, 24.998566988227026 ], [ 94.013768392971258, 24.956438639254966 ], [ 94.012510859424935, 24.955785486557723 ], [ 94.001193057508004, 24.950560264979792 ], [ 93.995219773162958, 24.968521964153929 ], [ 93.982015670926529, 24.969175116851169 ], [ 93.991447172523976, 24.95415260481462 ], [ 93.953406782747621, 24.964929624319101 ], [ 93.953721166134201, 24.951213417677035 ], [ 93.981386904153368, 24.947294501493587 ], [ 93.98515950479235, 24.924760733438763 ], [ 93.984216354632608, 24.92345442804428 ], [ 93.976985536741225, 24.914963442980145 ], [ 93.968497185303534, 24.93749721103497 ], [ 93.960323217252409, 24.938150363732209 ], [ 93.951834865814718, 24.937823787383589 ], [ 93.951834865814718, 24.937823787383589 ], [ 93.963152667731649, 24.926393615181865 ], [ 93.947119115015994, 24.918882359163593 ], [ 93.96095198402557, 24.914636866631525 ], [ 93.94994856549522, 24.897981472851871 ], [ 93.933915012779565, 24.898961201897734 ], [ 93.911908175718864, 24.899940930943597 ], [ 93.915366392971265, 24.910717950448078 ], [ 93.915995159744426, 24.913657137585663 ], [ 93.932028712460081, 24.967868811456686 ], [ 93.919767760383394, 24.962643589878756 ], [ 93.908449958466463, 24.929006225970831 ], [ 93.886757504792342, 24.939456669126692 ], [ 93.886443121405762, 24.939456669126692 ], [ 93.886757504792342, 24.939783245475311 ], [ 93.914108859424928, 24.970807998594271 ], [ 93.913165709265186, 24.971461151291514 ], [ 93.909078725239624, 24.974726914777719 ], [ 93.886443121405762, 24.98485078158496 ], [ 93.877954769968071, 24.986810239676682 ], [ 93.863493134185319, 24.960357555438414 ], [ 93.847773964856245, 24.95447918116324 ], [ 93.845887664536761, 24.929332802319454 ], [ 93.806904124600649, 24.864997261641189 ], [ 93.808476041533567, 24.835931966613952 ], [ 93.781753453674142, 24.804580637146373 ], [ 93.792756872204492, 24.765391475311898 ], [ 93.769806884984035, 24.735019874890178 ], [ 93.768234968051132, 24.692891525918117 ], [ 93.749371964856252, 24.681787930065017 ], [ 93.74276991373803, 24.633781206817783 ], [ 93.741826763578288, 24.625290221753648 ], [ 93.736796629392984, 24.624963645405025 ], [ 93.736796629392984, 24.624963645405025 ], [ 93.729251428115035, 24.624310492707785 ], [ 93.708187741214076, 24.644884802670884 ], [ 93.732709645367422, 24.66382623089088 ], [ 93.72390691054315, 24.691911796872255 ], [ 93.738682929712482, 24.704321698119838 ], [ 93.726421977635795, 24.747103199789141 ], [ 93.743713063897772, 24.764738322614654 ], [ 93.749057581469657, 24.791191006852927 ], [ 93.757545932907362, 24.791844159550166 ], [ 93.757545932907362, 24.79217073589879 ], [ 93.757231549520782, 24.79217073589879 ], [ 93.750315115015994, 24.800008568265685 ], [ 93.743713063897772, 24.807519824283958 ], [ 93.743713063897772, 24.808172976981201 ], [ 93.771064418530372, 24.848015291512915 ], [ 93.772007568690114, 24.849321596907398 ], [ 93.772007568690114, 24.849648173256018 ], [ 93.758803466453685, 24.907452186961869 ], [ 93.79967330670928, 24.957418368300829 ], [ 93.790556188498414, 25.016528687401159 ], [ 93.816021242811516, 25.023060214373572 ], [ 93.816964392971258, 25.023386790722192 ], [ 93.813820559105451, 25.029591741345985 ], [ 93.79652947284346, 25.082497109822526 ], [ 93.796843856230041, 25.101111961693903 ], [ 93.772636335463275, 25.154017330170447 ], [ 93.792442488817912, 25.167406960463893 ], [ 93.826081511182124, 25.222271787032156 ], [ 93.853747249201291, 25.228803314004569 ], [ 93.902791057507997, 25.272237968371112 ], [ 93.926055428115035, 25.270605086628009 ], [ 93.942717747603851, 25.279422648040768 ], [ 93.953721166134201, 25.285301022315938 ], [ 93.955607466453685, 25.286280751361801 ], [ 93.954349932907363, 25.287587056756283 ], [ 93.919138993610233, 25.327755947636621 ], [ 93.887700654952084, 25.335267203654894 ], [ 93.903419824281158, 25.370864025654544 ], [ 93.913480092651767, 25.38458023229661 ], [ 93.922597210862634, 25.389152301177297 ], [ 93.92071091054315, 25.394377522755228 ], [ 93.921339677316311, 25.395357251801091 ], [ 93.960323217252409, 25.391438335617643 ], [ 93.987674571884995, 25.374782941837992 ], [ 93.991761555910557, 25.347350528553857 ], [ 93.970697869009598, 25.292485701985591 ], [ 94.017226610223659, 25.253296540151116 ], [ 93.997420456869023, 25.192226762959059 ], [ 94.072872469648573, 25.170346147601478 ], [ 94.193281306709281, 25.186674965032509 ], [ 94.214030610223659, 25.175244792830785 ], [ 94.179448437699691, 25.167733536812513 ], [ 94.16058543450481, 25.142587157968723 ], [ 94.164672418530358, 25.133116443858725 ], [ 94.149267632587879, 25.134422749253208 ], [ 94.132290929712468, 25.118747084519416 ], [ 94.131976546325888, 25.118420508170797 ], [ 94.12223066134186, 25.085436296960115 ], [ 94.11751491054315, 25.070087208574943 ], [ 94.11751491054315, 25.069760632226323 ], [ 94.148638865814704, 25.035143539272536 ], [ 94.145180648562317, 24.998893564575646 ], [ 94.145180648562317, 24.998893564575646 ], [ 94.145180648562317, 24.998566988227026 ], [ 94.171588853035161, 24.93749721103497 ], [ 94.170331319488824, 24.934231447548761 ], [ 94.166873102236437, 24.927046767879109 ] ] ] } },
{ "type": "Feature", "properties": { "dt_code": "276", "district": "Thoubal", "st_nm": "Manipur", "st_code": "14", "year": "2011_c" }, "geometry": { "type": "Polygon", "coordinates": [ [ [ 93.912536942492025, 24.555076306800213 ], [ 93.900590373801933, 24.554096577754351 ], [ 93.911593792332283, 24.573691158671586 ], [ 93.904677357827495, 24.5913262814971 ], [ 93.911279408945703, 24.610920862414339 ], [ 93.911593792332283, 24.611900591460202 ], [ 93.88864380511184, 24.61581950764365 ], [ 93.926055428115035, 24.653049211386399 ], [ 93.934858162939307, 24.648803718854332 ], [ 93.934858162939307, 24.649130295202951 ], [ 93.932657479233242, 24.664805959936743 ], [ 93.904677357827495, 24.674929826743984 ], [ 93.904362974440915, 24.699423052890531 ], [ 93.940831447284353, 24.719670786505009 ], [ 93.94208898083069, 24.720323939202249 ], [ 93.942717747603851, 24.71934421015639 ], [ 93.945547198083077, 24.709873496046391 ], [ 93.962523900958487, 24.692891525918117 ], [ 93.95309239936104, 24.684400540853982 ], [ 93.957808150159764, 24.670357757863293 ], [ 93.973841702875418, 24.666112265331225 ], [ 94.001821824281166, 24.686686575294324 ], [ 94.010624559105452, 24.651089753294677 ], [ 94.025086194888189, 24.674929826743984 ], [ 94.032631396166153, 24.668724876120191 ], [ 94.07947452076678, 24.689952338780532 ], [ 94.080103287539956, 24.68897260973467 ], [ 94.090477939297131, 24.691911796872255 ], [ 94.10368204153356, 24.709873496046391 ], [ 94.098023140575094, 24.715425293972942 ], [ 94.116257376996813, 24.709546919697768 ], [ 94.127575178913744, 24.73012122966087 ], [ 94.117200527156569, 24.69974962923915 ], [ 94.141722431309915, 24.689625762431909 ], [ 94.117829293929731, 24.68897260973467 ], [ 94.114999843450491, 24.676889284835706 ], [ 94.094879306709274, 24.668724876120191 ], [ 94.095193690095854, 24.668398299771571 ], [ 94.096765607028772, 24.664479383588123 ], [ 94.109655325878606, 24.63280147777192 ], [ 94.120029977635795, 24.625943374450888 ], [ 94.124116961661358, 24.619085271129855 ], [ 94.112170392971265, 24.612553744157442 ], [ 94.09613684025561, 24.610920862414339 ], [ 94.087962872204486, 24.599817266561239 ], [ 94.099280674121417, 24.599817266561239 ], [ 94.088591638977647, 24.595245197680548 ], [ 94.092364239616629, 24.583488449130208 ], [ 94.103367658146979, 24.577610074855034 ], [ 94.098966290734836, 24.567812784396416 ], [ 94.11154162619809, 24.574344311368829 ], [ 94.1065114920128, 24.567486208047796 ], [ 94.114056693290749, 24.564547020910211 ], [ 94.104939575079882, 24.564220444561588 ], [ 94.124745728434519, 24.540053794763661 ], [ 94.086705338658163, 24.569772242488138 ], [ 94.077902603833877, 24.54331955824987 ], [ 94.067527952076688, 24.564220444561588 ], [ 94.067842335463268, 24.540053794763661 ], [ 94.076016303514393, 24.522418671938148 ], [ 94.087648488817905, 24.520132637497806 ], [ 94.074444386581476, 24.515560568617115 ], [ 94.07130055271567, 24.517193450360217 ], [ 94.066899185303527, 24.526011011772976 ], [ 94.057153300319499, 24.52405155368125 ], [ 94.063755351437706, 24.528623622561941 ], [ 94.056210150159757, 24.538747489369179 ], [ 94.044577964856245, 24.527970469864698 ], [ 94.034517696485636, 24.550504237919522 ], [ 94.033574546325895, 24.552137119662625 ], [ 94.033888929712475, 24.54887135617642 ], [ 94.035146463258798, 24.523071824635391 ], [ 94.034203313099056, 24.523071824635391 ], [ 94.02540057827477, 24.520459213846426 ], [ 94.023199894568705, 24.519806061149183 ], [ 94.021942361022383, 24.52372497733263 ], [ 94.016597843450498, 24.541360100158144 ], [ 94.011253325878613, 24.542666405552627 ], [ 93.960323217252409, 24.555402883148833 ], [ 93.954664316293943, 24.577936651203657 ], [ 93.954664316293943, 24.577936651203657 ], [ 93.921654060702892, 24.576956922157795 ], [ 93.912536942492025, 24.555076306800213 ] ] ] } },
{ "type": "Feature", "properties": { "dt_code": "769", "district": "Tengnoupal", "st_nm": "Manipur", "st_code": "14", "year": "2016_c" }, "geometry": { "type": "Polygon", "coordinates": [ [ [ 94.172217619808322, 24.632148325074681 ], [ 94.211829926517581, 24.61581950764365 ], [ 94.247984015974453, 24.617452389386752 ], [ 94.264017568690107, 24.596224926726411 ], [ 94.264646335463269, 24.595571774029171 ], [ 94.281937421725246, 24.600796995607098 ], [ 94.310546309904169, 24.571078547882621 ], [ 94.333181913738031, 24.565200173607451 ], [ 94.330981230031966, 24.54919793252504 ], [ 94.37279422044729, 24.547891627130557 ], [ 94.361162035143778, 24.518826332103323 ], [ 94.361476418530359, 24.518826332103323 ], [ 94.376566821086271, 24.51262138147953 ], [ 94.374680520766788, 24.494333105956773 ], [ 94.374680520766788, 24.494333105956773 ], [ 94.374680520766788, 24.494006529608153 ], [ 94.406118859424936, 24.483556086452293 ], [ 94.398259274760392, 24.482576357406433 ], [ 94.396687357827489, 24.454817367773678 ], [ 94.407062009584678, 24.437182244948165 ], [ 94.394801057508005, 24.40942325531541 ], [ 94.360847651757197, 24.394400743278862 ], [ 94.378453121405755, 24.379704807590933 ], [ 94.350473, 24.334963847829908 ], [ 94.3218641118211, 24.328758897206114 ], [ 94.3218641118211, 24.276180105078193 ], [ 94.306773709265187, 24.241563012124409 ], [ 94.291368923322693, 24.232745450711651 ], [ 94.27627852076678, 24.173308555262697 ], [ 94.259616201277964, 24.165144146547181 ], [ 94.252385383386596, 24.114198236162363 ], [ 94.196425140575087, 24.133792817079598 ], [ 94.211201159744419, 24.245155351959234 ], [ 94.202712808306728, 24.266709390968195 ], [ 94.153354616613427, 24.300999907573363 ], [ 94.147695715654962, 24.382643994728518 ], [ 94.11154162619809, 24.397339930416447 ], [ 94.098966290734836, 24.419873698471271 ], [ 94.059039600638997, 24.424772343700582 ], [ 94.037975913738038, 24.448938993498508 ], [ 94.043320431309922, 24.455797096819541 ], [ 94.047721798722051, 24.461348894746092 ], [ 94.026972495207687, 24.456776825865401 ], [ 94.021313594249222, 24.454817367773678 ], [ 94.020999210862627, 24.455797096819541 ], [ 94.020684827476046, 24.457429978562644 ], [ 94.014397159744419, 24.480290322966088 ], [ 94.020370444089465, 24.488454731681603 ], [ 94.020370444089465, 24.491393918819188 ], [ 94.018484143769982, 24.495639411351256 ], [ 94.013139626198097, 24.508375888947462 ], [ 94.021313594249222, 24.510988499736428 ], [ 94.020684827476046, 24.518826332103323 ], [ 94.023199894568705, 24.519806061149183 ], [ 94.02540057827477, 24.520459213846426 ], [ 94.034203313099056, 24.523071824635391 ], [ 94.035146463258798, 24.523071824635391 ], [ 94.033888929712475, 24.54887135617642 ], [ 94.033574546325895, 24.552137119662625 ], [ 94.034517696485636, 24.550504237919522 ], [ 94.044577964856245, 24.527970469864698 ], [ 94.056210150159757, 24.538747489369179 ], [ 94.063755351437706, 24.528623622561941 ], [ 94.057153300319499, 24.52405155368125 ], [ 94.066899185303527, 24.526011011772976 ], [ 94.07130055271567, 24.517193450360217 ], [ 94.074444386581476, 24.515560568617115 ], [ 94.087648488817905, 24.520132637497806 ], [ 94.076016303514393, 24.522418671938148 ], [ 94.067842335463268, 24.540053794763661 ], [ 94.067527952076688, 24.564220444561588 ], [ 94.077902603833877, 24.54331955824987 ], [ 94.086705338658163, 24.569772242488138 ], [ 94.124745728434519, 24.540053794763661 ], [ 94.104939575079882, 24.564220444561588 ], [ 94.114056693290749, 24.564547020910211 ], [ 94.1065114920128, 24.567486208047796 ], [ 94.11154162619809, 24.574344311368829 ], [ 94.098966290734836, 24.567812784396416 ], [ 94.103367658146979, 24.577610074855034 ], [ 94.092364239616629, 24.583488449130208 ], [ 94.088591638977647, 24.595245197680548 ], [ 94.099280674121417, 24.599817266561239 ], [ 94.087962872204486, 24.599817266561239 ], [ 94.09613684025561, 24.610920862414339 ], [ 94.112170392971265, 24.612553744157442 ], [ 94.124116961661358, 24.619085271129855 ], [ 94.120029977635795, 24.625943374450888 ], [ 94.135120380191708, 24.61581950764365 ], [ 94.168130635782759, 24.633128054120544 ], [ 94.170331319488824, 24.632474901423301 ], [ 94.172217619808322, 24.632148325074681 ] ] ] } },
{ "type": "Feature", "properties": { "dt_code": "279", "district": "Ukhrul", "st_nm": "Manipur", "st_code": "14", "year": "2011_c" }, "geometry": { "type": "Polygon", "coordinates": [ [ [ 94.653852968051126, 25.115481321033212 ], [ 94.611096827476047, 25.102418267088385 ], [ 94.530300297124612, 25.033837233878053 ], [ 94.45390513418532, 25.017508416447022 ], [ 94.395429824281166, 24.986157086979443 ], [ 94.332553146964869, 24.986157086979443 ], [ 94.284138105431325, 24.961010708135653 ], [ 94.221890194888189, 24.941742703567037 ], [ 94.192023773162958, 24.94304900896152 ], [ 94.166873102236437, 24.927046767879109 ], [ 94.170331319488824, 24.934231447548761 ], [ 94.171588853035161, 24.93749721103497 ], [ 94.145180648562317, 24.998566988227026 ], [ 94.145180648562317, 24.998893564575646 ], [ 94.145180648562317, 24.998893564575646 ], [ 94.148638865814704, 25.035143539272536 ], [ 94.11751491054315, 25.069760632226323 ], [ 94.11751491054315, 25.070087208574943 ], [ 94.12223066134186, 25.085436296960115 ], [ 94.131976546325888, 25.118420508170797 ], [ 94.132290929712468, 25.118747084519416 ], [ 94.149267632587879, 25.134422749253208 ], [ 94.164672418530358, 25.133116443858725 ], [ 94.16058543450481, 25.142587157968723 ], [ 94.179448437699691, 25.167733536812513 ], [ 94.214030610223659, 25.175244792830785 ], [ 94.221261428115028, 25.193859644702162 ], [ 94.246097715654969, 25.20365693516078 ], [ 94.252699766773176, 25.228803314004569 ], [ 94.289168239616629, 25.241866367949395 ], [ 94.325007945686906, 25.279422648040768 ], [ 94.335382597444095, 25.310120824811108 ], [ 94.377509971246013, 25.357147819012475 ], [ 94.379396271565511, 25.407767153048674 ], [ 94.3897709233227, 25.420177054296257 ], [ 94.383168872204479, 25.423116241433846 ], [ 94.393543523961668, 25.423442817782465 ], [ 94.41114899361024, 25.46263197961694 ], [ 94.421523645367429, 25.466224319451769 ], [ 94.413664060702885, 25.475695033561767 ], [ 94.460192801916946, 25.549501288350026 ], [ 94.467423619808315, 25.582158923212091 ], [ 94.488801690095855, 25.604692691266912 ], [ 94.520554412140584, 25.63865663152346 ], [ 94.543504399361026, 25.650086803725181 ], [ 94.573056437699691, 25.691562 ], [ 94.596320808306714, 25.682091285890003 ], [ 94.58028725559106, 25.669028231945177 ], [ 94.586260539936106, 25.663803010367246 ], [ 94.57274205431311, 25.638003478826217 ], [ 94.593491357827489, 25.635717444385875 ], [ 94.583745472843461, 25.634411138991389 ], [ 94.550735217252409, 25.579546312423126 ], [ 94.564253702875405, 25.563544071340715 ], [ 94.556079734824294, 25.554726509927956 ], [ 94.566768769968064, 25.547868406606923 ], [ 94.553879051118216, 25.502474294148655 ], [ 94.576829038338673, 25.495942767176246 ], [ 94.61581257827477, 25.462305403268321 ], [ 94.675231038338666, 25.445323433140047 ], [ 94.660140635782753, 25.405481118608328 ], [ 94.634675581469651, 25.395357251801091 ], [ 94.63436119808307, 25.355841513617996 ], [ 94.585317389776364, 25.266686170444562 ], [ 94.585946156549525, 25.229129890353189 ], [ 94.575571504792336, 25.213780801968021 ], [ 94.605752309904162, 25.181449743454579 ], [ 94.619899562300333, 25.186674965032509 ], [ 94.64002009904155, 25.16610065506941 ], [ 94.68026117252397, 25.148792108592517 ], [ 94.690007057507998, 25.157609670005272 ], [ 94.714528961661344, 25.138015089088036 ], [ 94.736221415335478, 25.135075901950451 ], [ 94.739365249201285, 25.116461050079074 ], [ 94.653852968051126, 25.115481321033212 ] ] ] } },
{ "type": "Feature", "properties": { "dt_code": "771", "district": "Noney", "st_nm": "Manipur", "st_code": "14", "year": "2016_c" }, "geometry": { "type": "Polygon", "coordinates": [ [ [ 93.216177741214082, 24.699423052890531 ], [ 93.252646214057521, 24.658927585661573 ], [ 93.279054418530365, 24.658927585661573 ], [ 93.284398936102249, 24.665785688982606 ], [ 93.303576322683725, 24.690278915129152 ], [ 93.339101645367435, 24.712486106835357 ], [ 93.329984527156569, 24.726202313477422 ], [ 93.340044795527177, 24.750695539623969 ], [ 93.36299478274762, 24.758533371990865 ], [ 93.371797517571906, 24.80915270602706 ], [ 93.398834488817911, 24.806540095238095 ], [ 93.407322840255603, 24.824828370760851 ], [ 93.497550872204485, 24.823195489017749 ], [ 93.543450846645385, 24.80915270602706 ], [ 93.560741932907362, 24.811112164118786 ], [ 93.576461102236436, 24.835605390265332 ], [ 93.615444642172534, 24.812745045861888 ], [ 93.634622028754009, 24.801314873660168 ], [ 93.649083664536761, 24.800335144614305 ], [ 93.75628839936104, 24.79217073589879 ], [ 93.757231549520782, 24.79217073589879 ], [ 93.757231549520782, 24.79217073589879 ], [ 93.757545932907362, 24.79217073589879 ], [ 93.757545932907362, 24.791844159550166 ], [ 93.749057581469657, 24.791191006852927 ], [ 93.743713063897772, 24.764738322614654 ], [ 93.726421977635795, 24.747103199789141 ], [ 93.738682929712482, 24.704321698119838 ], [ 93.72390691054315, 24.691911796872255 ], [ 93.732709645367422, 24.66382623089088 ], [ 93.708187741214076, 24.644884802670884 ], [ 93.729251428115035, 24.624310492707785 ], [ 93.736796629392984, 24.624963645405025 ], [ 93.736796629392984, 24.624963645405025 ], [ 93.734281562300339, 24.617778965735372 ], [ 93.734281562300339, 24.617452389386752 ], [ 93.722649376996827, 24.62104472922158 ], [ 93.714789792332283, 24.605695640836409 ], [ 93.697813089456886, 24.613206896854685 ], [ 93.661973383386595, 24.607981675276754 ], [ 93.649083664536761, 24.592632586891582 ], [ 93.628019977635802, 24.606675369882272 ], [ 93.595638488817912, 24.566179902653314 ], [ 93.567972750798745, 24.592959163240206 ], [ 93.539363862619822, 24.576303769460552 ], [ 93.531504277955293, 24.556709188543316 ], [ 93.512012507987237, 24.565853326304694 ], [ 93.489691287539955, 24.555076306800213 ], [ 93.47082828434506, 24.57401773502021 ], [ 93.448821447284359, 24.540706947460905 ], [ 93.39820572204475, 24.574997464066069 ], [ 93.396319421725252, 24.573691158671586 ], [ 93.388145453674142, 24.568139360745036 ], [ 93.387831070287561, 24.568139360745036 ], [ 93.34444616293932, 24.578263227552277 ], [ 93.34444616293932, 24.578263227552277 ], [ 93.33344274440897, 24.568465937093656 ], [ 93.281883869009604, 24.567812784396416 ], [ 93.280940718849862, 24.567812784396416 ], [ 93.259248265175742, 24.526337588121596 ], [ 93.264278399361046, 24.511968228782287 ], [ 93.235040744408963, 24.514907415919875 ], [ 93.21995034185305, 24.494986258654016 ], [ 93.191341453674141, 24.524378130029874 ], [ 93.181281185303533, 24.514580839571252 ], [ 93.171535300319505, 24.519152908451943 ], [ 93.17719420127797, 24.536134878580214 ], [ 93.196685971246026, 24.563567291864349 ], [ 93.190398303514399, 24.570098818836762 ], [ 93.19071268690098, 24.570098818836762 ], [ 93.205488706070312, 24.569119089790899 ], [ 93.202659255591072, 24.586101059919173 ], [ 93.217120891373824, 24.593612315937445 ], [ 93.209575690095861, 24.62724967984537 ], [ 93.221836642172548, 24.639006428395714 ], [ 93.207689389776377, 24.662193349147778 ], [ 93.208003773162957, 24.662193349147778 ], [ 93.213348290734842, 24.667091994377088 ], [ 93.218692808306727, 24.671664063257776 ], [ 93.204231172523976, 24.674603250395361 ], [ 93.208946923322699, 24.68864603338605 ], [ 93.215234591054326, 24.697137018450185 ], [ 93.216177741214082, 24.699423052890531 ] ] ] } },
{ "type": "Feature", "properties": { "dt_code": "772", "district": "Pherzawl", "st_nm": "Manipur", "st_code": "14", "year": "2016_c" }, "geometry": { "type": "Polygon", "coordinates": [ [ [ 93.388145453674142, 24.568139360745036 ], [ 93.38437285303516, 24.528297046213321 ], [ 93.408580373801939, 24.510988499736428 ], [ 93.392232437699704, 24.497925445791601 ], [ 93.38437285303516, 24.465267810929539 ], [ 93.361422865814717, 24.447306111755402 ], [ 93.350105063897786, 24.400605693902655 ], [ 93.365509849840279, 24.383623723774381 ], [ 93.491263204472858, 24.365662024600248 ], [ 93.478373485623024, 24.249400844491301 ], [ 93.39506188817893, 24.18506530381304 ], [ 93.377456418530372, 24.088398704621333 ], [ 93.342559862619822, 24.103094640309262 ], [ 93.354192047923334, 24.091011315410299 ], [ 93.330927677316311, 24.085459517483748 ], [ 93.332185210862633, 24.053781611667546 ], [ 93.286599619808328, 24.052475306273063 ], [ 93.253274980830696, 24.021123976805484 ], [ 93.26333524920129, 24.058353680548233 ], [ 93.249502380191714, 24.080234295905818 ], [ 93.22026472523963, 24.083500059392023 ], [ 93.22026472523963, 24.060966291337198 ], [ 93.209575690095861, 24.048229813740996 ], [ 93.167448316293942, 24.0514955772272 ], [ 93.165562015974459, 24.073702768933405 ], [ 93.140725728434518, 24.08774555192409 ], [ 93.12626409265178, 24.062272596731681 ], [ 93.099227121405775, 24.043004592163065 ], [ 93.097655204472858, 24.073376192584785 ], [ 93.078477817891397, 24.101788334914779 ], [ 93.046725095846668, 24.090031586364436 ], [ 92.99107923642174, 24.115504541556845 ], [ 92.972845, 24.11289193076788 ], [ 92.990450469648579, 24.137058580565807 ], [ 92.988249785942514, 24.14914190546477 ], [ 93.006169638977653, 24.161551806712353 ], [ 92.999567587859445, 24.19682205236338 ], [ 93.014343607028778, 24.199108086803726 ], [ 93.021888808306727, 24.218049515023722 ], [ 93.016229907348261, 24.224581041996135 ], [ 93.023775108626225, 24.234051756106133 ], [ 93.004283338658169, 24.257565253206817 ], [ 93.012142923322699, 24.270954883500263 ], [ 93.006798405750814, 24.282711632050606 ], [ 93.040437428115041, 24.34214852749956 ], [ 93.017487440894584, 24.349986359866456 ], [ 93.025032642172548, 24.391461556141277 ], [ 93.008684706070312, 24.412362442452995 ], [ 93.024718258785967, 24.407137220875068 ], [ 93.042952495207686, 24.416934511333686 ], [ 93.032577843450497, 24.429017836232649 ], [ 93.046410712460087, 24.473432219645055 ], [ 93.032263460063916, 24.495312835002636 ], [ 93.050183313099055, 24.519806061149183 ], [ 93.050183313099055, 24.544299287295729 ], [ 93.070618233226853, 24.558015493937798 ], [ 93.05867166453676, 24.574344311368829 ], [ 93.087594936102263, 24.572384853277104 ], [ 93.122805875399379, 24.554096577754351 ], [ 93.17719420127797, 24.536134878580214 ], [ 93.171535300319505, 24.519152908451943 ], [ 93.181281185303533, 24.514580839571252 ], [ 93.191341453674141, 24.524378130029874 ], [ 93.21995034185305, 24.494986258654016 ], [ 93.235040744408963, 24.514907415919875 ], [ 93.264278399361046, 24.511968228782287 ], [ 93.259248265175742, 24.526337588121596 ], [ 93.280940718849862, 24.567812784396416 ], [ 93.281883869009604, 24.567812784396416 ], [ 93.33344274440897, 24.568465937093656 ], [ 93.34444616293932, 24.578263227552277 ], [ 93.34444616293932, 24.578263227552277 ], [ 93.387831070287561, 24.568139360745036 ], [ 93.388145453674142, 24.568139360745036 ] ] ] } }
]
}
