{
"type": "FeatureCollection",
"name": "meghalaya",
"crs": { "type": "name", "properties": { "name": "urn:ogc:def:crs:OGC:1.3:CRS84" } },
"features": [
{ "type": "Feature", "properties": { "dt_code": "297", "district": "Ribhoi", "st_code": "17", "year": "2011_c", "st_nm": "Meghalaya" }, "geometry": { "type": "Polygon", "coordinates": [ [ [ 92.152548110350438, 25.671444814983644 ], [ 92.152109028029827, 25.670785914711562 ], [ 92.154304439632938, 25.645088804100329 ], [ 92.149474534106091, 25.653325057501366 ], [ 92.140692887693646, 25.644100453692204 ], [ 92.137619311449299, 25.641135402467832 ], [ 92.132350323601827, 25.641135402467832 ], [ 91.834213427899471, 25.644100453692204 ], [ 91.828505357731387, 25.673750965935934 ], [ 91.817528299715832, 25.705707629131954 ], [ 91.809624817944638, 25.72975748906298 ], [ 91.808307570982777, 25.733381440559434 ], [ 91.774059149974249, 25.74194714409651 ], [ 91.769229244447416, 25.74622999586505 ], [ 91.787670701913541, 25.790705764230644 ], [ 91.749470540019416, 25.827274729331243 ], [ 91.707318637239709, 25.820026826338331 ], [ 91.697658826186014, 25.804872120080425 ], [ 91.659458664291904, 25.814426174025627 ], [ 91.644529865390751, 25.804213219808343 ], [ 91.587010081389266, 25.812120023073337 ], [ 91.458358961447018, 25.788399613278354 ], [ 91.42279329347663, 25.793341365318977 ], [ 91.417963387949783, 25.803224869400218 ], [ 91.366590756437006, 25.806189920624593 ], [ 91.352101039856478, 25.817061775113959 ], [ 91.342002146482173, 25.831557581099784 ], [ 91.335854993993465, 25.840782184908942 ], [ 91.371420661963853, 25.846382837221647 ], [ 91.422354211156005, 25.854619090622684 ], [ 91.445186491828352, 25.839793834500817 ], [ 91.463188866973852, 25.857254691711017 ], [ 91.508853428318545, 25.866808745656215 ], [ 91.474605007310032, 25.874056648649127 ], [ 91.483825736043087, 25.89316475653953 ], [ 91.504023522791712, 25.891188055723283 ], [ 91.504901687432948, 25.907990012661397 ], [ 91.536954696838364, 25.931380972320337 ], [ 91.503145358150462, 25.913920115110141 ], [ 91.502706275829837, 25.926768670415758 ], [ 91.519830486334101, 25.939946675857417 ], [ 91.518074157051615, 25.959713684019903 ], [ 91.551005331098267, 25.976845091094056 ], [ 91.579984764259322, 26.033181064357141 ], [ 91.597548057084197, 26.018026358099235 ], [ 91.630918313451474, 26.021979759731735 ], [ 91.626088407924627, 25.9867285951753 ], [ 91.640578124505154, 25.963996535788439 ], [ 91.629601066489613, 25.943241177217828 ], [ 91.611598691344099, 25.945217878034079 ], [ 91.609403279740988, 25.937640524905127 ], [ 91.65155518252071, 25.90634276198119 ], [ 91.67043572230746, 25.904366061164939 ], [ 91.713465789728417, 25.944229527625954 ], [ 91.715661201331528, 25.949171279666576 ], [ 91.720930189178986, 25.962019834972192 ], [ 91.722247436140862, 25.96597323660469 ], [ 91.722686518461472, 25.977833441502181 ], [ 91.723125600782097, 26.034828315037348 ], [ 91.731029082553292, 26.058878174968374 ], [ 91.777132726218611, 26.089517037620229 ], [ 91.791183360478513, 26.085234185851689 ], [ 91.825431781487026, 26.119497 ], [ 91.826749028448901, 26.118838099727917 ], [ 91.878999824602914, 26.098082741157306 ], [ 91.867144601946123, 26.04207621803026 ], [ 91.882951565488511, 26.026262611500272 ], [ 91.914565492573303, 26.020661959187567 ], [ 91.909735587046455, 26.008801754290076 ], [ 91.910613751687706, 26.007813403881951 ], [ 91.91939539810015, 25.998588800072792 ], [ 91.931250620756941, 26.012425705786534 ], [ 91.983501416910968, 26.025933161364232 ], [ 91.988770404758426, 26.038781716669845 ], [ 92.05155917660737, 26.032851614221101 ], [ 92.097223737952064, 26.049324121023172 ], [ 92.132350323601827, 26.04438236898255 ], [ 92.169233238534076, 26.077656832722738 ], [ 92.172745897099063, 26.075680131906488 ], [ 92.176258555664035, 26.073373980954198 ], [ 92.184162037435229, 26.068432228913576 ], [ 92.215336882199395, 26.066455528097329 ], [ 92.262757772826575, 26.065796627825243 ], [ 92.273295748521505, 26.065796627825243 ], [ 92.264514102109061, 26.058548724832335 ], [ 92.264514102109061, 26.057889824560249 ], [ 92.2631968551472, 26.033181064357141 ], [ 92.175380391022784, 25.977503991366138 ], [ 92.163964250686618, 25.97025608837323 ], [ 92.152548110350438, 25.944558977761996 ], [ 92.160890674442257, 25.928086470959926 ], [ 92.154304439632938, 25.911284514021812 ], [ 92.154743521953549, 25.911284514021812 ], [ 92.175380391022784, 25.907331112389315 ], [ 92.194260930809534, 25.918532417014724 ], [ 92.202164412580728, 25.90634276198119 ], [ 92.2254357755737, 25.909307813205562 ], [ 92.177136720305271, 25.872738848104962 ], [ 92.177575802625896, 25.851654039398312 ], [ 92.151230863388577, 25.816732324977917 ], [ 92.147718204823605, 25.772915456884405 ], [ 92.161768839083507, 25.742606044368596 ], [ 92.144205546258618, 25.717238383893402 ], [ 92.144205546258618, 25.716908933757363 ], [ 92.144205546258618, 25.716908933757363 ], [ 92.144644628579243, 25.71657948362132 ], [ 92.155182604274174, 25.694835774642588 ], [ 92.156060768915424, 25.677045467296349 ], [ 92.152548110350438, 25.671444814983644 ] ] ] } },
{ "type": "Feature", "properties": { "dt_code": "296", "district": "West Khasi Hills", "st_code": "17", "year": "2011_c", "st_nm": "Meghalaya" }, "geometry": { "type": "Polygon", "coordinates": [ [ [ 91.335854993993465, 25.840782184908942 ], [ 91.342002146482173, 25.831557581099784 ], [ 91.352101039856478, 25.817061775113959 ], [ 91.366590756437006, 25.806189920624593 ], [ 91.417963387949783, 25.803224869400218 ], [ 91.42279329347663, 25.793341365318977 ], [ 91.458358961447018, 25.788399613278354 ], [ 91.587010081389266, 25.812120023073337 ], [ 91.644529865390751, 25.804213219808343 ], [ 91.659458664291904, 25.814426174025627 ], [ 91.697658826186014, 25.804872120080425 ], [ 91.707318637239709, 25.820026826338331 ], [ 91.749470540019416, 25.827274729331243 ], [ 91.787670701913541, 25.790705764230644 ], [ 91.769229244447416, 25.74622999586505 ], [ 91.774059149974249, 25.74194714409651 ], [ 91.808307570982777, 25.733381440559434 ], [ 91.809624817944638, 25.72975748906298 ], [ 91.817528299715832, 25.705707629131954 ], [ 91.828505357731387, 25.673750965935934 ], [ 91.826749028448901, 25.672433165391769 ], [ 91.808307570982777, 25.658925709814071 ], [ 91.799965006890957, 25.609508189407855 ], [ 91.781084467104208, 25.589741181245369 ], [ 91.733224494156403, 25.575245375259545 ], [ 91.688877179773584, 25.526157304989372 ], [ 91.669996639986834, 25.522203903356875 ], [ 91.658580499650654, 25.528134005805619 ], [ 91.653750594123821, 25.551854415600602 ], [ 91.541784602365198, 25.511332048867505 ], [ 91.549249001815781, 25.482010986759818 ], [ 91.546614507892045, 25.481681536623775 ], [ 91.529051215067156, 25.479375385671485 ], [ 91.517195992410365, 25.455654975876502 ], [ 91.447381903431463, 25.45730222655671 ], [ 91.390740284071228, 25.458620027100874 ], [ 91.309070972435521, 25.444453671251093 ], [ 91.284043280160063, 25.412167557919034 ], [ 91.268236316617674, 25.409531956830701 ], [ 91.230475237044175, 25.462243978597332 ], [ 91.22257175527298, 25.44840707288359 ], [ 91.208960203333703, 25.461255628189207 ], [ 91.191396910508814, 25.461255628189207 ], [ 91.179980770172648, 25.448077622747551 ], [ 91.169003712157092, 25.466197380229829 ], [ 91.106214940308149, 25.43621741785006 ], [ 91.115435669041204, 25.413485358463198 ], [ 91.137828867392926, 25.399319002613417 ], [ 91.08952981212451, 25.358137735608238 ], [ 91.098311458536955, 25.330463924180755 ], [ 91.094798799971969, 25.327828323092426 ], [ 91.085578071238913, 25.319921519827432 ], [ 91.050012403268525, 25.34232412907825 ], [ 91.024545628672456, 25.338700177581792 ], [ 90.988979960702068, 25.379222544314889 ], [ 90.985906384457707, 25.365056188465108 ], [ 90.970977585556568, 25.358137735608238 ], [ 90.975368408762776, 25.339688527989917 ], [ 90.923556694929388, 25.351548732887409 ], [ 90.891942767844597, 25.32914612363659 ], [ 90.866915075569139, 25.330134474044716 ], [ 90.839252889369959, 25.307731864793897 ], [ 90.838813807049334, 25.307402414657854 ], [ 90.838813807049334, 25.307731864793897 ], [ 90.844960959538042, 25.345948080574704 ], [ 90.838374724728709, 25.355172684383863 ], [ 90.807638962285168, 25.368350689825522 ], [ 90.776464117521002, 25.363738387920943 ], [ 90.747923766680572, 25.379551994450932 ], [ 90.76373073022296, 25.416779859823613 ], [ 90.755388166131141, 25.429957865265269 ], [ 90.761535318619849, 25.444783121387136 ], [ 90.751436425245544, 25.451042673971923 ], [ 90.759778989337363, 25.458620027100874 ], [ 90.773390541276655, 25.451372124107966 ], [ 90.789636587139668, 25.467515180773994 ], [ 90.773390541276655, 25.468832981318162 ], [ 90.789636587139668, 25.485634938256272 ], [ 90.790075669460293, 25.506719746962926 ], [ 90.761096236299238, 25.550536615056437 ], [ 90.761974400940474, 25.552183865736644 ], [ 90.761974400940474, 25.552183865736644 ], [ 90.771634211994154, 25.577551526211835 ], [ 90.781733105368474, 25.583811078796622 ], [ 90.787441175536557, 25.569315272810798 ], [ 90.800174562834599, 25.588423380701201 ], [ 90.800613645155209, 25.588423380701201 ], [ 90.800613645155209, 25.588423380701201 ], [ 90.813347032453251, 25.575904275531627 ], [ 90.823885008148181, 25.590070631381408 ], [ 90.874379475019722, 25.607531488591604 ], [ 90.983710972854595, 25.742935494504636 ], [ 90.941559070074888, 25.754466249266088 ], [ 90.941559070074888, 25.754466249266088 ], [ 90.942876317036749, 25.763031952803164 ], [ 90.944632646319235, 25.772256556612323 ], [ 90.957366033617276, 25.777198308652945 ], [ 90.982393725892734, 25.802236518992096 ], [ 91.001274265679484, 25.824968578378954 ], [ 91.00215243032072, 25.824968578378954 ], [ 91.007421418168192, 25.824639128242914 ], [ 91.011812241374415, 25.824309678106872 ], [ 91.046938827024178, 25.848359538037897 ], [ 91.047816991665414, 25.849018438309979 ], [ 91.048256073986039, 25.849347888446019 ], [ 91.078552754108955, 25.852971839942477 ], [ 91.071966519299636, 25.838805484092696 ], [ 91.048695156306664, 25.829251430147494 ], [ 91.061867625925316, 25.821015176746457 ], [ 91.120265574568052, 25.832875381643948 ], [ 91.147488678446621, 25.850665688990187 ], [ 91.179980770172648, 25.844076686269357 ], [ 91.195787733715036, 25.861537543479553 ], [ 91.203691215486231, 25.843417785997275 ], [ 91.186127922661356, 25.818379575658124 ], [ 91.178224440890162, 25.777527758788988 ], [ 91.190518745867578, 25.747877246545258 ], [ 91.22257175527298, 25.722509586070068 ], [ 91.274383469106382, 25.75051284763359 ], [ 91.33541591167284, 25.840782184908942 ], [ 91.33541591167284, 25.840782184908942 ], [ 91.335854993993465, 25.840782184908942 ] ] ] } },
{ "type": "Feature", "properties": { "dt_code": "714", "district": "East Jaintia Hills", "st_code": "17", "year": "update2014", "st_nm": "Meghalaya" }, "geometry": { "type": "Polygon", "coordinates": [ [ [ 92.56923723262075, 25.465209029821704 ], [ 92.580214290636306, 25.472127482678573 ], [ 92.581970619918792, 25.471798032542534 ], [ 92.582409702239403, 25.471798032542534 ], [ 92.598655748102431, 25.466197380229829 ], [ 92.606559229873625, 25.413485358463198 ], [ 92.627635181263486, 25.422051062000275 ], [ 92.625439769660375, 25.434899617305891 ], [ 92.639490403920277, 25.417768210231738 ], [ 92.65354103818018, 25.433581816761727 ], [ 92.661444519951374, 25.406566905606329 ], [ 92.673299742608165, 25.414144258735281 ], [ 92.717647056990998, 25.372633541594059 ], [ 92.737844843739609, 25.379551994450932 ], [ 92.732136773571526, 25.369009590097605 ], [ 92.7497000663964, 25.344300829894497 ], [ 92.781753075801817, 25.333428975405131 ], [ 92.792291051496733, 25.282693654454746 ], [ 92.76858060618315, 25.268197848468926 ], [ 92.777801334916219, 25.258314344387681 ], [ 92.761994371373817, 25.246783589626233 ], [ 92.771654182427511, 25.229981632688119 ], [ 92.801511780229802, 25.215485826702295 ], [ 92.776045005633719, 25.199672220172307 ], [ 92.742674749266456, 25.206590673029176 ], [ 92.693936611677401, 25.179246311737735 ], [ 92.66320084923386, 25.176610710649406 ], [ 92.655736449783291, 25.155196451806713 ], [ 92.628074263584097, 25.138065044732556 ], [ 92.621488028774763, 25.115003535209656 ], [ 92.522255424314196, 25.139382845276725 ], [ 92.522255424314196, 25.139053395140682 ], [ 92.522255424314196, 25.137076694324431 ], [ 92.523133588955432, 25.126204839835065 ], [ 92.539379634818445, 25.099189928679667 ], [ 92.480981686175724, 25.108743982624869 ], [ 92.471760957442655, 25.067233265483647 ], [ 92.456832158541516, 25.054055260041991 ], [ 92.464296557992085, 25.037582753239917 ], [ 92.442342441960989, 25.045489556504915 ], [ 92.42565731377735, 25.030005400110966 ], [ 92.344866166782893, 25.050431308545534 ], [ 92.333450026446712, 25.082387971741554 ], [ 92.297445276155713, 25.07217501752427 ], [ 92.209189729710687, 25.111709033849241 ], [ 92.22455761093245, 25.118627486706114 ], [ 92.199969000977617, 25.12521648942694 ], [ 92.224996693253075, 25.163432705207747 ], [ 92.234656504306756, 25.200001670308346 ], [ 92.219288623084992, 25.225039880647497 ], [ 92.20523798882509, 25.227346031599787 ], [ 92.199529918657007, 25.291918258263909 ], [ 92.171428650137187, 25.33606457649346 ], [ 92.174063144060923, 25.353854883839698 ], [ 92.268465842994658, 25.396024501253002 ], [ 92.373406517623323, 25.405908005334247 ], [ 92.450245923732183, 25.421721611864236 ], [ 92.49239782651189, 25.441488620026721 ], [ 92.534988811612237, 25.434570167169852 ], [ 92.545526787307153, 25.458290576964835 ], [ 92.546844034269029, 25.457961126828792 ], [ 92.566602738697014, 25.456313876148585 ], [ 92.567041821017639, 25.456643326284627 ], [ 92.567919985658889, 25.45730222655671 ], [ 92.56923723262075, 25.465209029821704 ] ] ] } },
{ "type": "Feature", "properties": { "dt_code": "298", "district": "East Khasi Hills", "st_code": "17", "year": "2011_c", "st_nm": "Meghalaya" }, "geometry": { "type": "Polygon", "coordinates": [ [ [ 91.828505357731387, 25.673750965935934 ], [ 91.834213427899471, 25.644100453692204 ], [ 92.132350323601827, 25.641135402467832 ], [ 92.133228488243077, 25.639158701651585 ], [ 92.133667570563702, 25.639158701651585 ], [ 92.13805839376991, 25.625321795937843 ], [ 92.105127219723258, 25.562396819953928 ], [ 92.113908866135702, 25.54460651260769 ], [ 92.095028326348952, 25.494200641793352 ], [ 92.109078960608855, 25.471139132270451 ], [ 92.094589244028342, 25.451042673971923 ], [ 92.113030701494466, 25.410520307238826 ], [ 92.101614561158286, 25.398660102341335 ], [ 92.111713454532591, 25.379881444586971 ], [ 92.110835289891355, 25.336394026629502 ], [ 92.119177853983174, 25.33145227458888 ], [ 92.111274372211966, 25.30608461411369 ], [ 92.044972941798051, 25.320909870235553 ], [ 91.988331322437801, 25.281046403774543 ], [ 91.984818663872829, 25.245795239218108 ], [ 92.021262496484454, 25.201978371124596 ], [ 92.019945249522593, 25.190777066499187 ], [ 92.016432590957621, 25.18912981581898 ], [ 91.983062334590343, 25.171668958608784 ], [ 91.94705758429933, 25.183199713370236 ], [ 91.746836046095694, 25.171668958608784 ], [ 91.743762469851333, 25.148607449085883 ], [ 91.704684143315973, 25.15684370248692 ], [ 91.694146167621042, 25.140371195684846 ], [ 91.641895371467029, 25.124228139018818 ], [ 91.618624008474058, 25.146630748269633 ], [ 91.601060715649169, 25.146960198405676 ], [ 91.602817044931669, 25.173645659425034 ], [ 91.493046464776157, 25.134770543372142 ], [ 91.47109234874506, 25.13608834391631 ], [ 91.466701525538838, 25.149595799494008 ], [ 91.439478421660269, 25.152231400582338 ], [ 91.414011647064186, 25.172327858880866 ], [ 91.40391275368988, 25.166068306296079 ], [ 91.379763226055672, 25.176940160785445 ], [ 91.354296451459589, 25.234264484456656 ], [ 91.385471296223756, 25.239535686633321 ], [ 91.402595506728019, 25.263585546564343 ], [ 91.42279329347663, 25.261938295884139 ], [ 91.438161174698408, 25.273139600509545 ], [ 91.478995830516254, 25.263585546564343 ], [ 91.495680958699893, 25.283352554726832 ], [ 91.532563873632142, 25.27643410186996 ], [ 91.547931754853906, 25.286976506223287 ], [ 91.549688084136392, 25.330134474044716 ], [ 91.524221309540323, 25.348913131799076 ], [ 91.5558352366251, 25.428969514857148 ], [ 91.546614507892045, 25.481681536623775 ], [ 91.549249001815781, 25.482010986759818 ], [ 91.541784602365198, 25.511332048867505 ], [ 91.653750594123821, 25.551854415600602 ], [ 91.658580499650654, 25.528134005805619 ], [ 91.669996639986834, 25.522203903356875 ], [ 91.688877179773584, 25.526157304989372 ], [ 91.733224494156403, 25.575245375259545 ], [ 91.781084467104208, 25.589741181245369 ], [ 91.799965006890957, 25.609508189407855 ], [ 91.808307570982777, 25.658925709814071 ], [ 91.826749028448901, 25.672433165391769 ], [ 91.828505357731387, 25.673750965935934 ] ] ] } },
{ "type": "Feature", "properties": { "dt_code": "295", "district": "South Garo Hills", "st_code": "17", "year": "2011_c", "st_nm": "Meghalaya" }, "geometry": { "type": "Polygon", "coordinates": [ [ [ 90.761974400940474, 25.552183865736644 ], [ 90.761096236299238, 25.550536615056437 ], [ 90.790075669460293, 25.506719746962926 ], [ 90.789636587139668, 25.485634938256272 ], [ 90.773390541276655, 25.468832981318162 ], [ 90.789636587139668, 25.467515180773994 ], [ 90.773390541276655, 25.451372124107966 ], [ 90.759778989337363, 25.458620027100874 ], [ 90.751436425245544, 25.451042673971923 ], [ 90.761535318619849, 25.444783121387136 ], [ 90.755388166131141, 25.429957865265269 ], [ 90.76373073022296, 25.416779859823613 ], [ 90.747923766680572, 25.379551994450932 ], [ 90.776464117521002, 25.363738387920943 ], [ 90.807638962285168, 25.368350689825522 ], [ 90.838374724728709, 25.355172684383863 ], [ 90.844960959538042, 25.345948080574704 ], [ 90.838813807049334, 25.307731864793897 ], [ 90.838813807049334, 25.307402414657854 ], [ 90.839252889369959, 25.307731864793897 ], [ 90.841009218652445, 25.30608461411369 ], [ 90.862085170042306, 25.294553859352241 ], [ 90.901602578898277, 25.29718946044057 ], [ 90.91565321315818, 25.277093002142045 ], [ 90.931460176700583, 25.277751902414128 ], [ 90.931460176700583, 25.278081352550167 ], [ 90.932777423662444, 25.276763552006003 ], [ 90.95473153969354, 25.251066441394769 ], [ 90.958683280579152, 25.246783589626233 ], [ 90.957366033617276, 25.241841837585611 ], [ 90.949901634166707, 25.214826926430213 ], [ 90.968343091632832, 25.201319470852514 ], [ 90.969660338594693, 25.172657309016909 ], [ 90.854620770591723, 25.159808753711292 ], [ 90.819494184941959, 25.163432705207747 ], [ 90.779976776085974, 25.183858613642318 ], [ 90.760657153978613, 25.165079955887954 ], [ 90.741337531871238, 25.165079955887954 ], [ 90.737385790985641, 25.153549201126506 ], [ 90.720700662802003, 25.164750505751915 ], [ 90.693477558923433, 25.159808753711292 ], [ 90.675036101457309, 25.167386106840244 ], [ 90.655277397029323, 25.193083217451477 ], [ 90.636396857242573, 25.173316209288991 ], [ 90.510380231224048, 25.168374457248369 ], [ 90.444517883130743, 25.143665697045261 ], [ 90.377338288075578, 25.161785454527539 ], [ 90.331673726730884, 25.191765416907312 ], [ 90.30488970517294, 25.18682366486669 ], [ 90.233758369232177, 25.203955071940843 ], [ 90.229367546025955, 25.235252834864781 ], [ 90.247369921171455, 25.253702042483102 ], [ 90.261420555431357, 25.321239320371596 ], [ 90.308841446058537, 25.36538563860115 ], [ 90.313671351585384, 25.384493746491554 ], [ 90.303572458211079, 25.418427110503821 ], [ 90.319379421753467, 25.464220679413579 ], [ 90.320257586394717, 25.463891229277539 ], [ 90.322892080318454, 25.462243978597332 ], [ 90.369434806304383, 25.458290576964835 ], [ 90.441883389207021, 25.460596727917125 ], [ 90.518722795315867, 25.433581816761727 ], [ 90.644739421334393, 25.416120959551531 ], [ 90.678987842342906, 25.481681536623775 ], [ 90.761974400940474, 25.552183865736644 ] ] ] } },
{ "type": "Feature", "properties": { "dt_code": "293", "district": "West Garo Hills", "st_code": "17", "year": "2011_c", "st_nm": "Meghalaya" }, "geometry": { "type": "Polygon", "coordinates": [ [ [ 90.320257586394717, 25.463891229277539 ], [ 90.319379421753467, 25.464220679413579 ], [ 90.303572458211079, 25.418427110503821 ], [ 90.313671351585384, 25.384493746491554 ], [ 90.308841446058537, 25.36538563860115 ], [ 90.261420555431357, 25.321239320371596 ], [ 90.247369921171455, 25.253702042483102 ], [ 90.229367546025955, 25.235252834864781 ], [ 90.233758369232177, 25.203955071940843 ], [ 90.159553457047053, 25.223392629967289 ], [ 90.112571648740499, 25.224380980375415 ], [ 90.059881770265847, 25.256008193435392 ], [ 89.98084695255389, 25.285329255543079 ], [ 89.974699800065181, 25.29949561139286 ], [ 89.993141257531306, 25.313003066970559 ], [ 89.994019422172542, 25.320250969963471 ], [ 90.012021797318056, 25.326839972684301 ], [ 90.035293160311014, 25.344300829894497 ], [ 90.151649975275859, 25.374939692546352 ], [ 90.16218795097079, 25.388447148124051 ], [ 90.15296722223772, 25.398989552477374 ], [ 90.17096959738322, 25.54460651260769 ], [ 90.148137316710873, 25.544935962743732 ], [ 90.141551081901554, 25.553831116416852 ], [ 90.139355670298443, 25.53768805975082 ], [ 90.138916587977818, 25.53768805975082 ], [ 90.136282094054081, 25.53768805975082 ], [ 90.129695859244748, 25.53768805975082 ], [ 90.129695859244748, 25.538676410158946 ], [ 90.130134941565373, 25.562396819953928 ], [ 90.128817694603512, 25.562396819953928 ], [ 90.113449813381735, 25.560749569273721 ], [ 90.090617532709388, 25.588093930565162 ], [ 90.01992527908925, 25.607202038455565 ], [ 90.017729867486139, 25.607860938727647 ], [ 90.004118315546847, 25.626969046618051 ], [ 89.983042364157001, 25.626969046618051 ], [ 89.950111190110349, 25.656290108725738 ], [ 89.949233025469098, 25.657278459133863 ], [ 89.944403119942251, 25.679351618248639 ], [ 89.914106439819335, 25.710978831308616 ], [ 89.899177640918182, 25.726462987702565 ], [ 89.895225900032585, 25.743264944640678 ], [ 89.894786817711974, 25.7442532950488 ], [ 89.894786817711974, 25.744912195320886 ], [ 89.91454552213996, 25.740629343552346 ], [ 89.924644415514265, 25.738652642736099 ], [ 89.936060555850446, 25.744582745184843 ], [ 89.937377802812307, 25.745241645456925 ], [ 89.935182391209196, 25.754466249266088 ], [ 89.959331918843404, 25.780163359877317 ], [ 89.948354860827862, 25.825627478651036 ], [ 89.957575589560918, 25.829251430147494 ], [ 89.954062930995946, 25.8213446268825 ], [ 89.96196641276714, 25.820356276474374 ], [ 89.963722742049626, 25.833204831779991 ], [ 89.971187141500195, 25.826615829059161 ], [ 90.003679233226237, 25.839464384364778 ], [ 90.015534455883028, 25.855936891166849 ], [ 90.022559773012972, 25.865820395248093 ], [ 90.022559773012972, 25.868126546200383 ], [ 90.018168949806764, 25.872409397968919 ], [ 90.00850913875307, 25.881304551642039 ], [ 90.008070056432459, 25.881634001778082 ], [ 90.012021797318056, 25.884928503138497 ], [ 90.020364361409875, 25.891846955995366 ], [ 90.025194266936708, 25.895800357627863 ], [ 90.042318477440972, 25.887893554362869 ], [ 90.060320852586472, 25.913590664974102 ], [ 90.08622670950318, 25.919520767422846 ], [ 90.091934779671263, 25.93829942517721 ], [ 90.10554633161054, 25.948512379394494 ], [ 90.116962471946721, 25.957407533067613 ], [ 90.122231459794179, 25.958725333611778 ], [ 90.151210892955234, 25.966632136876772 ], [ 90.158236210085192, 25.957407533067613 ], [ 90.176677667551317, 25.95905478374782 ], [ 90.186776560925622, 25.944229527625954 ], [ 90.203022606788636, 25.961031484564067 ], [ 90.211365170880455, 25.95279523116303 ], [ 90.32464840960094, 25.973550589733641 ], [ 90.361092242212564, 26.007813403881951 ], [ 90.362409489174425, 26.008801754290076 ], [ 90.364165818456911, 26.008801754290076 ], [ 90.403683227312897, 26.009131204426119 ], [ 90.405439556595383, 26.009131204426119 ], [ 90.408074050519119, 26.004518902521536 ], [ 90.422124684779021, 25.991670347215923 ], [ 90.431784495832716, 25.991670347215923 ], [ 90.433979907435827, 25.991670347215923 ], [ 90.433979907435827, 25.981457392998635 ], [ 90.414660285328452, 25.92281526878326 ], [ 90.38260727592305, 25.86779709606434 ], [ 90.383924522884911, 25.841111635044985 ], [ 90.342650784746439, 25.828263079739369 ], [ 90.339138126181467, 25.804872120080425 ], [ 90.391828004656105, 25.798942017631681 ], [ 90.402365980351036, 25.761714152259 ], [ 90.402365980351036, 25.761055251986914 ], [ 90.40060965106855, 25.758749101034624 ], [ 90.386998099129258, 25.743264944640678 ], [ 90.406317721236633, 25.722509586070068 ], [ 90.413343038366591, 25.657607909269903 ], [ 90.391828004656105, 25.642453203011996 ], [ 90.397975157144813, 25.630592998114505 ], [ 90.3817291112818, 25.586776130020993 ], [ 90.389632593052994, 25.546253763287897 ], [ 90.387437181449883, 25.5423003616554 ], [ 90.38260727592305, 25.535052458662488 ], [ 90.375581958793092, 25.523521703901039 ], [ 90.349676101876398, 25.513638199819795 ], [ 90.344407114028925, 25.510014248323341 ], [ 90.318062174791606, 25.473774733358781 ], [ 90.320257586394717, 25.463891229277539 ] ] ] } },
{ "type": "Feature", "properties": { "dt_code": "294", "district": "East Garo Hills", "st_code": "17", "year": "2011_c", "st_nm": "Meghalaya" }, "geometry": { "type": "Polygon", "coordinates": [ [ [ 90.941559070074888, 25.754466249266088 ], [ 90.983710972854595, 25.742935494504636 ], [ 90.874379475019722, 25.607531488591604 ], [ 90.823885008148181, 25.590070631381408 ], [ 90.813347032453251, 25.575904275531627 ], [ 90.800613645155209, 25.588423380701201 ], [ 90.800613645155209, 25.588423380701201 ], [ 90.800174562834599, 25.588423380701201 ], [ 90.787441175536557, 25.569315272810798 ], [ 90.781733105368474, 25.583811078796622 ], [ 90.771634211994154, 25.577551526211835 ], [ 90.761974400940474, 25.552183865736644 ], [ 90.761974400940474, 25.552183865736644 ], [ 90.678987842342906, 25.481681536623775 ], [ 90.644739421334393, 25.416120959551531 ], [ 90.518722795315867, 25.433581816761727 ], [ 90.441883389207021, 25.460596727917125 ], [ 90.369434806304383, 25.458290576964835 ], [ 90.322892080318454, 25.462243978597332 ], [ 90.320257586394717, 25.463891229277539 ], [ 90.318062174791606, 25.473774733358781 ], [ 90.344407114028925, 25.510014248323341 ], [ 90.349676101876398, 25.513638199819795 ], [ 90.375581958793092, 25.523521703901039 ], [ 90.38260727592305, 25.535052458662488 ], [ 90.387437181449883, 25.5423003616554 ], [ 90.389632593052994, 25.546253763287897 ], [ 90.3817291112818, 25.586776130020993 ], [ 90.397975157144813, 25.630592998114505 ], [ 90.391828004656105, 25.642453203011996 ], [ 90.413343038366591, 25.657607909269903 ], [ 90.406317721236633, 25.722509586070068 ], [ 90.386998099129258, 25.743264944640678 ], [ 90.40060965106855, 25.758749101034624 ], [ 90.433979907435827, 25.742276594232553 ], [ 90.485791621269215, 25.716908933757363 ], [ 90.500281337849742, 25.718226734301528 ], [ 90.515210136750895, 25.740958793688389 ], [ 90.542433240629464, 25.781810610557525 ], [ 90.569217262187408, 25.776539408380863 ], [ 90.593366789821616, 25.743594394776718 ], [ 90.624102552265157, 25.736346491783806 ], [ 90.679426924663531, 25.783128411101693 ], [ 90.748801931321822, 25.800918718447928 ], [ 90.779098611444738, 25.81475562416167 ], [ 90.816420608697612, 25.818050125522085 ], [ 90.827836749033779, 25.81903847593021 ], [ 90.832227572240001, 25.819697376202292 ], [ 90.890625520882736, 25.758749101034624 ], [ 90.931021094379958, 25.75084229776963 ], [ 90.941559070074888, 25.754466249266088 ] ] ] } },
{ "type": "Feature", "properties": { "dt_code": "299", "district": "West Jaintia Hills", "st_code": "17", "year": "2011_c", "st_nm": "Meghalaya" }, "geometry": { "type": "Polygon", "coordinates": [ [ [ 92.132350323601827, 25.641135402467832 ], [ 92.137619311449299, 25.641135402467832 ], [ 92.140692887693646, 25.644100453692204 ], [ 92.149474534106091, 25.653325057501366 ], [ 92.154304439632938, 25.645088804100329 ], [ 92.152109028029827, 25.670785914711562 ], [ 92.152548110350438, 25.671444814983644 ], [ 92.170111403175326, 25.667161963215104 ], [ 92.22455761093245, 25.715920583349238 ], [ 92.2254357755737, 25.715920583349238 ], [ 92.234217421986145, 25.707684329948201 ], [ 92.264075019788436, 25.709331580628408 ], [ 92.311056828094991, 25.728110238382772 ], [ 92.333450026446712, 25.724156836750275 ], [ 92.384383575638878, 25.754466249266088 ], [ 92.381749081715142, 25.742276594232553 ], [ 92.406337691669975, 25.744582745184843 ], [ 92.411606679517433, 25.730086939199019 ], [ 92.430926301624808, 25.732393090151309 ], [ 92.444098771243475, 25.719873984981735 ], [ 92.440586112678488, 25.691541273282173 ], [ 92.470443710480794, 25.675398216616141 ], [ 92.505570296130557, 25.616426642264724 ], [ 92.553869351398973, 25.614779391584516 ], [ 92.556503845322709, 25.570962523491005 ], [ 92.576262549750695, 25.556466717505181 ], [ 92.584605113842514, 25.550536615056437 ], [ 92.590313184010611, 25.552842766008727 ], [ 92.60524198291175, 25.558772868457474 ], [ 92.621927111095388, 25.5653618711783 ], [ 92.63553866303468, 25.578869326755999 ], [ 92.651345626577069, 25.589411731109326 ], [ 92.657053696745152, 25.582493278252457 ], [ 92.661444519951374, 25.572280324035173 ], [ 92.660566355310124, 25.571621423763087 ], [ 92.659249108348263, 25.571291973627048 ], [ 92.645637556408985, 25.556137267369142 ], [ 92.645637556408985, 25.556137267369142 ], [ 92.642563980164624, 25.535052458662488 ], [ 92.573628055826973, 25.490576690296894 ], [ 92.564407327093903, 25.473774733358781 ], [ 92.566602738697014, 25.463561779141497 ], [ 92.56923723262075, 25.465209029821704 ], [ 92.567919985658889, 25.45730222655671 ], [ 92.567041821017639, 25.456643326284627 ], [ 92.566602738697014, 25.456313876148585 ], [ 92.546844034269029, 25.457961126828792 ], [ 92.545526787307153, 25.458290576964835 ], [ 92.534988811612237, 25.434570167169852 ], [ 92.49239782651189, 25.441488620026721 ], [ 92.450245923732183, 25.421721611864236 ], [ 92.373406517623323, 25.405908005334247 ], [ 92.268465842994658, 25.396024501253002 ], [ 92.174063144060923, 25.353854883839698 ], [ 92.171428650137187, 25.33606457649346 ], [ 92.199529918657007, 25.291918258263909 ], [ 92.20523798882509, 25.227346031599787 ], [ 92.219288623084992, 25.225039880647497 ], [ 92.234656504306756, 25.200001670308346 ], [ 92.224996693253075, 25.163432705207747 ], [ 92.199969000977617, 25.12521648942694 ], [ 92.187674696000201, 25.13608834391631 ], [ 92.189870107603312, 25.122251438202568 ], [ 92.17581947334341, 25.123239788610693 ], [ 92.135423899846188, 25.143336246909222 ], [ 92.122251430227521, 25.166068306296079 ], [ 92.081416774409675, 25.183858613642318 ], [ 92.015993508636996, 25.187812015274815 ], [ 92.016432590957621, 25.18912981581898 ], [ 92.019945249522593, 25.190777066499187 ], [ 92.021262496484454, 25.201978371124596 ], [ 91.984818663872829, 25.245795239218108 ], [ 91.988331322437801, 25.281046403774543 ], [ 92.044972941798051, 25.320909870235553 ], [ 92.111274372211966, 25.30608461411369 ], [ 92.119177853983174, 25.33145227458888 ], [ 92.110835289891355, 25.336394026629502 ], [ 92.111713454532591, 25.379881444586971 ], [ 92.101614561158286, 25.398660102341335 ], [ 92.113030701494466, 25.410520307238826 ], [ 92.094589244028342, 25.451042673971923 ], [ 92.109078960608855, 25.471139132270451 ], [ 92.095028326348952, 25.494200641793352 ], [ 92.113908866135702, 25.54460651260769 ], [ 92.105127219723258, 25.562396819953928 ], [ 92.13805839376991, 25.625321795937843 ], [ 92.133667570563702, 25.639158701651585 ], [ 92.133228488243077, 25.639158701651585 ], [ 92.132350323601827, 25.641135402467832 ] ] ] } },
{ "type": "Feature", "properties": { "dt_code": "713", "district": "South West Khasi Hills", "st_code": "17", "year": "update2014", "st_nm": "Meghalaya" }, "geometry": { "type": "Polygon", "coordinates": [ [ [ 90.839252889369959, 25.307731864793897 ], [ 90.866915075569139, 25.330134474044716 ], [ 90.891942767844597, 25.32914612363659 ], [ 90.923556694929388, 25.351548732887409 ], [ 90.975368408762776, 25.339688527989917 ], [ 90.970977585556568, 25.358137735608238 ], [ 90.985906384457707, 25.365056188465108 ], [ 90.988979960702068, 25.379222544314889 ], [ 91.024545628672456, 25.338700177581792 ], [ 91.050012403268525, 25.34232412907825 ], [ 91.085578071238913, 25.319921519827432 ], [ 91.094798799971969, 25.327828323092426 ], [ 91.098311458536955, 25.330463924180755 ], [ 91.08952981212451, 25.358137735608238 ], [ 91.137828867392926, 25.399319002613417 ], [ 91.115435669041204, 25.413485358463198 ], [ 91.106214940308149, 25.43621741785006 ], [ 91.169003712157092, 25.466197380229829 ], [ 91.179980770172648, 25.448077622747551 ], [ 91.191396910508814, 25.461255628189207 ], [ 91.208960203333703, 25.461255628189207 ], [ 91.22257175527298, 25.44840707288359 ], [ 91.230475237044175, 25.462243978597332 ], [ 91.268236316617674, 25.409531956830701 ], [ 91.284043280160063, 25.412167557919034 ], [ 91.309070972435521, 25.444453671251093 ], [ 91.390740284071228, 25.458620027100874 ], [ 91.447381903431463, 25.45730222655671 ], [ 91.517195992410365, 25.455654975876502 ], [ 91.529051215067156, 25.479375385671485 ], [ 91.546614507892045, 25.481681536623775 ], [ 91.5558352366251, 25.428969514857148 ], [ 91.524221309540323, 25.348913131799076 ], [ 91.549688084136392, 25.330134474044716 ], [ 91.547931754853906, 25.286976506223287 ], [ 91.532563873632142, 25.27643410186996 ], [ 91.495680958699893, 25.283352554726832 ], [ 91.478995830516254, 25.263585546564343 ], [ 91.438161174698408, 25.273139600509545 ], [ 91.42279329347663, 25.261938295884139 ], [ 91.402595506728019, 25.263585546564343 ], [ 91.385471296223756, 25.239535686633321 ], [ 91.354296451459589, 25.234264484456656 ], [ 91.383275884620645, 25.167715556976287 ], [ 91.295459420496243, 25.185176414186483 ], [ 91.264723658052702, 25.206920123165219 ], [ 91.251990270754661, 25.197695519356056 ], [ 91.134755291148579, 25.193083217451477 ], [ 91.081626330353316, 25.201978371124596 ], [ 90.969660338594693, 25.172657309016909 ], [ 90.968343091632832, 25.201319470852514 ], [ 90.949901634166707, 25.214826926430213 ], [ 90.957366033617276, 25.241841837585611 ], [ 90.958683280579152, 25.246783589626233 ], [ 90.95473153969354, 25.251066441394769 ], [ 90.932777423662444, 25.276763552006003 ], [ 90.931460176700583, 25.278081352550167 ], [ 90.931460176700583, 25.277751902414128 ], [ 90.91565321315818, 25.277093002142045 ], [ 90.901602578898277, 25.29718946044057 ], [ 90.862085170042306, 25.294553859352241 ], [ 90.841009218652445, 25.30608461411369 ], [ 90.839252889369959, 25.307731864793897 ] ] ] } },
{ "type": "Feature", "properties": { "dt_code": "712", "district": "North Garo Hills", "st_code": "17", "year": "update2014", "st_nm": "Meghalaya" }, "geometry": { "type": "Polygon", "coordinates": [ [ [ 91.007421418168192, 25.824639128242914 ], [ 91.00215243032072, 25.824968578378954 ], [ 91.001274265679484, 25.824968578378954 ], [ 90.982393725892734, 25.802236518992096 ], [ 90.957366033617276, 25.777198308652945 ], [ 90.944632646319235, 25.772256556612323 ], [ 90.942876317036749, 25.763031952803164 ], [ 90.941559070074888, 25.754466249266088 ], [ 90.941559070074888, 25.754466249266088 ], [ 90.931021094379958, 25.75084229776963 ], [ 90.890625520882736, 25.758749101034624 ], [ 90.832227572240001, 25.819697376202292 ], [ 90.827836749033779, 25.81903847593021 ], [ 90.816420608697612, 25.818050125522085 ], [ 90.779098611444738, 25.81475562416167 ], [ 90.748801931321822, 25.800918718447928 ], [ 90.679426924663531, 25.783128411101693 ], [ 90.624102552265157, 25.736346491783806 ], [ 90.593366789821616, 25.743594394776718 ], [ 90.569217262187408, 25.776539408380863 ], [ 90.542433240629464, 25.781810610557525 ], [ 90.515210136750895, 25.740958793688389 ], [ 90.500281337849742, 25.718226734301528 ], [ 90.485791621269215, 25.716908933757363 ], [ 90.433979907435827, 25.742276594232553 ], [ 90.40060965106855, 25.758749101034624 ], [ 90.402365980351036, 25.761055251986914 ], [ 90.402365980351036, 25.761714152259 ], [ 90.391828004656105, 25.798942017631681 ], [ 90.339138126181467, 25.804872120080425 ], [ 90.342650784746439, 25.828263079739369 ], [ 90.383924522884911, 25.841111635044985 ], [ 90.38260727592305, 25.86779709606434 ], [ 90.414660285328452, 25.92281526878326 ], [ 90.433979907435827, 25.981457392998635 ], [ 90.433979907435827, 25.991670347215923 ], [ 90.476131810215534, 26.009790104698201 ], [ 90.53496884117888, 25.949830179938658 ], [ 90.508623901941561, 25.90173046007661 ], [ 90.513453807468409, 25.896459257899945 ], [ 90.549019475438797, 25.915567365790348 ], [ 90.543750487591325, 25.923803619191386 ], [ 90.576681661637977, 25.936981624633042 ], [ 90.587658719653533, 25.958066433339695 ], [ 90.624102552265157, 25.939287775585331 ], [ 90.606100177119657, 25.916555716198474 ], [ 90.621907140662046, 25.897777058444113 ], [ 90.631127869395115, 25.919191317286806 ], [ 90.636835939563198, 25.922156368511178 ], [ 90.71718800423703, 25.95477193197928 ], [ 90.717627086557656, 25.955101382115323 ], [ 90.724213321366989, 25.946865128714286 ], [ 90.742215696512488, 25.954442481843238 ], [ 90.740459367230002, 25.939617225721374 ], [ 90.746606519718711, 25.928086470959926 ], [ 90.751436425245544, 25.931380972320337 ], [ 90.752753672207419, 25.930392621912215 ], [ 90.750558260604308, 25.926109770143675 ], [ 90.74572835507746, 25.917873516742638 ], [ 90.742215696512488, 25.912602314565977 ], [ 90.760657153978613, 25.921826918375135 ], [ 90.756705413093016, 25.910955063885769 ], [ 90.772512376635405, 25.909307813205562 ], [ 90.778220446803488, 25.908648912933479 ], [ 90.779537693765363, 25.910955063885769 ], [ 90.808956209247029, 25.952465781026991 ], [ 90.836179313125598, 25.948512379394494 ], [ 90.835301148484362, 25.936652174497002 ], [ 90.844082794896792, 25.946206228442204 ], [ 90.880965709829042, 25.942911727081789 ], [ 90.884478368394028, 25.95048908021074 ], [ 90.916970460120055, 25.914249565246184 ], [ 90.91740954244068, 25.944558977761996 ], [ 90.933655588303694, 25.939946675857417 ], [ 90.947267140242971, 25.948182929258451 ], [ 90.966586762350346, 25.914249565246184 ], [ 90.968782173953457, 25.885257953274536 ], [ 91.025423793313692, 25.885916853546618 ], [ 91.026301957954942, 25.880316201233917 ], [ 91.015324899939387, 25.848030087901854 ], [ 91.007421418168192, 25.824639128242914 ] ] ] } },
{ "type": "Feature", "properties": { "dt_code": "711", "district": "South West Garo Hills", "st_code": "17", "year": "update2014", "st_nm": "Meghalaya" }, "geometry": { "type": "Polygon", "coordinates": [ [ [ 90.01992527908925, 25.607202038455565 ], [ 90.090617532709388, 25.588093930565162 ], [ 90.113449813381735, 25.560749569273721 ], [ 90.128817694603512, 25.562396819953928 ], [ 90.130134941565373, 25.562396819953928 ], [ 90.129695859244748, 25.538676410158946 ], [ 90.129695859244748, 25.53768805975082 ], [ 90.136282094054081, 25.53768805975082 ], [ 90.138916587977818, 25.53768805975082 ], [ 90.139355670298443, 25.53768805975082 ], [ 90.141551081901554, 25.553831116416852 ], [ 90.148137316710873, 25.544935962743732 ], [ 90.17096959738322, 25.54460651260769 ], [ 90.15296722223772, 25.398989552477374 ], [ 90.16218795097079, 25.388447148124051 ], [ 90.151649975275859, 25.374939692546352 ], [ 90.035293160311014, 25.344300829894497 ], [ 90.012021797318056, 25.326839972684301 ], [ 89.994019422172542, 25.320250969963471 ], [ 89.993141257531306, 25.313003066970559 ], [ 89.974699800065181, 25.29949561139286 ], [ 89.907959287330627, 25.307731864793897 ], [ 89.87458903096335, 25.287305956359329 ], [ 89.835071622107378, 25.296201110032449 ], [ 89.839901527634211, 25.318603719283264 ], [ 89.820142823206226, 25.347595331254912 ], [ 89.815752, 25.38877659826009 ], [ 89.842096939237322, 25.449724873427758 ], [ 89.871515454719002, 25.477398684855238 ], [ 89.872832701680863, 25.507378647235008 ], [ 89.88600517129953, 25.50803754750709 ], [ 89.883370677375794, 25.519238852132499 ], [ 89.86800279615403, 25.524180604173122 ], [ 89.877223524887086, 25.549218814512273 ], [ 89.877662607207711, 25.549218814512273 ], [ 89.972065306141445, 25.573598124579338 ], [ 89.982603281836376, 25.591058981789534 ], [ 89.983042364157001, 25.591058981789534 ], [ 90.002801068584986, 25.585458329476829 ], [ 90.01992527908925, 25.607202038455565 ] ] ] } }
]
}
