{
"type": "FeatureCollection",
"name": "nagaland",
"crs": { "type": "name", "properties": { "name": "urn:ogc:def:crs:OGC:1.3:CRS84" } },
"features": [
{ "type": "Feature", "properties": { "dt_code": "261", "district": "Mon", "st_code": "13", "year": "2011_c", "st_nm": "Nagaland" }, "geometry": { "type": "Polygon", "coordinates": [ [ [ 95.121987987612826, 26.347968688602826 ], [ 95.082057229842292, 26.337847816441226 ], [ 95.068629187406188, 26.337498820849447 ], [ 95.037532668080473, 26.326679957504286 ], [ 95.000428866612282, 26.293525376285242 ], [ 94.966858760522015, 26.297015332203038 ], [ 94.942122892876554, 26.306438213181082 ], [ 94.954490826699285, 26.330867904605636 ], [ 94.952370609472524, 26.352854626887737 ], [ 94.909966264937452, 26.356344582805534 ], [ 94.913146590777586, 26.380076283046531 ], [ 94.912793221239795, 26.380076283046531 ], [ 94.915620177542124, 26.403109992103971 ], [ 94.897951700652513, 26.439056538057248 ], [ 94.901838765568229, 26.459996273564009 ], [ 94.889117462207707, 26.475701075194081 ], [ 94.897598331114722, 26.505365700495332 ], [ 94.882403440989648, 26.553876087752666 ], [ 94.893711266199006, 26.560158008404695 ], [ 94.87957648468732, 26.577258792401885 ], [ 94.894418005274588, 26.604480448560675 ], [ 94.883463549603036, 26.615648307497619 ], [ 94.85519398657965, 26.610064378029147 ], [ 94.787347035323521, 26.633447082678366 ], [ 94.786640296247938, 26.633796078270144 ], [ 94.787700404861312, 26.654735813776909 ], [ 94.779572905492088, 26.658574765286481 ], [ 94.779572905492088, 26.658574765286481 ], [ 94.790173991625863, 26.688239390587729 ], [ 94.779926275029894, 26.698360262749333 ], [ 94.805368881750937, 26.689286377363068 ], [ 94.833991814312114, 26.718253011480758 ], [ 94.804308773137549, 26.748964623557342 ], [ 94.797948121457296, 26.760830473677842 ], [ 94.805015512213146, 26.767810385513428 ], [ 94.794414426079371, 26.76815938110521 ], [ 94.793707687003788, 26.768508376696989 ], [ 94.796888012843922, 26.769206367880546 ], [ 94.814556489733533, 26.776884270899693 ], [ 94.814203120195742, 26.780025231225707 ], [ 94.803602034061967, 26.794334050488665 ], [ 94.798654860532878, 26.795381037264001 ], [ 94.790880730701446, 26.797126015222897 ], [ 94.788760513474699, 26.797475010814679 ], [ 94.802541925448594, 26.801313962324251 ], [ 94.795121165154953, 26.814226799220087 ], [ 94.795474534692744, 26.814226799220087 ], [ 94.814203120195742, 26.819810728688559 ], [ 94.817383446035876, 26.84773037603091 ], [ 94.817383446035876, 26.84773037603091 ], [ 94.849893443512755, 26.874603036597922 ], [ 94.865795072713411, 26.908804604592302 ], [ 94.871095615780305, 26.913341547285434 ], [ 94.882403440989648, 26.923113423855256 ], [ 94.889470831745498, 26.929046348915506 ], [ 94.905725830483945, 26.937422243118213 ], [ 94.924101046449138, 26.948590102055153 ], [ 94.930815067667197, 26.932536304833299 ], [ 94.958731261152792, 26.936724251934653 ], [ 94.96120484791733, 26.937073247526431 ], [ 94.982407020184866, 26.912992551693655 ], [ 95.016683865350728, 26.921019450304581 ], [ 95.101845923958663, 26.961851934542768 ], [ 95.111740271016856, 26.980697696498858 ], [ 95.193368634246866, 27.035839 ], [ 95.193368634246866, 27.035839 ], [ 95.193368634246866, 27.035839 ], [ 95.195488851473627, 27.035141008816439 ], [ 95.191601786557911, 26.984885643600208 ], [ 95.211390480674282, 26.9663888772359 ], [ 95.202202872691672, 26.958012983033196 ], [ 95.20679667668297, 26.941959185811346 ], [ 95.230119066177267, 26.922764428263477 ], [ 95.232239283404027, 26.902871679532051 ], [ 95.22799884895052, 26.88088495724995 ], [ 95.208563524371939, 26.882280939617068 ], [ 95.181000700424136, 26.856106270233614 ], [ 95.202909611767254, 26.846334393663792 ], [ 95.197255699162582, 26.822602693422795 ], [ 95.208210154834148, 26.795032041672222 ], [ 95.241780260924415, 26.782817195959943 ], [ 95.242487, 26.782468200368164 ], [ 95.216337654203372, 26.755595539801153 ], [ 95.209977002523104, 26.728722879234137 ], [ 95.232946022479609, 26.705689170176697 ], [ 95.234006131092983, 26.683004456711039 ], [ 95.234006131092983, 26.682306465527478 ], [ 95.208563524371939, 26.64775590194132 ], [ 95.181000700424136, 26.642869963656409 ], [ 95.149197442022839, 26.615997303089397 ], [ 95.154144615551928, 26.582842721870353 ], [ 95.139303094964646, 26.555970061303341 ], [ 95.12516831345296, 26.557715039262238 ], [ 95.107146467025544, 26.541312246448609 ], [ 95.114213857781394, 26.518278537391168 ], [ 95.061915166188143, 26.449875401402409 ], [ 95.06615560064165, 26.441499507199701 ], [ 95.084530816606843, 26.447432432259951 ], [ 95.103966141185424, 26.42055977169294 ], [ 95.099725706731917, 26.394036106717707 ], [ 95.129055378368676, 26.384962221331442 ], [ 95.121987987612826, 26.347968688602826 ] ] ] } },
{ "type": "Feature", "properties": { "dt_code": "268", "district": "Longleng", "st_code": "13", "year": "2011_c", "st_nm": "Nagaland" }, "geometry": { "type": "Polygon", "coordinates": [ [ [ 94.736108452343643, 26.749662614740902 ], [ 94.739995517259359, 26.776186279716136 ], [ 94.758370733224552, 26.766065407554532 ], [ 94.770031927971701, 26.789099116611972 ], [ 94.790880730701446, 26.797126015222897 ], [ 94.798654860532878, 26.795381037264001 ], [ 94.803602034061967, 26.794334050488665 ], [ 94.814203120195742, 26.780025231225707 ], [ 94.814556489733533, 26.776884270899693 ], [ 94.796888012843922, 26.769206367880546 ], [ 94.793707687003788, 26.768508376696989 ], [ 94.794414426079371, 26.76815938110521 ], [ 94.805015512213146, 26.767810385513428 ], [ 94.797948121457296, 26.760830473677842 ], [ 94.804308773137549, 26.748964623557342 ], [ 94.833991814312114, 26.718253011480758 ], [ 94.805368881750937, 26.689286377363068 ], [ 94.779926275029894, 26.698360262749333 ], [ 94.790173991625863, 26.688239390587729 ], [ 94.779572905492088, 26.658574765286481 ], [ 94.779572905492088, 26.658574765286481 ], [ 94.787700404861312, 26.654735813776909 ], [ 94.786640296247938, 26.633796078270144 ], [ 94.787347035323521, 26.633447082678366 ], [ 94.85519398657965, 26.610064378029147 ], [ 94.883463549603036, 26.615648307497619 ], [ 94.894418005274588, 26.604480448560675 ], [ 94.87957648468732, 26.577258792401885 ], [ 94.893711266199006, 26.560158008404695 ], [ 94.882403440989648, 26.553876087752666 ], [ 94.897598331114722, 26.505365700495332 ], [ 94.889117462207707, 26.475701075194081 ], [ 94.901838765568229, 26.459996273564009 ], [ 94.897951700652513, 26.439056538057248 ], [ 94.915620177542124, 26.403109992103971 ], [ 94.912793221239795, 26.380076283046531 ], [ 94.912439851702004, 26.380076283046531 ], [ 94.846713117672635, 26.382170256597206 ], [ 94.765791493518194, 26.460345269155791 ], [ 94.743882582175075, 26.462090247114688 ], [ 94.709252367471436, 26.446036449892834 ], [ 94.688403564741691, 26.479191031111878 ], [ 94.694410846884153, 26.497338801884403 ], [ 94.687696825666094, 26.519674519758286 ], [ 94.725860735747673, 26.565392942281385 ], [ 94.732928126503509, 26.600641497051104 ], [ 94.7332814960413, 26.600990492642882 ], [ 94.706778780706884, 26.638333020963277 ], [ 94.66896824016311, 26.648453893124881 ], [ 94.719500084067406, 26.680561487568582 ], [ 94.724093888058704, 26.698011267157554 ], [ 94.749183125241956, 26.698360262749333 ], [ 94.743529212637284, 26.731514843968373 ], [ 94.756603885535597, 26.729420870417698 ], [ 94.736108452343643, 26.749662614740902 ] ] ] } },
{ "type": "Feature", "properties": { "dt_code": "262", "district": "Mokokchung", "st_code": "13", "year": "2011_c", "st_nm": "Nagaland" }, "geometry": { "type": "Polygon", "coordinates": [ [ [ 94.736108452343643, 26.749662614740902 ], [ 94.756603885535597, 26.729420870417698 ], [ 94.743529212637284, 26.731514843968373 ], [ 94.749183125241956, 26.698360262749333 ], [ 94.724093888058704, 26.698011267157554 ], [ 94.719500084067406, 26.680561487568582 ], [ 94.66896824016311, 26.648453893124881 ], [ 94.706778780706884, 26.638333020963277 ], [ 94.7332814960413, 26.600990492642882 ], [ 94.732928126503509, 26.600641497051104 ], [ 94.725860735747673, 26.565392942281385 ], [ 94.687696825666094, 26.519674519758286 ], [ 94.694410846884153, 26.497338801884403 ], [ 94.688403564741691, 26.479191031111878 ], [ 94.709252367471436, 26.446036449892834 ], [ 94.70889899793363, 26.442546493975041 ], [ 94.707485519782466, 26.434868590955894 ], [ 94.702538346253377, 26.408344925980661 ], [ 94.69335073827078, 26.412881868673793 ], [ 94.678155848145707, 26.381472265413649 ], [ 94.657307045415962, 26.375888335945177 ], [ 94.66366769709623, 26.371351393252045 ], [ 94.650593024197903, 26.338545807624783 ], [ 94.614549331343099, 26.326330961912504 ], [ 94.592640419999967, 26.295619349835921 ], [ 94.582746072941788, 26.30085428371261 ], [ 94.581685964328415, 26.28968642477567 ], [ 94.564370856976595, 26.287592451224992 ], [ 94.563664117900998, 26.28375349971542 ], [ 94.559777052985297, 26.255833852373069 ], [ 94.583099442479579, 26.2383840727841 ], [ 94.58345281201737, 26.220236302011571 ], [ 94.58345281201737, 26.218840319644453 ], [ 94.553416401305029, 26.201739535647263 ], [ 94.531154120424119, 26.216746346093778 ], [ 94.4997042315606, 26.214303376951321 ], [ 94.498997492485017, 26.214303376951321 ], [ 94.497937383871644, 26.228961191806057 ], [ 94.515959230299046, 26.239431059559436 ], [ 94.487336297737869, 26.280961534981184 ], [ 94.48062227651981, 26.29073341155101 ], [ 94.474261624839556, 26.281659526164745 ], [ 94.445638692278379, 26.205927482748617 ], [ 94.405354564970054, 26.211511412217085 ], [ 94.371077719804205, 26.193014645852781 ], [ 94.372137828417578, 26.195806610587013 ], [ 94.382385545013562, 26.225471235888264 ], [ 94.372844567493161, 26.231404160948511 ], [ 94.335740766024983, 26.240129050742997 ], [ 94.335387396487178, 26.240478046334776 ], [ 94.335034026949387, 26.240478046334776 ], [ 94.359416525057057, 26.268746689268905 ], [ 94.351995764763416, 26.309928169098875 ], [ 94.366130546275116, 26.336800829665886 ], [ 94.343514895856401, 26.331565895789197 ], [ 94.358709785981475, 26.356693578397312 ], [ 94.330086853420298, 26.395432089084824 ], [ 94.324786310353417, 26.401714009736853 ], [ 94.301110551321329, 26.377284318312295 ], [ 94.303937507623672, 26.394036106717707 ], [ 94.290156095649778, 26.417767806958704 ], [ 94.31347848514406, 26.459996273564009 ], [ 94.313831854681851, 26.46069426474757 ], [ 94.316658810984194, 26.458251295605113 ], [ 94.325493049428999, 26.481982995846113 ], [ 94.352349134301221, 26.490009894457039 ], [ 94.352702503839012, 26.490009894457039 ], [ 94.352702503839012, 26.490358890048817 ], [ 94.347755330309909, 26.504667709311772 ], [ 94.372137828417578, 26.506063691678889 ], [ 94.376024893333295, 26.521768493308961 ], [ 94.400760760978756, 26.534332334613019 ], [ 94.413128694801486, 26.577258792401885 ], [ 94.402880978205516, 26.610762369212704 ], [ 94.451292604883051, 26.636239047412602 ], [ 94.465427386394751, 26.633098087086587 ], [ 94.45305945257202, 26.652641840226231 ], [ 94.46012684332787, 26.661715725612495 ], [ 94.492636840804749, 26.665903672713849 ], [ 94.508185100467614, 26.685447425853496 ], [ 94.51737270845021, 26.6819574699357 ], [ 94.520553034290344, 26.699407249524668 ], [ 94.562250639749834, 26.705340174584919 ], [ 94.559423683447491, 26.686494412628832 ], [ 94.566844443741132, 26.683702447894596 ], [ 94.577092160337116, 26.700803231891786 ], [ 94.593700528613354, 26.697313275973993 ], [ 94.593347159075563, 26.715112051154744 ], [ 94.59546737630231, 26.714414059971183 ], [ 94.602888136595951, 26.711622095236947 ], [ 94.601474658444786, 26.713018077604065 ], [ 94.594760637226727, 26.717904015888976 ], [ 94.591226941848802, 26.721044976214991 ], [ 94.585926398781922, 26.725232923316344 ], [ 94.594760637226727, 26.729769866009477 ], [ 94.596880854453474, 26.734655804294388 ], [ 94.608188679662831, 26.736749777845063 ], [ 94.609248788276204, 26.737098773436845 ], [ 94.60960215781401, 26.737098773436845 ], [ 94.62020324394777, 26.712320086420508 ], [ 94.692290629657393, 26.731863839560152 ], [ 94.737168560957016, 26.762575451636739 ], [ 94.736108452343643, 26.749662614740902 ] ] ] } },
{ "type": "Feature", "properties": { "dt_code": "267", "district": "Tuensang", "st_code": "13", "year": "2011_c", "st_nm": "Nagaland" }, "geometry": { "type": "Polygon", "coordinates": [ [ [ 94.709252367471436, 26.446036449892834 ], [ 94.743882582175075, 26.462090247114688 ], [ 94.765791493518194, 26.460345269155791 ], [ 94.846713117672635, 26.382170256597206 ], [ 94.912439851702004, 26.380076283046531 ], [ 94.912793221239795, 26.380076283046531 ], [ 94.913146590777586, 26.380076283046531 ], [ 94.909966264937452, 26.356344582805534 ], [ 94.952370609472524, 26.352854626887737 ], [ 94.954490826699285, 26.330867904605636 ], [ 94.942122892876554, 26.306438213181082 ], [ 94.966858760522015, 26.297015332203038 ], [ 95.000428866612282, 26.293525376285242 ], [ 95.037532668080473, 26.326679957504286 ], [ 95.068629187406188, 26.337498820849447 ], [ 95.082057229842292, 26.337847816441226 ], [ 95.121987987612826, 26.347968688602826 ], [ 95.128348639293094, 26.339592794400122 ], [ 95.119514400848274, 26.264907737759334 ], [ 95.127288530679706, 26.253739878822394 ], [ 95.114567227319185, 26.232800143315629 ], [ 95.14248342080478, 26.211511412217085 ], [ 95.121987987612826, 26.184987747241852 ], [ 95.117040814083737, 26.158813077858401 ], [ 95.126228422066333, 26.129148452557153 ], [ 95.115980705470363, 26.107510725866831 ], [ 95.14955081156063, 26.086919985951845 ], [ 95.164745701685689, 26.092503915420316 ], [ 95.185594504415434, 26.073309157872451 ], [ 95.125875052528542, 25.986060259927601 ], [ 95.089124620598142, 25.950462709566107 ], [ 95.043893319760727, 25.927080004916885 ], [ 95.030818646862414, 25.931267952018239 ], [ 95.013503539510594, 25.891133458963608 ], [ 95.013503539510594, 25.89078446337183 ], [ 94.972866042664478, 25.881710577985565 ], [ 94.967918869135389, 25.901603326716991 ], [ 94.937175719347451, 25.912771185653931 ], [ 94.927988111364854, 25.945925766872975 ], [ 94.925161155062526, 25.948717731607207 ], [ 94.910319634475243, 25.948368736015428 ], [ 94.894418005274588, 25.942435810955178 ], [ 94.864028225024455, 25.94801974042365 ], [ 94.842472683219128, 25.933710921160696 ], [ 94.857667573344187, 25.972100436256426 ], [ 94.888057353594334, 26.008395977801484 ], [ 94.880283223762902, 26.018167854371306 ], [ 94.864381594562246, 26.01642287641241 ], [ 94.845299639521457, 26.041201563428746 ], [ 94.786640296247938, 26.009093968985042 ], [ 94.766498232593776, 26.023053792656217 ], [ 94.718439975454032, 26.023053792656217 ], [ 94.689110303817273, 26.009791960168602 ], [ 94.669321609700901, 26.020261827921981 ], [ 94.704658563480123, 26.048879466447893 ], [ 94.687343456128303, 26.115188628885978 ], [ 94.705718672093511, 26.171725914754237 ], [ 94.6965310641109, 26.171376919162459 ], [ 94.689463673355064, 26.19824957972947 ], [ 94.666494653398559, 26.212558398992424 ], [ 94.65660030634038, 26.203135518014381 ], [ 94.638225090375172, 26.217095341685557 ], [ 94.612429114116338, 26.193363641444559 ], [ 94.599707810755817, 26.197551588545913 ], [ 94.58345281201737, 26.218840319644453 ], [ 94.58345281201737, 26.220236302011571 ], [ 94.583099442479579, 26.2383840727841 ], [ 94.559777052985297, 26.255833852373069 ], [ 94.563664117900998, 26.28375349971542 ], [ 94.564370856976595, 26.287592451224992 ], [ 94.581685964328415, 26.28968642477567 ], [ 94.582746072941788, 26.30085428371261 ], [ 94.592640419999967, 26.295619349835921 ], [ 94.614549331343099, 26.326330961912504 ], [ 94.650593024197903, 26.338545807624783 ], [ 94.66366769709623, 26.371351393252045 ], [ 94.657307045415962, 26.375888335945177 ], [ 94.678155848145707, 26.381472265413649 ], [ 94.69335073827078, 26.412881868673793 ], [ 94.702538346253377, 26.408344925980661 ], [ 94.707485519782466, 26.434868590955894 ], [ 94.70889899793363, 26.442546493975041 ], [ 94.709252367471436, 26.446036449892834 ] ] ] } },
{ "type": "Feature", "properties": { "dt_code": "269", "district": "Kiphire", "st_code": "13", "year": "2011_c", "st_nm": "Nagaland" }, "geometry": { "type": "Polygon", "coordinates": [ [ [ 94.669321609700901, 26.020261827921981 ], [ 94.689110303817273, 26.009791960168602 ], [ 94.718439975454032, 26.023053792656217 ], [ 94.766498232593776, 26.023053792656217 ], [ 94.786640296247938, 26.009093968985042 ], [ 94.845299639521457, 26.041201563428746 ], [ 94.864381594562246, 26.01642287641241 ], [ 94.880283223762902, 26.018167854371306 ], [ 94.888057353594334, 26.008395977801484 ], [ 94.857667573344187, 25.972100436256426 ], [ 94.842472683219128, 25.933710921160696 ], [ 94.864028225024455, 25.94801974042365 ], [ 94.894418005274588, 25.942435810955178 ], [ 94.910319634475243, 25.948368736015428 ], [ 94.925161155062526, 25.948717731607207 ], [ 94.927988111364854, 25.945925766872975 ], [ 94.937175719347451, 25.912771185653931 ], [ 94.967918869135389, 25.901603326716991 ], [ 94.972866042664478, 25.881710577985565 ], [ 95.013503539510594, 25.89078446337183 ], [ 95.013503539510594, 25.891133458963608 ], [ 95.014917017661759, 25.891482454555391 ], [ 95.008909735519296, 25.867052763130832 ], [ 95.02940516871125, 25.840180102563821 ], [ 95.032938864089175, 25.814354428772145 ], [ 95.049900601903204, 25.800743600692748 ], [ 95.040359624382802, 25.741763345682031 ], [ 95.00325582291461, 25.728501513194416 ], [ 94.970392455899926, 25.688716015731565 ], [ 94.936468980271869, 25.668125275816582 ], [ 94.914913438466542, 25.607400042846969 ], [ 94.883110180065231, 25.586111311748425 ], [ 94.866148442251202, 25.608796025214087 ], [ 94.851306921663934, 25.610541003172983 ], [ 94.846006378597039, 25.649977505044053 ], [ 94.856607464730814, 25.717333654257473 ], [ 94.819503663262623, 25.763052076780575 ], [ 94.819150293724832, 25.763750067964132 ], [ 94.755190407384433, 25.78224683432844 ], [ 94.725153996672077, 25.748394261925839 ], [ 94.725507366209868, 25.745951292783385 ], [ 94.726920844361047, 25.725360552868402 ], [ 94.726920844361047, 25.72501155727662 ], [ 94.723387148983122, 25.723964570501284 ], [ 94.717379866840645, 25.722219592542388 ], [ 94.716319758227272, 25.730246491153313 ], [ 94.712786062849347, 25.759213125271 ], [ 94.687343456128303, 25.796904649183176 ], [ 94.684869869363766, 25.800394605100969 ], [ 94.660487371256096, 25.81121346844613 ], [ 94.652713241424664, 25.814703424363923 ], [ 94.651299763273499, 25.815401415547484 ], [ 94.610308896889592, 25.817844384689938 ], [ 94.595820745840101, 25.875428657333536 ], [ 94.569671400043475, 25.889388481004712 ], [ 94.669321609700901, 26.020261827921981 ] ] ] } },
{ "type": "Feature", "properties": { "dt_code": "271", "district": "Peren", "st_code": "13", "year": "2011_c", "st_nm": "Nagaland" }, "geometry": { "type": "Polygon", "coordinates": [ [ [ 93.512743112506726, 25.675105187652168 ], [ 93.659391470690537, 25.649628509452274 ], [ 93.794732003664976, 25.669172262591921 ], [ 93.88342775765085, 25.65835339924676 ], [ 93.92865905848825, 25.670917240550818 ], [ 93.929012428026056, 25.65835339924676 ], [ 93.929365797563847, 25.624849822435937 ], [ 93.914170907438773, 25.62240685329348 ], [ 93.914170907438773, 25.612983972315437 ], [ 93.939966883697608, 25.586111311748425 ], [ 93.9357264492441, 25.558889655589635 ], [ 93.88872830071773, 25.565171576241664 ], [ 93.861165476769926, 25.553305726121163 ], [ 93.834309391897719, 25.560634633548531 ], [ 93.816640915008094, 25.540392889225327 ], [ 93.765048962490425, 25.53864791126643 ], [ 93.765048962490425, 25.538298915674648 ], [ 93.764695592952634, 25.536553937715752 ], [ 93.758334941272366, 25.504097347680268 ], [ 93.7615152671125, 25.499560404987136 ], [ 93.763988853877052, 25.496419444661122 ], [ 93.76646244064159, 25.493627479926889 ], [ 93.78589776522017, 25.50270136531315 ], [ 93.786957873833543, 25.503050360904933 ], [ 93.800385916269661, 25.496419444661122 ], [ 93.809926893790049, 25.483855603357064 ], [ 93.80497972026096, 25.463264863442081 ], [ 93.80497972026096, 25.463264863442081 ], [ 93.80497972026096, 25.463264863442081 ], [ 93.774236570473022, 25.419640414469658 ], [ 93.742079942533934, 25.403935612839586 ], [ 93.70921657551925, 25.357170203541148 ], [ 93.686600925100535, 25.359962168275384 ], [ 93.681653751571446, 25.328901560607019 ], [ 93.664692013757417, 25.325760600281004 ], [ 93.66751897005976, 25.310753789834489 ], [ 93.605325931408316, 25.199075200465085 ], [ 93.588010824056482, 25.20116917401576 ], [ 93.584123759140766, 25.221759913930747 ], [ 93.556207565655185, 25.245840609763523 ], [ 93.555854196117394, 25.245840609763523 ], [ 93.501788656835174, 25.24235065384573 ], [ 93.506382460826472, 25.269223314412741 ], [ 93.47210561566061, 25.271666283555199 ], [ 93.47210561566061, 25.303424882407121 ], [ 93.469985398433863, 25.305867851549579 ], [ 93.448429856628536, 25.340767410727516 ], [ 93.47210561566061, 25.383693868516382 ], [ 93.473165724273997, 25.385438846475278 ], [ 93.470692137509445, 25.388230811209514 ], [ 93.457970834148924, 25.431157268998376 ], [ 93.456203986459968, 25.432553251365494 ], [ 93.455850616922177, 25.433949233732612 ], [ 93.453023660619834, 25.434996220507951 ], [ 93.424754097596448, 25.44651307503667 ], [ 93.390123882892809, 25.460472898707845 ], [ 93.391183991506182, 25.482459620989946 ], [ 93.386236817977093, 25.485949576907743 ], [ 93.38553007890151, 25.490486519600875 ], [ 93.35902736356708, 25.515265206617208 ], [ 93.350193125122274, 25.532365990614398 ], [ 93.330051061468112, 25.542486862776002 ], [ 93.330051061468112, 25.542137867184223 ], [ 93.328990952854738, 25.543184853959559 ], [ 93.337118452223962, 25.554701708488281 ], [ 93.341005517139678, 25.558191664406074 ], [ 93.358673994029289, 25.554701708488281 ], [ 93.426520945285404, 25.632178729863305 ], [ 93.444189422175029, 25.639856632882452 ], [ 93.460797790451267, 25.632527725455084 ], [ 93.460797790451267, 25.632527725455084 ], [ 93.457264095073342, 25.64125261524957 ], [ 93.490127462088026, 25.65242047418651 ], [ 93.49648811376828, 25.654514447737185 ], [ 93.502848765448547, 25.664984315490567 ], [ 93.512743112506726, 25.675105187652168 ] ] ] } },
{ "type": "Feature", "properties": { "dt_code": "264", "district": "Wokha", "st_code": "13", "year": "2011_c", "st_nm": "Nagaland" }, "geometry": { "type": "Polygon", "coordinates": [ [ [ 94.313831854681851, 26.46069426474757 ], [ 94.31347848514406, 26.459996273564009 ], [ 94.290156095649778, 26.417767806958704 ], [ 94.303937507623672, 26.394036106717707 ], [ 94.301110551321329, 26.377284318312295 ], [ 94.324786310353417, 26.401714009736853 ], [ 94.330086853420298, 26.395432089084824 ], [ 94.358709785981475, 26.356693578397312 ], [ 94.343514895856401, 26.331565895789197 ], [ 94.366130546275116, 26.336800829665886 ], [ 94.351995764763416, 26.309928169098875 ], [ 94.359416525057057, 26.268746689268905 ], [ 94.335034026949387, 26.240478046334776 ], [ 94.335387396487178, 26.240478046334776 ], [ 94.335740766024983, 26.240129050742997 ], [ 94.372844567493161, 26.231404160948511 ], [ 94.382385545013562, 26.225471235888264 ], [ 94.372137828417578, 26.195806610587013 ], [ 94.335387396487178, 26.178356830998045 ], [ 94.386979349004861, 26.115886620069535 ], [ 94.379911958249011, 26.100530814031242 ], [ 94.390513044382786, 26.08377902562583 ], [ 94.357649677368101, 26.021657810289099 ], [ 94.362596850897191, 26.008395977801484 ], [ 94.336447505100566, 25.99932209241522 ], [ 94.317365550059776, 26.018516849963085 ], [ 94.317012180521985, 26.018167854371306 ], [ 94.299697073170165, 26.006302004250806 ], [ 94.274254466449122, 26.00944296457682 ], [ 94.274961205524704, 26.004208030700131 ], [ 94.244571425274572, 26.001765061557677 ], [ 94.241391099434438, 26.003859035108352 ], [ 94.223722622544827, 26.01537588963707 ], [ 94.219128818553514, 26.018516849963085 ], [ 94.192626103219098, 25.989201220253616 ], [ 94.160822844817787, 25.972798427439987 ], [ 94.139620672550251, 25.99234218057963 ], [ 94.100043284317522, 25.985362268744044 ], [ 94.09756969755297, 25.991644189396073 ], [ 94.002159922349051, 25.990597202620734 ], [ 93.972476881174501, 25.99234218057963 ], [ 93.954101665209308, 25.969308471522194 ], [ 93.95304155659592, 26.003161043924791 ], [ 93.962229164578531, 26.036664620735614 ], [ 93.987318401761783, 26.067027237220422 ], [ 93.981311119619306, 26.081336056483376 ], [ 93.997919487895544, 26.109604699417506 ], [ 93.986611662686187, 26.114141642110638 ], [ 93.997566118357753, 26.128799456965371 ], [ 93.989085249450739, 26.13089343051605 ], [ 94.002159922349051, 26.134383386433843 ], [ 93.994385792517619, 26.148343210105018 ], [ 94.001099813735678, 26.172423905937794 ], [ 94.031842963523601, 26.197551588545913 ], [ 94.047744592724257, 26.24955193172104 ], [ 94.074600677596479, 26.264558742167555 ], [ 94.074600677596479, 26.28375349971542 ], [ 94.084141655116866, 26.283404504123641 ], [ 94.104990457846611, 26.320049041260475 ], [ 94.121598826122849, 26.3179550677098 ], [ 94.115944913518177, 26.3298209178303 ], [ 94.144921215617146, 26.330518909013858 ], [ 94.160469475279996, 26.337847816441226 ], [ 94.171777300489353, 26.343431745909694 ], [ 94.17778458263183, 26.34622371064393 ], [ 94.167890235573637, 26.34692170182749 ], [ 94.163296431582339, 26.351109648928841 ], [ 94.171070561413771, 26.362975499049341 ], [ 94.171070561413771, 26.372049384435606 ], [ 94.171777300489353, 26.429982652670983 ], [ 94.18308512569871, 26.45545933087088 ], [ 94.236443925905348, 26.506063691678889 ], [ 94.243511316661184, 26.518976528574726 ], [ 94.282381965818345, 26.559460017221134 ], [ 94.284148813507301, 26.560855999588252 ], [ 94.289802726111972, 26.479889022295435 ], [ 94.313831854681851, 26.46069426474757 ] ] ] } },
{ "type": "Feature", "properties": { "dt_code": "263", "district": "Zunheboto", "st_code": "13", "year": "2011_c", "st_nm": "Nagaland" }, "geometry": { "type": "Polygon", "coordinates": [ [ [ 94.372137828417578, 26.195806610587013 ], [ 94.371077719804205, 26.193014645852781 ], [ 94.405354564970054, 26.211511412217085 ], [ 94.445638692278379, 26.205927482748617 ], [ 94.474261624839556, 26.281659526164745 ], [ 94.48062227651981, 26.29073341155101 ], [ 94.487336297737869, 26.280961534981184 ], [ 94.515959230299046, 26.239431059559436 ], [ 94.497937383871644, 26.228961191806057 ], [ 94.498997492485017, 26.214303376951321 ], [ 94.4997042315606, 26.214303376951321 ], [ 94.531154120424119, 26.216746346093778 ], [ 94.553416401305029, 26.201739535647263 ], [ 94.58345281201737, 26.218840319644453 ], [ 94.599707810755817, 26.197551588545913 ], [ 94.612429114116338, 26.193363641444559 ], [ 94.638225090375172, 26.217095341685557 ], [ 94.65660030634038, 26.203135518014381 ], [ 94.666494653398559, 26.212558398992424 ], [ 94.689463673355064, 26.19824957972947 ], [ 94.6965310641109, 26.171376919162459 ], [ 94.705718672093511, 26.171725914754237 ], [ 94.687343456128303, 26.115188628885978 ], [ 94.704658563480123, 26.048879466447893 ], [ 94.669321609700901, 26.020261827921981 ], [ 94.569671400043475, 25.889388481004712 ], [ 94.595820745840101, 25.875428657333536 ], [ 94.610308896889592, 25.817844384689938 ], [ 94.651299763273499, 25.815401415547484 ], [ 94.652713241424664, 25.814703424363923 ], [ 94.660487371256096, 25.81121346844613 ], [ 94.684869869363766, 25.800394605100969 ], [ 94.687343456128303, 25.796904649183176 ], [ 94.712786062849347, 25.759213125271 ], [ 94.695824325035318, 25.757468147312103 ], [ 94.658367154029335, 25.777709891635308 ], [ 94.636458242686217, 25.769333997432604 ], [ 94.606775201511667, 25.778407882818868 ], [ 94.559423683447491, 25.731991469112209 ], [ 94.553416401305029, 25.779454869594204 ], [ 94.535394554877627, 25.784340807879119 ], [ 94.54175520655788, 25.811911459629687 ], [ 94.518079447525793, 25.824824296525527 ], [ 94.511012056769957, 25.81644840232282 ], [ 94.494403688493719, 25.831455212769335 ], [ 94.465427386394751, 25.830408225993995 ], [ 94.456946517487737, 25.853441935051436 ], [ 94.456946517487737, 25.853441935051436 ], [ 94.380265327786802, 25.831804208361113 ], [ 94.28591566119627, 25.78817975938869 ], [ 94.273194357835735, 25.794810675632498 ], [ 94.273194357835735, 25.794810675632498 ], [ 94.29616337779224, 25.809817486079012 ], [ 94.267893814768854, 25.809468490487234 ], [ 94.214535014562216, 25.875777652925315 ], [ 94.243864686198975, 25.922194066631974 ], [ 94.28379544396951, 25.939294850629164 ], [ 94.274961205524704, 26.004208030700131 ], [ 94.274254466449122, 26.00944296457682 ], [ 94.299697073170165, 26.006302004250806 ], [ 94.317012180521985, 26.018167854371306 ], [ 94.317365550059776, 26.018516849963085 ], [ 94.336447505100566, 25.99932209241522 ], [ 94.362596850897191, 26.008395977801484 ], [ 94.357649677368101, 26.021657810289099 ], [ 94.390513044382786, 26.08377902562583 ], [ 94.379911958249011, 26.100530814031242 ], [ 94.386979349004861, 26.115886620069535 ], [ 94.335387396487178, 26.178356830998045 ], [ 94.372137828417578, 26.195806610587013 ] ] ] } },
{ "type": "Feature", "properties": { "dt_code": "266", "district": "Phek", "st_code": "13", "year": "2011_c", "st_nm": "Nagaland" }, "geometry": { "type": "Polygon", "coordinates": [ [ [ 94.883110180065231, 25.586111311748425 ], [ 94.898305070190304, 25.565520571833442 ], [ 94.845653009059248, 25.561332624732088 ], [ 94.825157575867294, 25.542486862776002 ], [ 94.807842468515474, 25.493976475518668 ], [ 94.783813339945596, 25.48071464303105 ], [ 94.761904428602477, 25.482110625398168 ], [ 94.751656712006508, 25.493627479926889 ], [ 94.718086605916241, 25.469197788502331 ], [ 94.683456391212587, 25.466056828176317 ], [ 94.675328891843364, 25.445466088261334 ], [ 94.616316179032054, 25.462217876666742 ], [ 94.615256070418681, 25.463264863442081 ], [ 94.576738790799325, 25.495721453477564 ], [ 94.556950096682954, 25.501654378537815 ], [ 94.554123140380611, 25.50374835208849 ], [ 94.566491074203341, 25.548070792244474 ], [ 94.55588998806958, 25.554701708488281 ], [ 94.564370856976595, 25.563426598282764 ], [ 94.550942814540477, 25.579480395504618 ], [ 94.58345281201737, 25.634272703413981 ], [ 94.593347159075563, 25.635668685781098 ], [ 94.573911834496982, 25.640554624066009 ], [ 94.586279768319713, 25.663937328715228 ], [ 94.580272486177236, 25.668823267000139 ], [ 94.596527484915683, 25.682434095079536 ], [ 94.595820745840101, 25.682434095079536 ], [ 94.580272486177236, 25.688716015731565 ], [ 94.5732050954214, 25.691507980465801 ], [ 94.572851725883609, 25.691507980465801 ], [ 94.571791617270222, 25.691856976057579 ], [ 94.530800750886328, 25.643695584392024 ], [ 94.520906403828135, 25.638809646107113 ], [ 94.497230644796048, 25.613681963498998 ], [ 94.488749775889033, 25.604608078112733 ], [ 94.480975646057615, 25.614030959090776 ], [ 94.477795320217481, 25.614030959090776 ], [ 94.425143259086425, 25.586460307340204 ], [ 94.416662390179411, 25.536553937715752 ], [ 94.385212501315891, 25.532365990614398 ], [ 94.321605984513283, 25.503050360904933 ], [ 94.284502183045092, 25.507936299189844 ], [ 94.249871968341452, 25.494325471110447 ], [ 94.232556860989632, 25.495023462294004 ], [ 94.214535014562216, 25.495721453477564 ], [ 94.208527732419753, 25.496070449069343 ], [ 94.197926646285978, 25.512473241882976 ], [ 94.187678929690009, 25.528876034696605 ], [ 94.185912082001039, 25.531667999430841 ], [ 94.189445777378964, 25.547721796652691 ], [ 94.189799146916755, 25.549117779019809 ], [ 94.196866537672605, 25.581923364647071 ], [ 94.214181645024425, 25.609843011989422 ], [ 94.208174362881962, 25.62833977835373 ], [ 94.220188927166902, 25.656957416879642 ], [ 94.213121536411052, 25.671615231734375 ], [ 94.272840988297943, 25.794810675632498 ], [ 94.273194357835735, 25.794810675632498 ], [ 94.28591566119627, 25.78817975938869 ], [ 94.380265327786802, 25.831804208361113 ], [ 94.456946517487737, 25.853441935051436 ], [ 94.456946517487737, 25.853441935051436 ], [ 94.465427386394751, 25.830408225993995 ], [ 94.494403688493719, 25.831455212769335 ], [ 94.511012056769957, 25.81644840232282 ], [ 94.518079447525793, 25.824824296525527 ], [ 94.54175520655788, 25.811911459629687 ], [ 94.535394554877627, 25.784340807879119 ], [ 94.553416401305029, 25.779454869594204 ], [ 94.559423683447491, 25.731991469112209 ], [ 94.606775201511667, 25.778407882818868 ], [ 94.636458242686217, 25.769333997432604 ], [ 94.658367154029335, 25.777709891635308 ], [ 94.695824325035318, 25.757468147312103 ], [ 94.712786062849347, 25.759213125271 ], [ 94.716319758227272, 25.730246491153313 ], [ 94.717379866840645, 25.722219592542388 ], [ 94.723387148983122, 25.723964570501284 ], [ 94.726920844361047, 25.72501155727662 ], [ 94.726920844361047, 25.725360552868402 ], [ 94.725507366209868, 25.745951292783385 ], [ 94.725153996672077, 25.748394261925839 ], [ 94.755190407384433, 25.78224683432844 ], [ 94.819150293724832, 25.763750067964132 ], [ 94.819503663262623, 25.763052076780575 ], [ 94.856607464730814, 25.717333654257473 ], [ 94.846006378597039, 25.649977505044053 ], [ 94.851306921663934, 25.610541003172983 ], [ 94.866148442251202, 25.608796025214087 ], [ 94.883110180065231, 25.586111311748425 ] ] ] } },
{ "type": "Feature", "properties": { "dt_code": "270", "district": "Kohima", "st_code": "13", "year": "2011_c", "st_nm": "Nagaland" }, "geometry": { "type": "Polygon", "coordinates": [ [ [ 93.9357264492441, 25.558889655589635 ], [ 93.939966883697608, 25.586111311748425 ], [ 93.914170907438773, 25.612983972315437 ], [ 93.914170907438773, 25.62240685329348 ], [ 93.929365797563847, 25.624849822435937 ], [ 93.929012428026056, 25.65835339924676 ], [ 93.92865905848825, 25.670917240550818 ], [ 93.930779275715011, 25.672313222917936 ], [ 93.964349381805278, 25.693252958424697 ], [ 94.011347530331648, 25.806676525752998 ], [ 94.017354812474125, 25.845764032032289 ], [ 93.97742405470359, 25.882757564760905 ], [ 94.013467747558408, 25.950462709566107 ], [ 94.002159922349051, 25.990597202620734 ], [ 94.09756969755297, 25.991644189396073 ], [ 94.100043284317522, 25.985362268744044 ], [ 94.139620672550251, 25.99234218057963 ], [ 94.160822844817787, 25.972798427439987 ], [ 94.192626103219098, 25.989201220253616 ], [ 94.219128818553514, 26.018516849963085 ], [ 94.223722622544827, 26.01537588963707 ], [ 94.241391099434438, 26.003859035108352 ], [ 94.244571425274572, 26.001765061557677 ], [ 94.274961205524704, 26.004208030700131 ], [ 94.28379544396951, 25.939294850629164 ], [ 94.243864686198975, 25.922194066631974 ], [ 94.214535014562216, 25.875777652925315 ], [ 94.267893814768854, 25.809468490487234 ], [ 94.29616337779224, 25.809817486079012 ], [ 94.273194357835735, 25.794810675632498 ], [ 94.273194357835735, 25.794810675632498 ], [ 94.272840988297943, 25.794810675632498 ], [ 94.213121536411052, 25.671615231734375 ], [ 94.220188927166902, 25.656957416879642 ], [ 94.208174362881962, 25.62833977835373 ], [ 94.214181645024425, 25.609843011989422 ], [ 94.196866537672605, 25.581923364647071 ], [ 94.189799146916755, 25.549117779019809 ], [ 94.178137952169621, 25.550513761386927 ], [ 94.165063279271294, 25.541439876000663 ], [ 94.156229040826489, 25.551211752570488 ], [ 94.140327411625833, 25.519453153718562 ], [ 94.108170783686745, 25.521896122861019 ], [ 94.084495024654657, 25.530272017063723 ], [ 94.094036002175045, 25.537251928899313 ], [ 94.084848394192448, 25.554701708488281 ], [ 94.067179917302838, 25.552258739345824 ], [ 94.048097962262048, 25.575641443995043 ], [ 94.038203615203869, 25.570057514526574 ], [ 94.012761008482826, 25.592742227992233 ], [ 94.002159922349051, 25.586460307340204 ], [ 94.007107095878141, 25.568661532159457 ], [ 94.006046987264767, 25.567265549792339 ], [ 93.983077967308276, 25.568312536567678 ], [ 93.957281991049427, 25.551211752570488 ], [ 93.948801122142413, 25.552956730529385 ], [ 93.9357264492441, 25.558889655589635 ] ] ] } },
{ "type": "Feature", "properties": { "dt_code": "265", "district": "Dimapur", "st_code": "13", "year": "2011_c", "st_nm": "Nagaland" }, "geometry": { "type": "Polygon", "coordinates": [ [ [ 93.954101665209308, 25.969308471522194 ], [ 93.972476881174501, 25.99234218057963 ], [ 94.002159922349051, 25.990597202620734 ], [ 94.013467747558408, 25.950462709566107 ], [ 93.97742405470359, 25.882757564760905 ], [ 94.017354812474125, 25.845764032032289 ], [ 94.011347530331648, 25.806676525752998 ], [ 93.964349381805278, 25.693252958424697 ], [ 93.930779275715011, 25.672313222917936 ], [ 93.92865905848825, 25.670917240550818 ], [ 93.88342775765085, 25.65835339924676 ], [ 93.794732003664976, 25.669172262591921 ], [ 93.659391470690537, 25.649628509452274 ], [ 93.512743112506726, 25.675105187652168 ], [ 93.522284090027128, 25.697789901117829 ], [ 93.527231263556217, 25.691158984874022 ], [ 93.541012675530112, 25.698836887893169 ], [ 93.542426153681276, 25.73094448233687 ], [ 93.561508108722066, 25.73792439417246 ], [ 93.567868760402334, 25.758515134087443 ], [ 93.577763107460513, 25.754676182577871 ], [ 93.617340495693242, 25.775964913676411 ], [ 93.624761255986883, 25.802488578651644 ], [ 93.645963428254419, 25.82238132738307 ], [ 93.668225709135342, 25.822032331791291 ], [ 93.688367772789505, 25.846113027624067 ], [ 93.714163749048339, 25.844717045256949 ], [ 93.7021491847634, 25.851696957092539 ], [ 93.681300382033655, 25.904395291451227 ], [ 93.75126755051653, 25.933012929977135 ], [ 93.745613637911845, 25.942435810955178 ], [ 93.75621472404562, 25.946623758056532 ], [ 93.767522549254977, 25.950462709566107 ], [ 93.767522549254977, 25.950811705157886 ], [ 93.767875918792768, 25.951160700749664 ], [ 93.765402332028216, 25.968959475930411 ], [ 93.77352983139744, 25.968959475930411 ], [ 93.7756500486242, 25.968610480338633 ], [ 93.774236570473022, 25.965469520012618 ], [ 93.795438742740558, 25.905791273818345 ], [ 93.777416896313156, 25.849951979133643 ], [ 93.795438742740558, 25.809119494895455 ], [ 93.839609934964599, 25.85658289537745 ], [ 93.88166090996188, 25.843321062889835 ], [ 93.915937755127729, 25.883804551536244 ], [ 93.933959601555145, 25.885200533903362 ], [ 93.937846666470861, 25.896368392840301 ], [ 93.978484163316963, 25.916959132755284 ], [ 93.968589816258785, 25.957442621401693 ], [ 93.954101665209308, 25.969308471522194 ] ] ] } }
]
}
