{
"type": "FeatureCollection",
"name": "puducherry",
"crs": { "type": "name", "properties": { "name": "urn:ogc:def:crs:OGC:1.3:CRS84" } },
"features": [
{ "type": "Feature", "properties": { "dt_code": "635", "district": "Puducherry", "st_code": "34", "year": "2011_c", "st_nm": "Puducherry" }, "geometry": { "type": "MultiPolygon", "coordinates": [ [ [ [ 79.679678942666172, 11.810686105491719 ], [ 79.684174212452106, 11.811958909511771 ], [ 79.690428500849919, 11.808564765458295 ], [ 79.690428500849919, 11.808352631454952 ], [ 79.681242514765614, 11.79626099326444 ], [ 79.679678942666172, 11.810686105491719 ] ] ], [ [ [ 79.702546184620701, 11.813443847535169 ], [ 79.691992072949375, 11.814080249545196 ], [ 79.696878235760181, 11.818535063615384 ], [ 79.702546184620701, 11.813443847535169 ] ] ], [ [ [ 79.79753318966263, 11.824686949712312 ], [ 79.797924082687487, 11.83359657785269 ], [ 79.806914622259356, 11.83359657785269 ], [ 79.795774171050738, 11.78544215909398 ], [ 79.795774171050738, 11.78544215909398 ], [ 79.795774171050738, 11.78544215909398 ], [ 79.771929696534045, 11.782260149043845 ], [ 79.765870854648654, 11.79180617919425 ], [ 79.755121296464893, 11.775259726933548 ], [ 79.713100296292026, 11.791169777184223 ], [ 79.72443619401308, 11.810473971488376 ], [ 79.735576645221698, 11.809413301471665 ], [ 79.729322356823872, 11.836990721906167 ], [ 79.737726556858448, 11.842930473999752 ], [ 79.739681021982776, 11.842294071989727 ], [ 79.767238980235675, 11.824474815708969 ], [ 79.768802552335131, 11.823414145692258 ], [ 79.769975231409717, 11.82256560967889 ], [ 79.775056840732944, 11.828081093765789 ], [ 79.779356664006457, 11.831263103815925 ], [ 79.79753318966263, 11.824686949712312 ] ] ], [ [ [ 79.655052682099736, 11.840596999962987 ], [ 79.671274742631596, 11.814928785558564 ], [ 79.646453035552739, 11.821292805658835 ], [ 79.646843928577596, 11.832111639829295 ], [ 79.652707323950565, 11.841233401973014 ], [ 79.655052682099736, 11.840596999962987 ] ] ], [ [ [ 79.69902814739693, 11.861173998287194 ], [ 79.695901003198017, 11.860325462273824 ], [ 79.699419040421787, 11.872204966460995 ], [ 79.69902814739693, 11.861173998287194 ] ] ], [ [ [ 79.64567124950301, 11.876871914534526 ], [ 79.662675096084584, 11.867325884384121 ], [ 79.657788933273793, 11.8526886381535 ], [ 79.626908384309544, 11.854173576176898 ], [ 79.628471956409001, 11.869871492424229 ], [ 79.601891230718252, 11.857779854233716 ], [ 79.599350426056645, 11.883023800631454 ], [ 79.608340965628514, 11.877084048537869 ], [ 79.608536412140936, 11.877084048537869 ], [ 79.609122751678242, 11.877720450547896 ], [ 79.623194900573338, 11.889387820731724 ], [ 79.62710383082198, 11.887266480698301 ], [ 79.634335351781957, 11.883235934634797 ], [ 79.64567124950301, 11.876871914534526 ] ] ], [ [ [ 79.684565105476963, 11.953452289741108 ], [ 79.654857235587315, 11.953664423744451 ], [ 79.662088756547291, 11.969150205988441 ], [ 79.682024300815357, 11.972544350041918 ], [ 79.684565105476963, 11.953452289741108 ] ] ], [ [ [ 79.685346891526692, 11.883448068638138 ], [ 79.674010993805638, 11.880690326594689 ], [ 79.673815547293202, 11.891721294768489 ], [ 79.695314663660724, 11.894903304818625 ], [ 79.696096449710453, 11.919298715202993 ], [ 79.718572798640125, 11.91908658119965 ], [ 79.706455114869343, 11.913571097112751 ], [ 79.711145831167713, 11.890660624751778 ], [ 79.728736017286579, 11.890236356745094 ], [ 79.740658254544925, 11.905510004985741 ], [ 79.717400119565525, 11.92905687935674 ], [ 79.72091815678931, 11.944966929607416 ], [ 79.709582259068256, 11.950058145687631 ], [ 79.711145831167713, 11.933087425420245 ], [ 79.696878235760181, 11.946451867630811 ], [ 79.695705556685581, 11.964058989908226 ], [ 79.71505476141634, 11.967665267965046 ], [ 79.712318510242298, 11.986545194262513 ], [ 79.755512189489764, 12.004364450543269 ], [ 79.760398352300555, 11.989302936305963 ], [ 79.741830933619525, 11.977635566122135 ], [ 79.726390659137394, 11.985696658249143 ], [ 79.723458961450916, 11.976999164112108 ], [ 79.744567184793567, 11.964907525921594 ], [ 79.750235133654101, 11.91993511721302 ], [ 79.762157370912448, 11.928632611350055 ], [ 79.759812012763263, 11.943694125587362 ], [ 79.78463371984212, 11.959816309841379 ], [ 79.804960157135042, 11.953240155737767 ], [ 79.812582571119876, 11.977847700125476 ], [ 79.840531422397646, 11.955785763777875 ], [ 79.807696408309084, 11.836566453899483 ], [ 79.807305515284213, 11.837627123916194 ], [ 79.808087301333941, 11.845263948036518 ], [ 79.803787478060443, 11.847173154066599 ], [ 79.78248380820537, 11.855870648203636 ], [ 79.782288361692935, 11.855870648203636 ], [ 79.782092915180499, 11.855870648203636 ], [ 79.781311129130771, 11.854809978186923 ], [ 79.768997998847567, 11.83996059795296 ], [ 79.768020766285403, 11.840172731956303 ], [ 79.766848087210803, 11.850991566126762 ], [ 79.764111836036761, 11.876023378521158 ], [ 79.763916389524326, 11.877084048537869 ], [ 79.763525496499469, 11.876023378521158 ], [ 79.751798705753544, 11.848445958086653 ], [ 79.750430580166523, 11.848445958086653 ], [ 79.750039687141665, 11.848445958086653 ], [ 79.739681021982776, 11.864780276344014 ], [ 79.739290128957904, 11.864568142340671 ], [ 79.739290128957904, 11.864780276344014 ], [ 79.721113603301731, 11.862446802307248 ], [ 79.719159138177417, 11.855022112190266 ], [ 79.718181905615253, 11.854385710180239 ], [ 79.717400119565525, 11.85544638019695 ], [ 79.709973152093113, 11.888539284718355 ], [ 79.709973152093113, 11.889175686728382 ], [ 79.709777705580677, 11.889175686728382 ], [ 79.708995919530963, 11.889175686728382 ], [ 79.700982612521244, 11.889175686728382 ], [ 79.684565105476963, 11.885993676678247 ], [ 79.685346891526692, 11.883448068638138 ] ], [ [ 79.794992385001009, 11.895327572825309 ], [ 79.781897468668063, 11.902327994935607 ], [ 79.775056840732944, 11.901479458922237 ], [ 79.769193445359988, 11.900630922908867 ], [ 79.773688715145923, 11.885781542674904 ], [ 79.776424966319979, 11.876659780531185 ], [ 79.780529343081042, 11.862871070313933 ], [ 79.783265594255084, 11.867962286394148 ], [ 79.79166979428966, 11.884508738654851 ], [ 79.796751403612888, 11.894266902808598 ], [ 79.794992385001009, 11.895327572825309 ] ] ], [ [ [ 79.79166979428966, 12.022820108834052 ], [ 79.794015152438845, 12.025577850877502 ], [ 79.805546496672335, 12.022183706824025 ], [ 79.793233366389117, 12.020062366790601 ], [ 79.79166979428966, 12.022820108834052 ] ] ], [ [ [ 79.620067756374425, 12.001606708499818 ], [ 79.627690170359273, 12.031305468967746 ], [ 79.65133919836353, 12.022395840827368 ], [ 79.63746249598087, 11.98272678220235 ], [ 79.648407500677052, 11.96724099995836 ], [ 79.642739551816533, 11.942209187563964 ], [ 79.657398040248921, 11.94814893965755 ], [ 79.670688403094303, 11.931602487396848 ], [ 79.663847775159184, 11.915692437146173 ], [ 79.648602947189488, 11.907631345019166 ], [ 79.633749012244664, 11.901903726928921 ], [ 79.631794547120336, 11.902115860932264 ], [ 79.62710383082198, 11.913358963109408 ], [ 79.623194900573338, 11.922904993259813 ], [ 79.618699630787404, 11.934148095436957 ], [ 79.618699630787404, 11.936693703477065 ], [ 79.628471956409001, 11.945179063610759 ], [ 79.617136058687947, 11.989515070309306 ], [ 79.626126598259816, 11.999697502469738 ], [ 79.620067756374425, 12.001606708499818 ] ] ], [ [ [ 79.70469609625745, 12.031941870977771 ], [ 79.702741631133136, 12.011152738650225 ], [ 79.719550031202274, 11.992272812352756 ], [ 79.685346891526692, 11.991636410342728 ], [ 79.680851621740757, 11.983363184212378 ], [ 79.673815547293202, 11.995030554396207 ], [ 79.657007147224064, 11.991636410342728 ], [ 79.661306970497563, 12.012213408666936 ], [ 79.672251975193745, 12.009667800626827 ], [ 79.69433743109856, 12.034911747024566 ], [ 79.70469609625745, 12.031941870977771 ] ] ], [ [ [ 79.840531422397646, 12.013274078683647 ], [ 79.849717408481951, 12.051882467291952 ], [ 79.873757329511079, 12.04254857114489 ], [ 79.857144375954363, 12.006910058583378 ], [ 79.840531422397646, 12.013274078683647 ] ] ] ] } },
{ "type": "Feature", "properties": { "dt_code": "637", "district": "Karaikal", "st_code": "34", "year": "2011_c", "st_nm": "Puducherry" }, "geometry": { "type": "MultiPolygon", "coordinates": [ [ [ [ 79.80789185482152, 10.878781428808846 ], [ 79.805937389697192, 10.879629964822215 ], [ 79.809650873433398, 10.880478500835585 ], [ 79.80789185482152, 10.878781428808846 ] ] ], [ [ [ 79.739290128957904, 10.920996095473971 ], [ 79.739681021982776, 10.920147559460601 ], [ 79.738899235933047, 10.920571827467285 ], [ 79.738899235933047, 10.920783961470628 ], [ 79.739290128957904, 10.920996095473971 ] ] ], [ [ [ 79.721699942839038, 10.935421207701248 ], [ 79.720136370739581, 10.936057609711275 ], [ 79.721504496326602, 10.936906145724645 ], [ 79.721699942839038, 10.935421207701248 ] ] ], [ [ [ 79.72443619401308, 10.932875599661141 ], [ 79.729322356823872, 10.934148403681196 ], [ 79.724045300988209, 10.941785227801519 ], [ 79.732644947535221, 10.952391927968636 ], [ 79.736553877783862, 10.95727101004551 ], [ 79.71974547771471, 10.952179793965293 ], [ 79.719159138177417, 10.968514112222653 ], [ 79.744567184793567, 10.966180638185888 ], [ 79.746326203405459, 10.95642247403214 ], [ 79.763525496499469, 10.960240886092302 ], [ 79.763916389524326, 10.960240886092302 ], [ 79.755316742977328, 10.97996934840314 ], [ 79.752580491803272, 10.986121234500066 ], [ 79.748085222017338, 10.996515800663841 ], [ 79.746912542942752, 10.996940068670526 ], [ 79.746717096430316, 11.000546346727345 ], [ 79.752775938315708, 11.002667686760768 ], [ 79.757075761589206, 11.002879820764111 ], [ 79.786001845429141, 10.99736433667721 ], [ 79.797728636175052, 10.982514956443246 ], [ 79.815123375781496, 11.003728356777481 ], [ 79.845026692183581, 10.995667264650471 ], [ 79.851476427093843, 10.987181904516778 ], [ 79.850694641044115, 10.827869268006685 ], [ 79.830954543288485, 10.827445 ], [ 79.828022845602007, 10.849719070350947 ], [ 79.80789185482152, 10.855658822444532 ], [ 79.807500961796649, 10.865416986598278 ], [ 79.824895701403094, 10.864992718591594 ], [ 79.811214445532855, 10.880478500835585 ], [ 79.826850166527407, 10.884296912895746 ], [ 79.827631952577136, 10.884509046899089 ], [ 79.790301668702639, 10.894903613062864 ], [ 79.783656487279956, 10.888539592962593 ], [ 79.795383278025867, 10.902752571186529 ], [ 79.789324436140475, 10.908480189276773 ], [ 79.756293975539478, 10.891721603012728 ], [ 79.762352817424869, 10.914419941370358 ], [ 79.742612719669253, 10.921632497483998 ], [ 79.742612719669253, 10.92460237353079 ], [ 79.724827087037937, 10.929057187600979 ], [ 79.72443619401308, 10.932875599661141 ] ] ] ] } },
{ "type": "Feature", "properties": { "dt_code": "636", "district": "Mahe", "st_code": "34", "year": "2011_c", "st_nm": "Puducherry" }, "geometry": { "type": "MultiPolygon", "coordinates": [ [ [ [ 75.532890288397823, 11.706528309850633 ], [ 75.536994665158886, 11.705679773837263 ], [ 75.542076274482113, 11.698679351726966 ], [ 75.530154037223767, 11.702073495780443 ], [ 75.532890288397823, 11.706528309850633 ] ] ], [ [ [ 75.555562083839916, 11.72180195809128 ], [ 75.536603772134029, 11.719468484054515 ], [ 75.531131269785931, 11.708437515880714 ], [ 75.526636, 11.726044638158127 ], [ 75.541685381457256, 11.738772678358668 ], [ 75.531326716298366, 11.758713274672846 ], [ 75.53797189772105, 11.762531686733009 ], [ 75.555562083839916, 11.72180195809128 ] ] ] ] } },
{ "type": "Feature", "properties": { "dt_code": "634", "district": "Yanam", "st_code": "34", "year": "2011_c", "st_nm": "Puducherry" }, "geometry": { "type": "Polygon", "coordinates": [ [ [ 82.186280464605716, 16.737074065110736 ], [ 82.205629669336489, 16.734528457070631 ], [ 82.224978874067247, 16.757438929431601 ], [ 82.22908325082831, 16.756802527421574 ], [ 82.231233162465074, 16.755317589398178 ], [ 82.217551906594835, 16.732831385043891 ], [ 82.269736125414155, 16.721800416870089 ], [ 82.289671669682221, 16.726679498946964 ], [ 82.305502837189209, 16.74831716728788 ], [ 82.310389, 16.718830540823298 ], [ 82.266804427727678, 16.694647264442271 ], [ 82.239051022962343, 16.716284932783189 ], [ 82.199179934426226, 16.72095188085672 ], [ 82.191166627416521, 16.726679498946964 ], [ 82.186280464605716, 16.737074065110736 ] ] ] } }
]
}
