{
"type": "FeatureCollection",
"name": "sikkim",
"crs": { "type": "name", "properties": { "name": "urn:ogc:def:crs:OGC:1.3:CRS84" } },
"features": [
{ "type": "Feature", "properties": { "dt_code": "241", "district": "North Sikkim", "st_code": "11", "year": "2011_c", "st_nm": "Sikkim" }, "geometry": { "type": "Polygon", "coordinates": [ [ [ 88.482984699446575, 27.375964318480563 ], [ 88.442146766709243, 27.389628854760552 ], [ 88.439835185610903, 27.39250559924055 ], [ 88.414793057045557, 27.41983467180053 ], [ 88.407473050234145, 27.475931189160487 ], [ 88.38088986760323, 27.490314911560478 ], [ 88.355847739037884, 27.521239914720454 ], [ 88.326567711792251, 27.525914624500452 ], [ 88.304607691358029, 27.521599507780454 ], [ 88.283418197956578, 27.513688460460461 ], [ 88.281491880374631, 27.51296927434046 ], [ 88.241424474670069, 27.534904451000443 ], [ 88.209832866326096, 27.581291955740408 ], [ 88.11467277777777, 27.618330040920384 ], [ 88.11929593997445, 27.643861148180363 ], [ 88.143182277990633, 27.662559987300348 ], [ 88.153584392933155, 27.68916987374033 ], [ 88.14742017667092, 27.702834410020319 ], [ 88.156281237547887, 27.736276564600296 ], [ 88.178241257982123, 27.746345170280286 ], [ 88.181708629629625, 27.775831801200265 ], [ 88.197889697318004, 27.789496337480255 ], [ 88.173232832269051, 27.820421340640234 ], [ 88.202898123031076, 27.837681807520219 ], [ 88.195963379736057, 27.854223088280207 ], [ 88.134706480630058, 27.881911753900187 ], [ 88.139329642826723, 27.88946320816018 ], [ 88.11929593997445, 27.91751146684016 ], [ 88.137788588761168, 27.936929492080147 ], [ 88.128927527884201, 27.949515249180138 ], [ 88.144723332056188, 27.964258564640126 ], [ 88.204439177096631, 27.941604201860144 ], [ 88.207136021711364, 27.961381820160128 ], [ 88.237571839506174, 27.971090832780121 ], [ 88.251056062579821, 27.942323387980142 ], [ 88.266081339719022, 27.95706670344013 ], [ 88.308460326521924, 27.967135309120124 ], [ 88.318091914431676, 27.978642287040117 ], [ 88.330420346956146, 27.97288879808012 ], [ 88.352380367390381, 27.989789671900109 ], [ 88.4090141042997, 27.982238217640113 ], [ 88.415178320561935, 27.999139091460101 ], [ 88.467574158790981, 28.016759151400088 ], [ 88.495313131971059, 28.05379723658006 ], [ 88.523052105151123, 28.035098397460075 ], [ 88.545012125585359, 28.033660025220076 ], [ 88.552332132396771, 28.08148590220004 ], [ 88.619367984248612, 28.098027182960028 ], [ 88.612818504469985, 28.128233 ], [ 88.633622734355043, 28.120681545740009 ], [ 88.67214908599405, 28.072496075700045 ], [ 88.756136532567055, 28.076092006300044 ], [ 88.812385005959982, 28.023591419540082 ], [ 88.836271343976165, 28.014961186100088 ], [ 88.843976614303969, 27.992666416380104 ], [ 88.83704187100895, 27.929018444760153 ], [ 88.86054294550874, 27.927580072520154 ], [ 88.870174533418478, 27.916073094600161 ], [ 88.887896655172426, 27.856380646640208 ], [ 88.880576648361014, 27.829411167140226 ], [ 88.855534519795668, 27.816106223920237 ], [ 88.861698736057903, 27.797766977860249 ], [ 88.853608202213721, 27.765044009400274 ], [ 88.865166107705406, 27.742389646620289 ], [ 88.856305046828439, 27.716498946300309 ], [ 88.83781239804172, 27.705711154500317 ], [ 88.848214512984256, 27.667594290140347 ], [ 88.827410283099198, 27.644220741240364 ], [ 88.815081850574714, 27.64601870654036 ], [ 88.804679735632192, 27.62372393682038 ], [ 88.809302897828871, 27.602507946280394 ], [ 88.788113404427421, 27.584887886340407 ], [ 88.791195512558545, 27.575178873720414 ], [ 88.763841802894859, 27.56475067498042 ], [ 88.777326025968506, 27.532387299580446 ], [ 88.7927365666241, 27.529150962040447 ], [ 88.776940762452114, 27.468739327960492 ], [ 88.782334451681578, 27.450040488840507 ], [ 88.796203938271617, 27.447882930480507 ], [ 88.791966039591316, 27.437454731740516 ], [ 88.808917634312479, 27.423790195460526 ], [ 88.804679735632192, 27.415159962020532 ], [ 88.793892357173277, 27.415879148140533 ], [ 88.775784971902937, 27.417317520380532 ], [ 88.728397559386977, 27.420553857920527 ], [ 88.728397559386977, 27.42019426486053 ], [ 88.692182788846324, 27.399697460440542 ], [ 88.627458518092809, 27.387111703340555 ], [ 88.626687991060024, 27.387111703340555 ], [ 88.588546902937424, 27.400416646560544 ], [ 88.550791078331201, 27.392865192300548 ], [ 88.520355260536405, 27.401495425740542 ], [ 88.491845760323542, 27.381717807440555 ], [ 88.482984699446575, 27.375964318480563 ] ] ] } },
{ "type": "Feature", "properties": { "dt_code": "242", "district": "West Sikkim", "st_code": "11", "year": "2011_c", "st_nm": "Sikkim" }, "geometry": { "type": "Polygon", "coordinates": [ [ [ 88.11467277777777, 27.618330040920384 ], [ 88.209832866326096, 27.581291955740408 ], [ 88.241424474670069, 27.534904451000443 ], [ 88.281491880374631, 27.51296927434046 ], [ 88.264155022137075, 27.500023924180468 ], [ 88.27494240059599, 27.405091356340542 ], [ 88.329264556406983, 27.412642810600534 ], [ 88.335428772669218, 27.400416646560544 ], [ 88.349683522775649, 27.407968100820536 ], [ 88.357774056619832, 27.397899495140546 ], [ 88.357774056619832, 27.397899495140546 ], [ 88.355462475521492, 27.375604725420562 ], [ 88.330035083439753, 27.368412864220566 ], [ 88.320788759046394, 27.345039315320584 ], [ 88.296902421030225, 27.330655592920596 ], [ 88.311927698169427, 27.309439602380611 ], [ 88.30768979948914, 27.299370996700617 ], [ 88.275712927628774, 27.282829715940629 ], [ 88.301140319710512, 27.259456167040646 ], [ 88.301910846743297, 27.228890756940672 ], [ 88.331576137505323, 27.194369823180697 ], [ 88.299214002128565, 27.171355867340711 ], [ 88.280721353341846, 27.131441037680741 ], [ 88.279950826309062, 27.129643072380745 ], [ 88.23217815027671, 27.118495687520753 ], [ 88.215611819071938, 27.131441037680741 ], [ 88.181708629629625, 27.132519816860743 ], [ 88.153584392933155, 27.109865454080758 ], [ 88.096180128991051, 27.133598596040741 ], [ 88.07422010855683, 27.185739589740702 ], [ 88.078458007237117, 27.20048290520069 ], [ 88.078843270753509, 27.201202091320692 ], [ 88.076916953171562, 27.20228087050069 ], [ 88.045325344827575, 27.218102965140677 ], [ 88.039931655598124, 27.220620116560678 ], [ 88.037620074499785, 27.219900930440676 ], [ 88.03222638527032, 27.220979709620675 ], [ 88.014119, 27.212349476180684 ], [ 88.031455858237535, 27.250466340540655 ], [ 88.032611648786713, 27.28534686736063 ], [ 88.068441155810973, 27.33497070964059 ], [ 88.042243236696464, 27.370930015640564 ], [ 88.047636925925914, 27.405450949400539 ], [ 88.075375899105993, 27.432780021960518 ], [ 88.06728536526181, 27.4575919431005 ], [ 88.044940081311196, 27.478088747520484 ], [ 88.044169554278412, 27.496427993580472 ], [ 88.060735885483183, 27.511890495160461 ], [ 88.059194831417614, 27.536342823240442 ], [ 88.079999061302672, 27.564391081920423 ], [ 88.083081169433797, 27.588843410000404 ], [ 88.11467277777777, 27.618330040920384 ] ] ] } },
{ "type": "Feature", "properties": { "dt_code": "243", "district": "South Sikkim", "st_code": "11", "year": "2011_c", "st_nm": "Sikkim" }, "geometry": { "type": "Polygon", "coordinates": [ [ [ 88.281491880374631, 27.51296927434046 ], [ 88.283418197956578, 27.513688460460461 ], [ 88.304607691358029, 27.521599507780454 ], [ 88.326567711792251, 27.525914624500452 ], [ 88.355847739037884, 27.521239914720454 ], [ 88.38088986760323, 27.490314911560478 ], [ 88.407473050234145, 27.475931189160487 ], [ 88.414793057045557, 27.41983467180053 ], [ 88.439835185610903, 27.39250559924055 ], [ 88.442146766709243, 27.389628854760552 ], [ 88.482984699446575, 27.375964318480563 ], [ 88.482984699446575, 27.375245132360561 ], [ 88.481058381864628, 27.374166353180563 ], [ 88.482214172413791, 27.331374779040594 ], [ 88.44869624648787, 27.314114312160608 ], [ 88.438294131545334, 27.264490469880645 ], [ 88.487607861643255, 27.237161397320666 ], [ 88.48837838867604, 27.228890756940672 ], [ 88.485681544061308, 27.203719242740689 ], [ 88.491075233290758, 27.195808195420696 ], [ 88.494157341421882, 27.191493078700699 ], [ 88.497239449553007, 27.187177961980701 ], [ 88.531913166028104, 27.176030577120709 ], [ 88.531913166028104, 27.176030577120709 ], [ 88.53114263899532, 27.164883192260717 ], [ 88.529986848446143, 27.147982318440729 ], [ 88.49608365900383, 27.122091618120749 ], [ 88.475279429118771, 27.120653245880749 ], [ 88.458713097914, 27.089728242720774 ], [ 88.425580435504472, 27.071388996660787 ], [ 88.432129915283099, 27.080019230100781 ], [ 88.356618266070669, 27.095481731680767 ], [ 88.341978252447845, 27.109865454080758 ], [ 88.340822461898682, 27.109505861020757 ], [ 88.324256130693911, 27.105550337360761 ], [ 88.316550860366107, 27.125687548720748 ], [ 88.301910846743297, 27.128923886260743 ], [ 88.289582414218813, 27.127125920960744 ], [ 88.283032934440186, 27.127485514020744 ], [ 88.280721353341846, 27.131441037680741 ], [ 88.299214002128565, 27.171355867340711 ], [ 88.331576137505323, 27.194369823180697 ], [ 88.301910846743297, 27.228890756940672 ], [ 88.301140319710512, 27.259456167040646 ], [ 88.275712927628774, 27.282829715940629 ], [ 88.30768979948914, 27.299370996700617 ], [ 88.311927698169427, 27.309439602380611 ], [ 88.296902421030225, 27.330655592920596 ], [ 88.320788759046394, 27.345039315320584 ], [ 88.330035083439753, 27.368412864220566 ], [ 88.355462475521492, 27.375604725420562 ], [ 88.357774056619832, 27.397899495140546 ], [ 88.357774056619832, 27.397899495140546 ], [ 88.349683522775649, 27.407968100820536 ], [ 88.335428772669218, 27.400416646560544 ], [ 88.329264556406983, 27.412642810600534 ], [ 88.27494240059599, 27.405091356340542 ], [ 88.264155022137075, 27.500023924180468 ], [ 88.281491880374631, 27.51296927434046 ] ] ] } },
{ "type": "Feature", "properties": { "dt_code": "244", "district": "East Sikkim", "st_code": "11", "year": "2011_c", "st_nm": "Sikkim" }, "geometry": { "type": "Polygon", "coordinates": [ [ [ 88.482984699446575, 27.375964318480563 ], [ 88.491845760323542, 27.381717807440555 ], [ 88.520355260536405, 27.401495425740542 ], [ 88.550791078331201, 27.392865192300548 ], [ 88.588546902937424, 27.400416646560544 ], [ 88.626687991060024, 27.387111703340555 ], [ 88.627458518092809, 27.387111703340555 ], [ 88.692182788846324, 27.399697460440542 ], [ 88.728397559386977, 27.42019426486053 ], [ 88.728397559386977, 27.420553857920527 ], [ 88.775784971902937, 27.417317520380532 ], [ 88.793892357173277, 27.415879148140533 ], [ 88.83781239804172, 27.379200656020558 ], [ 88.860928209025118, 27.387111703340555 ], [ 88.883658756492125, 27.342881756960587 ], [ 88.915250364836112, 27.330655592920596 ], [ 88.919103, 27.320586987240603 ], [ 88.90330719582802, 27.272401517200638 ], [ 88.879035594295445, 27.261254132340646 ], [ 88.832033445295878, 27.262332911520645 ], [ 88.803138681566622, 27.247949189120657 ], [ 88.791195512558545, 27.185739589740702 ], [ 88.766538647509577, 27.178188135480706 ], [ 88.761144958280127, 27.152297435160726 ], [ 88.738799674329499, 27.13647534052074 ], [ 88.722233343124742, 27.139352085000738 ], [ 88.716069126862493, 27.149780283740728 ], [ 88.710290174116651, 27.160208482480719 ], [ 88.706437538952756, 27.166321564500716 ], [ 88.688330153682415, 27.175311391000708 ], [ 88.687559626649644, 27.174951797940711 ], [ 88.666755396764586, 27.165961971440716 ], [ 88.653656437207331, 27.160208482480719 ], [ 88.652885910174547, 27.159848889420722 ], [ 88.597022700297998, 27.1882567411607 ], [ 88.540003699872287, 27.177828542420709 ], [ 88.531913166028104, 27.17639017018071 ], [ 88.531913166028104, 27.176030577120709 ], [ 88.531913166028104, 27.176030577120709 ], [ 88.497239449553007, 27.187177961980701 ], [ 88.494157341421882, 27.191493078700699 ], [ 88.491075233290758, 27.195808195420696 ], [ 88.485681544061308, 27.203719242740689 ], [ 88.48837838867604, 27.228890756940672 ], [ 88.487607861643255, 27.237161397320666 ], [ 88.438294131545334, 27.264490469880645 ], [ 88.44869624648787, 27.314114312160608 ], [ 88.482214172413791, 27.331374779040594 ], [ 88.481058381864628, 27.374166353180563 ], [ 88.482984699446575, 27.375245132360561 ], [ 88.482984699446575, 27.375964318480563 ] ] ] } }
]
}
