{
"type": "FeatureCollection",
"name": "tripura",
"crs": { "type": "name", "properties": { "name": "urn:ogc:def:crs:OGC:1.3:CRS84" } },
"features": [
{ "type": "Feature", "properties": { "dt_code": "292", "district": "North Tripura", "st_code": "16", "year": "2011_c", "st_nm": "Tripura" }, "geometry": { "type": "Polygon", "coordinates": [ [ [ 92.175571669008605, 23.708095929868819 ], [ 92.171585350767643, 23.750568397073664 ], [ 92.155946717668499, 23.78021898738648 ], [ 92.154720158209741, 23.851540677598386 ], [ 92.130802248763999, 23.922862367810293 ], [ 92.120376493364574, 23.931677408173563 ], [ 92.087872667707529, 23.931276724520686 ], [ 92.080819950819688, 23.932879459132192 ], [ 92.085112908925339, 23.989776537840566 ], [ 92.085112908925339, 23.989776537840566 ], [ 92.112710496747354, 23.994184058022199 ], [ 92.115776895394234, 23.998591578203836 ], [ 92.114243696070787, 24.005002516649849 ], [ 92.110564017694529, 24.023834648335015 ], [ 92.122216332552711, 24.038259259838547 ], [ 92.134481927140271, 24.032249005045408 ], [ 92.14276120348687, 24.040663361755804 ], [ 92.16514591360918, 24.095156338546921 ], [ 92.166985752797302, 24.102368644298689 ], [ 92.145214322404385, 24.117193939455095 ], [ 92.202249337236552, 24.157662988395561 ], [ 92.203475896695309, 24.168481447023211 ], [ 92.203782536559999, 24.182104691220989 ], [ 92.172198630497022, 24.190118364278508 ], [ 92.164532633879801, 24.20253955751766 ], [ 92.162079514962286, 24.20253955751766 ], [ 92.138161605516544, 24.19172109889001 ], [ 92.131722168358067, 24.219368270938446 ], [ 92.103817940671362, 24.237799718970738 ], [ 92.09707186364821, 24.263844156407671 ], [ 92.068247716367438, 24.270655778506558 ], [ 92.068860996096817, 24.30391252169526 ], [ 92.062728198803029, 24.312326878405653 ], [ 92.070087555555574, 24.376836946518669 ], [ 92.110564017694529, 24.383247884964682 ], [ 92.139694804839991, 24.42531966851665 ], [ 92.16790567239137, 24.424117617558021 ], [ 92.149813920374726, 24.491031787588295 ], [ 92.15564007780381, 24.525490581735621 ], [ 92.16790567239137, 24.527494 ], [ 92.213595012230044, 24.508661868314835 ], [ 92.211755173041908, 24.504655031786076 ], [ 92.22831372573512, 24.502651613521696 ], [ 92.230153564923256, 24.501850246215945 ], [ 92.230460204787946, 24.501449562563067 ], [ 92.229846925058567, 24.451764789606457 ], [ 92.246405477751765, 24.442148381937436 ], [ 92.246712117616454, 24.440946330978811 ], [ 92.259897631798083, 24.358405498486377 ], [ 92.218807889929764, 24.285881757315842 ], [ 92.209608693989082, 24.248217493945511 ], [ 92.192436861566506, 24.243409290111 ], [ 92.217274690606317, 24.234193566094856 ], [ 92.218501250065074, 24.23459424974773 ], [ 92.220034449388507, 24.234193566094856 ], [ 92.29117489799637, 24.251422963168519 ], [ 92.331958, 24.179700589303735 ], [ 92.323678723653416, 24.171286232593342 ], [ 92.331651360135325, 24.152053417255299 ], [ 92.327665041894363, 24.101567276992938 ], [ 92.312026408795219, 24.052283187689202 ], [ 92.326131842570916, 23.997790210898085 ], [ 92.307733450689582, 23.960526631180628 ], [ 92.30896001014834, 23.931276724520686 ], [ 92.325211922976862, 23.914047327447022 ], [ 92.311106489201165, 23.880389900605451 ], [ 92.314479527712734, 23.862359136226036 ], [ 92.312946328389287, 23.861157085267408 ], [ 92.293014737184507, 23.865564605449041 ], [ 92.28626866016134, 23.867167340060547 ], [ 92.285042100702597, 23.867167340060547 ], [ 92.280442502732257, 23.860355717961657 ], [ 92.270016747332832, 23.844729055499496 ], [ 92.268483548009385, 23.842324953582242 ], [ 92.281975702055703, 23.815479148839557 ], [ 92.257137873015893, 23.812674363269426 ], [ 92.257137873015893, 23.812674363269426 ], [ 92.256831233151203, 23.812674363269426 ], [ 92.265417149362492, 23.725325326942482 ], [ 92.265417149362492, 23.724924643289608 ], [ 92.241192600052059, 23.718914388496469 ], [ 92.245178918293021, 23.696075420282543 ], [ 92.223714127764779, 23.651599534813322 ], [ 92.210528613583151, 23.661616626135217 ], [ 92.216661410876938, 23.684054910696268 ], [ 92.205929015612824, 23.704890460645814 ], [ 92.175571669008605, 23.708095929868819 ] ] ] } },
{ "type": "Feature", "properties": { "dt_code": "291", "district": "Dhalai", "st_code": "16", "year": "2011_c", "st_nm": "Tripura" }, "geometry": { "type": "Polygon", "coordinates": [ [ [ 92.085112908925339, 23.989776537840566 ], [ 92.085112908925339, 23.989776537840566 ], [ 92.080819950819688, 23.932879459132192 ], [ 92.087872667707529, 23.931276724520686 ], [ 92.120376493364574, 23.931677408173563 ], [ 92.130802248763999, 23.922862367810293 ], [ 92.154720158209741, 23.851540677598386 ], [ 92.155946717668499, 23.78021898738648 ], [ 92.171585350767643, 23.750568397073664 ], [ 92.175571669008605, 23.708095929868819 ], [ 92.175571669008605, 23.707294562563067 ], [ 92.135708486599029, 23.735342418264381 ], [ 92.119456573770506, 23.732136949041372 ], [ 92.106271059588877, 23.690866532795159 ], [ 92.077446912308105, 23.66802756458123 ], [ 92.074380513661211, 23.646390647325934 ], [ 92.05935516029146, 23.643185178102929 ], [ 92.006613103564945, 23.665222779011099 ], [ 91.983615113713256, 23.728130112512613 ], [ 91.958470644808756, 23.738547887487389 ], [ 91.959390564402824, 23.698880205852674 ], [ 91.937005854280528, 23.689263798183653 ], [ 91.965216721831922, 23.536202642785067 ], [ 91.95632416575593, 23.526586235116046 ], [ 91.973495998178521, 23.504147950554994 ], [ 91.973495998178521, 23.481308982341069 ], [ 91.940072252927422, 23.468086421796166 ], [ 91.942218731980233, 23.427216689202826 ], [ 91.906648507676309, 23.44043924974773 ], [ 91.900515710382535, 23.424011219979818 ], [ 91.87291812256052, 23.412792077699294 ], [ 91.867705244860801, 23.418802332492433 ], [ 91.863718926619839, 23.40838455751766 ], [ 91.856359569867308, 23.432425576690214 ], [ 91.865865405672665, 23.445648137235118 ], [ 91.828455342180604, 23.476500778506558 ], [ 91.826308863127778, 23.494531542885973 ], [ 91.803924153005482, 23.515367092835522 ], [ 91.800857754358589, 23.518171878405653 ], [ 91.803617513140793, 23.529391020686177 ], [ 91.791965198282611, 23.543014264883958 ], [ 91.781846082747876, 23.551428621594351 ], [ 91.781232803018497, 23.55543545812311 ], [ 91.768967208430936, 23.64398654540868 ], [ 91.752408655737725, 23.651599534813322 ], [ 91.768967208430936, 23.67203440110999 ], [ 91.765287530054664, 23.684455594349142 ], [ 91.766820729378111, 23.687661063572151 ], [ 91.76743400910749, 23.688863114530779 ], [ 91.777859764506914, 23.708897297174573 ], [ 91.771113687483748, 23.737746520181634 ], [ 91.784299201665377, 23.818283934409688 ], [ 91.772646886807195, 23.914848694752777 ], [ 91.77969960369505, 23.928071255297681 ], [ 91.752715295602414, 23.958523212916248 ], [ 91.747195778038005, 23.994985425327954 ], [ 91.753941855061171, 24.107978215438951 ], [ 91.743209459797043, 24.132419918264379 ], [ 91.75486177465524, 24.141635642280526 ], [ 91.757008253708051, 24.143639060544906 ], [ 91.746889138173316, 24.245012024722502 ], [ 91.815883107728354, 24.210152546922302 ], [ 91.841027576632854, 24.227381943995965 ], [ 91.847160373926641, 24.217364852674066 ], [ 91.837041258391892, 24.196929986377398 ], [ 91.859732608378891, 24.182505374873866 ], [ 91.882730598230566, 24.142437009586278 ], [ 91.903275469164726, 24.137628805751767 ], [ 91.923207060369521, 24.10918026639758 ], [ 91.924126979963589, 24.107978215438951 ], [ 91.969509679937559, 24.075522839556005 ], [ 91.968589760343491, 24.060296860746721 ], [ 91.993120949518627, 24.081533094349144 ], [ 92.002013505594604, 24.075122155903131 ], [ 92.006919743429634, 24.099563858728558 ], [ 92.030224373145998, 24.090348134712414 ], [ 92.050769244080158, 24.099964542381432 ], [ 92.073460594067157, 24.095557022199799 ], [ 92.05935516029146, 24.028642852169526 ], [ 92.073767233931846, 24.02263259737639 ], [ 92.086646108248786, 24.016622342583251 ], [ 92.086952748113475, 24.016622342583251 ], [ 92.085112908925339, 23.989776537840566 ] ] ] } },
{ "type": "Feature", "properties": { "dt_code": "707", "district": "Sipahijala", "st_code": "16", "year": "update2014", "st_nm": "Tripura" }, "geometry": { "type": "Polygon", "coordinates": [ [ [ 91.420011042414799, 23.374727130676085 ], [ 91.404985689045034, 23.368316192230072 ], [ 91.387507216757754, 23.355894998990919 ], [ 91.387507216757754, 23.325443041372353 ], [ 91.377694741087709, 23.32384030676085 ], [ 91.372481863387989, 23.308614327951567 ], [ 91.360216268800428, 23.294590400100908 ], [ 91.349483873536315, 23.285775359737638 ], [ 91.33415188030186, 23.278563053985874 ], [ 91.319739806661474, 23.277361003027245 ], [ 91.301954694509519, 23.278162370332996 ], [ 91.306860932344534, 23.29338834914228 ], [ 91.315753488420526, 23.289782196266398 ], [ 91.313607009367701, 23.301402022199799 ], [ 91.2884625404632, 23.314624582744703 ], [ 91.295821897215731, 23.338665601917256 ], [ 91.313300369503011, 23.340669020181636 ], [ 91.323419485037746, 23.363107304742684 ], [ 91.292755498568837, 23.355093631685168 ], [ 91.287542620869132, 23.376730548940465 ], [ 91.297355096539178, 23.382340120080727 ], [ 91.28355630262817, 23.383542171039355 ], [ 91.28355630262817, 23.418802332492433 ], [ 91.260558312776496, 23.452860442986882 ], [ 91.254732155347398, 23.486918553481331 ], [ 91.24124000130108, 23.485315818869829 ], [ 91.238480242518889, 23.498538379414732 ], [ 91.222228329690367, 23.494531542885973 ], [ 91.224681448607882, 23.510558889001011 ], [ 91.201990098620882, 23.514165041876893 ], [ 91.2130291337497, 23.547421785065591 ], [ 91.193097542544905, 23.54461699949546 ], [ 91.176232349987004, 23.591096303229062 ], [ 91.160900356752549, 23.594702456104944 ], [ 91.156914038511601, 23.670431666498487 ], [ 91.170712832422609, 23.656808422300706 ], [ 91.191257703356769, 23.655205687689204 ], [ 91.190951063492079, 23.647192014631685 ], [ 91.214562333073133, 23.656808422300706 ], [ 91.200150259432746, 23.664421411705348 ], [ 91.206896336455912, 23.68966448183653 ], [ 91.153541, 23.691267216448033 ], [ 91.156914038511601, 23.742154040363271 ], [ 91.208429535779359, 23.752171131685166 ], [ 91.226214647931329, 23.731736265388498 ], [ 91.243079840489216, 23.740150622098891 ], [ 91.276503585740329, 23.722921225025228 ], [ 91.296741816809799, 23.744958825933402 ], [ 91.313607009367701, 23.7217191740666 ], [ 91.317593327608662, 23.762188223007065 ], [ 91.370642024199867, 23.744958825933402 ], [ 91.386587297163686, 23.748965662462162 ], [ 91.388427136351822, 23.772205314328961 ], [ 91.435649675513943, 23.766996426841576 ], [ 91.440862553213648, 23.751770448032293 ], [ 91.473979658600072, 23.746962244197782 ], [ 91.506176844392414, 23.754575233602424 ], [ 91.56351849908927, 23.789835395055501 ], [ 91.563825138953959, 23.787831976791121 ], [ 91.564438418683338, 23.784626507568113 ], [ 91.569038016653678, 23.759784121089808 ], [ 91.570571215977125, 23.750568397073664 ], [ 91.5684247369243, 23.736945152875883 ], [ 91.567504817330232, 23.735743101917254 ], [ 91.537147470726012, 23.726928061553988 ], [ 91.53806739032008, 23.710900715438953 ], [ 91.531934593026293, 23.706092511604442 ], [ 91.525801795732519, 23.701284307769932 ], [ 91.507403403851171, 23.704890460645814 ], [ 91.503417085610224, 23.687661063572151 ], [ 91.46263398360658, 23.662818677093846 ], [ 91.432889916731739, 23.609127067608476 ], [ 91.397626332292504, 23.584685364783049 ], [ 91.40222593026283, 23.529391020686177 ], [ 91.375241622170194, 23.517771194752775 ], [ 91.392413454592784, 23.478904880423816 ], [ 91.37677482149364, 23.444446086276489 ], [ 91.388733776216512, 23.433627627648839 ], [ 91.385054097840253, 23.40357635368315 ], [ 91.419397762685421, 23.381939436427853 ], [ 91.420011042414799, 23.374727130676085 ] ] ] } },
{ "type": "Feature", "properties": { "dt_code": "709", "district": "Gomati", "st_code": "16", "year": "update2014", "st_nm": "Tripura" }, "geometry": { "type": "Polygon", "coordinates": [ [ [ 91.76743400910749, 23.688863114530779 ], [ 91.766820729378111, 23.687661063572151 ], [ 91.765287530054664, 23.684455594349142 ], [ 91.768967208430936, 23.67203440110999 ], [ 91.752408655737725, 23.651599534813322 ], [ 91.768967208430936, 23.64398654540868 ], [ 91.781232803018497, 23.55543545812311 ], [ 91.781846082747876, 23.551428621594351 ], [ 91.791965198282611, 23.543014264883958 ], [ 91.803617513140793, 23.529391020686177 ], [ 91.800857754358589, 23.518171878405653 ], [ 91.803924153005482, 23.515367092835522 ], [ 91.797791355711695, 23.489322655398588 ], [ 91.824775663804331, 23.467285054490414 ], [ 91.843174055685679, 23.424411903632695 ], [ 91.837654538121271, 23.371120977800203 ], [ 91.803924153005482, 23.332254663471243 ], [ 91.764367610460596, 23.309816378910192 ], [ 91.759768012490255, 23.282970574167507 ], [ 91.773873446265952, 23.269748013622603 ], [ 91.759154732760877, 23.266542544399599 ], [ 91.742596180067679, 23.262936391523713 ], [ 91.7419829003383, 23.263737758829468 ], [ 91.71959819021599, 23.289782196266398 ], [ 91.726037627374467, 23.313823215438951 ], [ 91.668695972677611, 23.356696366296671 ], [ 91.636805426749959, 23.352288846115037 ], [ 91.607674639604497, 23.40357635368315 ], [ 91.607061359875118, 23.403977037336023 ], [ 91.598168803799126, 23.386346956609486 ], [ 91.575170813947452, 23.383942854692229 ], [ 91.554012663283913, 23.407182506559032 ], [ 91.460180864689065, 23.395963364278508 ], [ 91.459567584959686, 23.393158578708377 ], [ 91.456807826177482, 23.379535334510596 ], [ 91.454354707259967, 23.368316192230072 ], [ 91.441169193078338, 23.368316192230072 ], [ 91.426450479573262, 23.377531916246216 ], [ 91.420011042414799, 23.374727130676085 ], [ 91.419397762685421, 23.381939436427853 ], [ 91.385054097840253, 23.40357635368315 ], [ 91.388733776216512, 23.433627627648839 ], [ 91.37677482149364, 23.444446086276489 ], [ 91.392413454592784, 23.478904880423816 ], [ 91.375241622170194, 23.517771194752775 ], [ 91.40222593026283, 23.529391020686177 ], [ 91.397626332292504, 23.584685364783049 ], [ 91.432889916731739, 23.609127067608476 ], [ 91.46263398360658, 23.662818677093846 ], [ 91.503417085610224, 23.687661063572151 ], [ 91.507403403851171, 23.704890460645814 ], [ 91.525801795732519, 23.701284307769932 ], [ 91.531934593026293, 23.706092511604442 ], [ 91.53806739032008, 23.710900715438953 ], [ 91.537147470726012, 23.726928061553988 ], [ 91.567504817330232, 23.735743101917254 ], [ 91.5684247369243, 23.736945152875883 ], [ 91.570571215977125, 23.750568397073664 ], [ 91.569038016653678, 23.759784121089808 ], [ 91.572411055165247, 23.760184804742686 ], [ 91.572717695029937, 23.762989590312817 ], [ 91.578543852459035, 23.760986172048437 ], [ 91.646924542284694, 23.768599161453078 ], [ 91.692613882123354, 23.757780702825428 ], [ 91.717145071298475, 23.768599161453078 ], [ 91.743822739526422, 23.729332163471241 ], [ 91.736156742909202, 23.703287726034311 ], [ 91.758234813166808, 23.683654227043391 ], [ 91.76743400910749, 23.688863114530779 ] ] ] } },
{ "type": "Feature", "properties": { "dt_code": "708", "district": "Khowai", "st_code": "16", "year": "update2014", "st_nm": "Tripura" }, "geometry": { "type": "Polygon", "coordinates": [ [ [ 91.75486177465524, 24.141635642280526 ], [ 91.743209459797043, 24.132419918264379 ], [ 91.753941855061171, 24.107978215438951 ], [ 91.747195778038005, 23.994985425327954 ], [ 91.752715295602414, 23.958523212916248 ], [ 91.77969960369505, 23.928071255297681 ], [ 91.772646886807195, 23.914848694752777 ], [ 91.784299201665377, 23.818283934409688 ], [ 91.771113687483748, 23.737746520181634 ], [ 91.777859764506914, 23.708897297174573 ], [ 91.76743400910749, 23.688863114530779 ], [ 91.758234813166808, 23.683654227043391 ], [ 91.736156742909202, 23.703287726034311 ], [ 91.743822739526422, 23.729332163471241 ], [ 91.717145071298475, 23.768599161453078 ], [ 91.692613882123354, 23.757780702825428 ], [ 91.646924542284694, 23.768599161453078 ], [ 91.578543852459035, 23.760986172048437 ], [ 91.572717695029937, 23.762989590312817 ], [ 91.572411055165247, 23.760184804742686 ], [ 91.569038016653678, 23.759784121089808 ], [ 91.564438418683338, 23.784626507568113 ], [ 91.563825138953959, 23.787831976791121 ], [ 91.564131778818648, 23.788232660443995 ], [ 91.55094626463702, 23.909239123612512 ], [ 91.531014673432225, 23.912043909182646 ], [ 91.539600589643527, 23.936084928355196 ], [ 91.530094753838171, 23.934882877396571 ], [ 91.518749078844664, 23.952913641775986 ], [ 91.521508837626868, 23.966136202320889 ], [ 91.496671008587057, 24.003800465691221 ], [ 91.492071410616717, 24.043868830978809 ], [ 91.46999334035911, 24.06149891170535 ], [ 91.486245253187633, 24.097159756811301 ], [ 91.495137809263611, 24.085139247225026 ], [ 91.539600589643527, 24.073118737638751 ], [ 91.58099697137655, 24.074320788597376 ], [ 91.5935692058288, 24.085940614530777 ], [ 91.590809447046595, 24.09635838950555 ], [ 91.607061359875118, 24.091550185671039 ], [ 91.630672629456171, 24.103170011604441 ], [ 91.63925854566746, 24.170484865287587 ], [ 91.65643037809005, 24.185310160443997 ], [ 91.646924542284694, 24.217364852674066 ], [ 91.663176455113216, 24.231789464177599 ], [ 91.682494766588619, 24.162471192230072 ], [ 91.69935995914652, 24.161669824924321 ], [ 91.726344267239156, 24.141234958627649 ], [ 91.75486177465524, 24.141635642280526 ] ] ] } },
{ "type": "Feature", "properties": { "dt_code": "289", "district": "West Tripura", "st_code": "16", "year": "2011_c", "st_nm": "Tripura" }, "geometry": { "type": "Polygon", "coordinates": [ [ [ 91.563825138953959, 23.787831976791121 ], [ 91.56351849908927, 23.789835395055501 ], [ 91.506176844392414, 23.754575233602424 ], [ 91.473979658600072, 23.746962244197782 ], [ 91.440862553213648, 23.751770448032293 ], [ 91.435649675513943, 23.766996426841576 ], [ 91.388427136351822, 23.772205314328961 ], [ 91.386587297163686, 23.748965662462162 ], [ 91.370642024199867, 23.744958825933402 ], [ 91.317593327608662, 23.762188223007065 ], [ 91.313607009367701, 23.7217191740666 ], [ 91.296741816809799, 23.744958825933402 ], [ 91.276503585740329, 23.722921225025228 ], [ 91.243079840489216, 23.740150622098891 ], [ 91.226214647931329, 23.731736265388498 ], [ 91.228054487119451, 23.792640180625632 ], [ 91.247679438459556, 23.82990376034309 ], [ 91.219468570908163, 23.879187849646822 ], [ 91.221001770231609, 23.892811093844603 ], [ 91.243079840489216, 23.90362955247225 ], [ 91.232960724954481, 23.920057582240162 ], [ 91.268530949258405, 23.92326305146317 ], [ 91.257491914129602, 23.942495866801213 ], [ 91.261478232370564, 23.953715009081737 ], [ 91.280183264116587, 23.982163548435924 ], [ 91.28386294249286, 23.967738936932392 ], [ 91.293062138433527, 23.971345089808274 ], [ 91.300421495186072, 23.997389527245208 ], [ 91.379227940411155, 23.974550559031282 ], [ 91.373401782982057, 24.002197731079718 ], [ 91.397013052563125, 24.047074300201817 ], [ 91.378308020817087, 24.079128992431887 ], [ 91.375854901899572, 24.105574113521698 ], [ 91.402839209992209, 24.109580950050454 ], [ 91.430130157949534, 24.106776164480323 ], [ 91.438102794431458, 24.093954287588296 ], [ 91.437796154566769, 24.101166593340061 ], [ 91.480725735623224, 24.093152920282545 ], [ 91.46999334035911, 24.06149891170535 ], [ 91.492071410616717, 24.043868830978809 ], [ 91.496671008587057, 24.003800465691221 ], [ 91.521508837626868, 23.966136202320889 ], [ 91.518749078844664, 23.952913641775986 ], [ 91.530094753838171, 23.934882877396571 ], [ 91.539600589643527, 23.936084928355196 ], [ 91.531014673432225, 23.912043909182646 ], [ 91.55094626463702, 23.909239123612512 ], [ 91.564131778818648, 23.788232660443995 ], [ 91.563825138953959, 23.787831976791121 ] ] ] } },
{ "type": "Feature", "properties": { "dt_code": "290", "district": "South Tripura", "st_code": "16", "year": "2011_c", "st_nm": "Tripura" }, "geometry": { "type": "Polygon", "coordinates": [ [ [ 91.319739806661474, 23.277361003027245 ], [ 91.33415188030186, 23.278563053985874 ], [ 91.349483873536315, 23.285775359737638 ], [ 91.360216268800428, 23.294590400100908 ], [ 91.372481863387989, 23.308614327951567 ], [ 91.377694741087709, 23.32384030676085 ], [ 91.387507216757754, 23.325443041372353 ], [ 91.387507216757754, 23.355894998990919 ], [ 91.404985689045034, 23.368316192230072 ], [ 91.420011042414799, 23.374727130676085 ], [ 91.426450479573262, 23.377531916246216 ], [ 91.441169193078338, 23.368316192230072 ], [ 91.454354707259967, 23.368316192230072 ], [ 91.456807826177482, 23.379535334510596 ], [ 91.459567584959686, 23.393158578708377 ], [ 91.460180864689065, 23.395963364278508 ], [ 91.554012663283913, 23.407182506559032 ], [ 91.575170813947452, 23.383942854692229 ], [ 91.598168803799126, 23.386346956609486 ], [ 91.607061359875118, 23.403977037336023 ], [ 91.607674639604497, 23.40357635368315 ], [ 91.636805426749959, 23.352288846115037 ], [ 91.668695972677611, 23.356696366296671 ], [ 91.726037627374467, 23.313823215438951 ], [ 91.71959819021599, 23.289782196266398 ], [ 91.7419829003383, 23.263737758829468 ], [ 91.742596180067679, 23.262936391523713 ], [ 91.759154732760877, 23.266542544399599 ], [ 91.776939844912846, 23.269748013622603 ], [ 91.776939844912846, 23.243703576185673 ], [ 91.791351918553232, 23.22647417911201 ], [ 91.789205439500407, 23.204436578203836 ], [ 91.814349908404907, 23.145135397578205 ], [ 91.813429988810839, 23.099056777497477 ], [ 91.83520141920377, 23.093447206357215 ], [ 91.805763992193619, 23.063395932391526 ], [ 91.774486725995331, 23.069406187184661 ], [ 91.780312883424429, 23.028937138244199 ], [ 91.768967208430936, 23.041358331483352 ], [ 91.771726967213127, 23.032943974772959 ], [ 91.71959819021599, 22.987266038345108 ], [ 91.693840441582111, 22.98806740565086 ], [ 91.684334605776755, 22.97724894702321 ], [ 91.65152414025502, 22.976046896064581 ], [ 91.645697982825936, 22.984861936427851 ], [ 91.619326954462679, 22.939184 ], [ 91.608901199063254, 22.957214764379415 ], [ 91.599702003122573, 22.954810662462162 ], [ 91.613194157168891, 22.958817498990918 ], [ 91.60614144028105, 22.972040059535825 ], [ 91.589582887587838, 22.976848263370332 ], [ 91.576397373406209, 22.965629121089808 ], [ 91.557385701795482, 22.978450997981838 ], [ 91.557079061930807, 22.996882446014126 ], [ 91.542360348425731, 22.999687231584261 ], [ 91.548186505854815, 23.019320730575178 ], [ 91.538374030184769, 23.019320730575178 ], [ 91.550332984907641, 23.038553545913221 ], [ 91.53040139370286, 23.038553545913221 ], [ 91.529788113973481, 23.091844471745713 ], [ 91.511389722092133, 23.104265664984865 ], [ 91.517522519385921, 23.125501898587288 ], [ 91.503110445745534, 23.130710786074673 ], [ 91.515069400468406, 23.145135397578205 ], [ 91.498510847775194, 23.142731295660948 ], [ 91.507096763986482, 23.154351121594349 ], [ 91.490844851157973, 23.157957274470235 ], [ 91.498204207910504, 23.171580518668012 ], [ 91.491764770752027, 23.177590773461151 ], [ 91.507403403851171, 23.183601028254291 ], [ 91.503110445745534, 23.192015384964684 ], [ 91.470606620088489, 23.196422905146317 ], [ 91.48256557481136, 23.200029058022199 ], [ 91.47520621805883, 23.220463924318871 ], [ 91.450368389019019, 23.219261873360242 ], [ 91.4702999802238, 23.227676230070635 ], [ 91.45772774577155, 23.246107678102927 ], [ 91.443928951860542, 23.246508361755804 ], [ 91.454048067395277, 23.260532289606459 ], [ 91.418171203226663, 23.255724085771948 ], [ 91.41970440255011, 23.273354166498486 ], [ 91.408665367421307, 23.285374676084764 ], [ 91.411118486338822, 23.255724085771948 ], [ 91.400386091074694, 23.265741177093844 ], [ 91.397319692427814, 23.2565254530777 ], [ 91.408665367421307, 23.247710412714429 ], [ 91.392413454592784, 23.246107678102927 ], [ 91.400999370804072, 23.229278964682141 ], [ 91.386280657298997, 23.227676230070635 ], [ 91.391800174863405, 23.220063240665993 ], [ 91.380761139734602, 23.20884409838547 ], [ 91.387507216757754, 23.208042731079718 ], [ 91.379841220140534, 23.184803079212916 ], [ 91.403145849856898, 23.113882072653887 ], [ 91.400079451210004, 23.096652675580224 ], [ 91.417251283632595, 23.083029431382442 ], [ 91.415718084309148, 23.062995248738648 ], [ 91.395786493104367, 23.056183626639758 ], [ 91.369722104605799, 23.07060823814329 ], [ 91.34672411475411, 23.102262246720485 ], [ 91.332925320843103, 23.153149070635724 ], [ 91.323112845173057, 23.158357958123108 ], [ 91.318513247202731, 23.244504943491425 ], [ 91.32648588368464, 23.25251861654894 ], [ 91.317899967473352, 23.252919300201818 ], [ 91.309927330991428, 23.276559635721494 ], [ 91.319739806661474, 23.277361003027245 ] ] ] } },
{ "type": "Feature", "properties": { "dt_code": "710", "district": "Unokoti", "st_code": "16", "year": "update2014", "st_nm": "Tripura" }, "geometry": { "type": "Polygon", "coordinates": [ [ [ 92.070087555555574, 24.376836946518669 ], [ 92.062728198803029, 24.312326878405653 ], [ 92.068860996096817, 24.30391252169526 ], [ 92.068247716367438, 24.270655778506558 ], [ 92.09707186364821, 24.263844156407671 ], [ 92.103817940671362, 24.237799718970738 ], [ 92.131722168358067, 24.219368270938446 ], [ 92.138161605516544, 24.19172109889001 ], [ 92.162079514962286, 24.20253955751766 ], [ 92.164532633879801, 24.20253955751766 ], [ 92.172198630497022, 24.190118364278508 ], [ 92.203782536559999, 24.182104691220989 ], [ 92.203475896695309, 24.168481447023211 ], [ 92.202249337236552, 24.157662988395561 ], [ 92.145214322404385, 24.117193939455095 ], [ 92.166985752797302, 24.102368644298689 ], [ 92.16514591360918, 24.095156338546921 ], [ 92.14276120348687, 24.040663361755804 ], [ 92.134481927140271, 24.032249005045408 ], [ 92.122216332552711, 24.038259259838547 ], [ 92.110564017694529, 24.023834648335015 ], [ 92.114243696070787, 24.005002516649849 ], [ 92.115776895394234, 23.998591578203836 ], [ 92.112710496747354, 23.994184058022199 ], [ 92.085112908925339, 23.989776537840566 ], [ 92.086952748113475, 24.016622342583251 ], [ 92.086646108248786, 24.016622342583251 ], [ 92.073767233931846, 24.02263259737639 ], [ 92.05935516029146, 24.028642852169526 ], [ 92.073460594067157, 24.095557022199799 ], [ 92.050769244080158, 24.099964542381432 ], [ 92.030224373145998, 24.090348134712414 ], [ 92.006919743429634, 24.099563858728558 ], [ 92.002013505594604, 24.075122155903131 ], [ 91.993120949518627, 24.081533094349144 ], [ 91.968589760343491, 24.060296860746721 ], [ 91.969509679937559, 24.075522839556005 ], [ 91.924126979963589, 24.107978215438951 ], [ 91.923207060369521, 24.10918026639758 ], [ 91.910021546187892, 24.141234958627649 ], [ 91.942218731980233, 24.263042789101917 ], [ 91.922287140775452, 24.337970632189709 ], [ 91.960003844132203, 24.358806182139254 ], [ 91.976869036690104, 24.33196037739657 ], [ 91.993734229248005, 24.328754908173561 ], [ 91.971656158990385, 24.383247884964682 ], [ 91.988214711683597, 24.380042415741677 ], [ 92.001093586000536, 24.395268394550961 ], [ 92.007839663023688, 24.384049252270433 ], [ 92.070087555555574, 24.376836946518669 ] ] ] } }
]
}
