{
"type": "FeatureCollection",
"name": "uttarakhand",
"crs": { "type": "name", "properties": { "name": "urn:ogc:def:crs:OGC:1.3:CRS84" } },
"features": [
{ "type": "Feature", "properties": { "dt_code": "056", "district": "Uttarkashi", "st_code": "05", "year": "2011_c", "st_nm": "Uttarakhand" }, "geometry": { "type": "Polygon", "coordinates": [ [ [ 79.407516661402752, 31.073988430964761 ], [ 79.406382209540411, 31.07083048411323 ], [ 79.387096527880644, 31.067040947891392 ], [ 79.362516737529958, 31.036724658116697 ], [ 79.306550445654551, 31.013987440785673 ], [ 79.331508386626012, 30.995671349046795 ], [ 79.322432771727293, 30.961565523050261 ], [ 79.322054621106517, 30.961881317735411 ], [ 79.292180722064913, 30.968197211438476 ], [ 79.263441274885651, 30.954933834662043 ], [ 79.284617709649311, 30.935354564182553 ], [ 79.283483257786983, 30.913880525592141 ], [ 79.269869835438911, 30.906933042518773 ], [ 79.280836203441524, 30.876616752744077 ], [ 79.258903467436298, 30.869353474985559 ], [ 79.251340455020696, 30.843458310803005 ], [ 79.236592580810282, 30.839037185210859 ], [ 79.240752237638858, 30.824826424378973 ], [ 79.225248062186893, 30.81156304760254 ], [ 79.289533667719454, 30.749983083997687 ], [ 79.274785793509039, 30.724403714500287 ], [ 79.255878262470048, 30.722824741074522 ], [ 79.244533743846659, 30.734509144425189 ], [ 79.199533819973865, 30.73293017099942 ], [ 79.169281770311486, 30.755983183015598 ], [ 79.142811226856892, 30.747456726516464 ], [ 79.126928900784151, 30.769246559792027 ], [ 79.091760893051628, 30.775878248180241 ], [ 79.067937403942494, 30.798299670826111 ], [ 79.033147546830762, 30.809668279491625 ], [ 79.027853438139843, 30.81156304760254 ], [ 79.002895497168382, 30.858616455690353 ], [ 78.945416602809843, 30.853879535413057 ], [ 78.922727565563065, 30.877564136799538 ], [ 78.89550072086692, 30.870932448411324 ], [ 78.884912503485083, 30.876300958058927 ], [ 78.87999654541494, 30.875985163373773 ], [ 78.849366345131784, 30.847563641709993 ], [ 78.862601616859081, 30.815984173194686 ], [ 78.853904152581137, 30.806826127325245 ], [ 78.847853742648667, 30.73766709127672 ], [ 78.808147927466791, 30.719035204852688 ], [ 78.770332865388809, 30.720929972963603 ], [ 78.751803484970594, 30.710508748353554 ], [ 78.719282531583531, 30.733877555054882 ], [ 78.699996849923764, 30.715561463316003 ], [ 78.661047335983454, 30.70735080150202 ], [ 78.656131377913312, 30.689666299133449 ], [ 78.58806426617295, 30.687455736337377 ], [ 78.599786935417129, 30.672297591450029 ], [ 78.597139881071669, 30.630612693009819 ], [ 78.549492902853416, 30.573453854997112 ], [ 78.547223999128732, 30.533347929982668 ], [ 78.538904685471579, 30.527032036279607 ], [ 78.496551815944244, 30.530821572501445 ], [ 78.499577020910479, 30.58071713275563 ], [ 78.513568593879327, 30.595559482957828 ], [ 78.501845924635163, 30.608507065049103 ], [ 78.47915688738837, 30.625244183362216 ], [ 78.468190519385757, 30.613875574696706 ], [ 78.447014084622097, 30.61419136938186 ], [ 78.43642586724026, 30.573769649682266 ], [ 78.450795590829884, 30.563664219757364 ], [ 78.453820795796133, 30.542505975852109 ], [ 78.443232578414296, 30.523874089428077 ], [ 78.425459499237647, 30.516610811669555 ], [ 78.413736829993468, 30.468610019526285 ], [ 78.404661215094748, 30.471452171692661 ], [ 78.393694847092135, 30.506189587059502 ], [ 78.349073073840131, 30.533663724667822 ], [ 78.33886300707907, 30.562716835701906 ], [ 78.327896639076457, 30.558295710109764 ], [ 78.318064722936185, 30.57440123905257 ], [ 78.307854656175124, 30.572506470941651 ], [ 78.313905066107608, 30.561137862276141 ], [ 78.286300070790688, 30.552611405777007 ], [ 78.286300070790688, 30.563664219757364 ], [ 78.301804246242654, 30.564295809127671 ], [ 78.288568974515357, 30.572190676256497 ], [ 78.302182396863429, 30.587033026458695 ], [ 78.27798075713352, 30.611665011900634 ], [ 78.249241309954257, 30.610717627845176 ], [ 78.235249736985409, 30.586401437088387 ], [ 78.205375837943805, 30.578190775274408 ], [ 78.164535570899588, 30.58861199988446 ], [ 78.170585980832072, 30.604717528827265 ], [ 78.157728859725552, 30.628717924898901 ], [ 78.139577629928127, 30.635349613287119 ], [ 78.103275170333262, 30.634718023916811 ], [ 78.065081957634504, 30.623665209936451 ], [ 78.075292024395566, 30.607559680993646 ], [ 78.075292024395566, 30.607243886308492 ], [ 78.073023120670882, 30.606928091623338 ], [ 78.052602987148774, 30.6031385554015 ], [ 78.046552577216303, 30.602191171346043 ], [ 78.045418125353962, 30.602506966031196 ], [ 78.042392920387726, 30.602191171346043 ], [ 78.012897171966898, 30.616401932177933 ], [ 78.012519021346122, 30.618296700288852 ], [ 78.008359364517545, 30.620507263084921 ], [ 78.011006418862991, 30.65113934754477 ], [ 78.032939154868231, 30.645139248526863 ], [ 78.062434903289045, 30.666613287117272 ], [ 78.083233187431929, 30.720929972963603 ], [ 78.079073530603353, 30.74082503812825 ], [ 78.023107238727945, 30.789457419641824 ], [ 78.027266895556522, 30.804299769844022 ], [ 77.99890559899805, 30.826721192489892 ], [ 77.994745942169473, 30.837458211785094 ], [ 77.973947658026574, 30.889564334835356 ], [ 77.978485465475941, 30.899985559445408 ], [ 77.998149297756484, 30.904722479722704 ], [ 78.018191280657817, 30.917038472443675 ], [ 78.018947581899369, 30.921459598035817 ], [ 78.014409774450016, 30.928722875794339 ], [ 77.979619917338269, 30.965986648642403 ], [ 77.963359440644737, 30.977039462622763 ], [ 77.927056981049887, 30.97198674766031 ], [ 77.884325960901762, 30.945775788792606 ], [ 77.87714109910695, 30.947354762218371 ], [ 77.867309182966679, 30.950196914384748 ], [ 77.854073911239382, 30.953354861236278 ], [ 77.853695760618606, 30.953986450606585 ], [ 77.839326037028968, 30.980828998844597 ], [ 77.832141175234156, 31.028829790987867 ], [ 77.83176302461338, 31.028829790987867 ], [ 77.829494120888697, 31.029461380358175 ], [ 77.811342891091272, 31.059146080762563 ], [ 77.824200012197778, 31.055672339225879 ], [ 77.838191585166641, 31.072725252224146 ], [ 77.851048706273147, 31.073356841594453 ], [ 77.863905827379654, 31.108725846331598 ], [ 77.890754521455023, 31.121673428422877 ], [ 77.8986956844914, 31.150410744771808 ], [ 77.924788077325204, 31.150410744771808 ], [ 77.967140946852538, 31.173463756787982 ], [ 77.984535875408412, 31.157042433160022 ], [ 78.000796352101943, 31.162095148122471 ], [ 78.030292100522772, 31.151042334142115 ], [ 78.042771071008502, 31.178516471750434 ], [ 78.103653320954038, 31.185463954823803 ], [ 78.160375914071011, 31.225569879838243 ], [ 78.195165771182758, 31.221780343616405 ], [ 78.204997687323029, 31.220517164875794 ], [ 78.220501862774995, 31.234096336337377 ], [ 78.246594255608798, 31.230622594800693 ], [ 78.282896715203663, 31.266307394222991 ], [ 78.306342053692006, 31.259991500519931 ], [ 78.310879861141373, 31.282412923165801 ], [ 78.311258011762149, 31.283044512536105 ], [ 78.311258011762149, 31.283360307221258 ], [ 78.329031090938798, 31.278307592258809 ], [ 78.339619308320636, 31.27957077099942 ], [ 78.370249508603791, 31.286518254072789 ], [ 78.374409165432368, 31.282728717850951 ], [ 78.386131834676547, 31.271360109185441 ], [ 78.396341901437594, 31.275465440092432 ], [ 78.396341901437594, 31.275149645407279 ], [ 78.406930118819432, 31.242306998151356 ], [ 78.434156963515576, 31.254622990872328 ], [ 78.435669565998694, 31.25367560681687 ], [ 78.448148536484425, 31.24578073968804 ], [ 78.455711548900027, 31.241043819410745 ], [ 78.456467850141578, 31.239780640670133 ], [ 78.483694694837723, 31.199043126285382 ], [ 78.551761806578085, 31.199990510340843 ], [ 78.578232350032678, 31.22525408515309 ], [ 78.609240700936624, 31.229359416060081 ], [ 78.647055763014592, 31.214832860543037 ], [ 78.658022131017205, 31.185148160138649 ], [ 78.672013703986067, 31.196832563489313 ], [ 78.765038756697891, 31.185779749508953 ], [ 78.810038680570685, 31.198411536915078 ], [ 78.817223542365497, 31.189569285730791 ], [ 78.810794981812251, 31.171884783362216 ], [ 78.824786554781099, 31.163674121548237 ], [ 78.831215115334359, 31.140621109532063 ], [ 78.885290654105859, 31.098936211091853 ], [ 78.908735992594217, 31.098936211091853 ], [ 78.920458661838381, 31.110936409127671 ], [ 78.950710711500761, 31.097988827036396 ], [ 79.008945907100852, 31.109989025072213 ], [ 78.987391321716402, 31.143463261698439 ], [ 78.985878719233284, 31.173779551473135 ], [ 78.957517422674798, 31.186727133564414 ], [ 78.943904000326725, 31.206622198729058 ], [ 78.947685506534526, 31.216727628653956 ], [ 78.929156126116311, 31.21704342333911 ], [ 78.928021674253984, 31.219885575505486 ], [ 78.915920854389029, 31.248622891854417 ], [ 78.886046955347425, 31.268517957019064 ], [ 78.886046955347425, 31.269149546389372 ], [ 78.882265449139624, 31.281149744425186 ], [ 78.881130997277282, 31.28430769127672 ], [ 78.881130997277282, 31.28430769127672 ], [ 78.897391473970814, 31.290307790294626 ], [ 78.896257022108472, 31.303571167071055 ], [ 78.915920854389029, 31.315571365106873 ], [ 78.943147699085173, 31.365782720046216 ], [ 78.966971188194293, 31.355993084806471 ], [ 78.977181254955354, 31.362940567879839 ], [ 78.998735840339805, 31.339887555863662 ], [ 79.014996317033336, 31.347150833622184 ], [ 79.007433304617734, 31.378414507452341 ], [ 79.015752618274888, 31.423257352744077 ], [ 79.058861789043789, 31.426415299595607 ], [ 79.071718910150295, 31.4561 ], [ 79.139029720649106, 31.433678577354129 ], [ 79.1447019799608, 31.413783512189486 ], [ 79.173819577760838, 31.38378301709994 ], [ 79.167012866586802, 31.36104579976892 ], [ 79.21163463983882, 31.34999298578856 ], [ 79.233189225223271, 31.333887456845755 ], [ 79.217306899150515, 31.312413418255343 ], [ 79.246424496950553, 31.291570969035238 ], [ 79.245668195709001, 31.282728717850951 ], [ 79.221844706599867, 31.259991500519931 ], [ 79.258147166194732, 31.236938488503753 ], [ 79.278945450337616, 31.237254283188907 ], [ 79.29634037889349, 31.217675012709417 ], [ 79.300878186342842, 31.166832068399767 ], [ 79.318273114898716, 31.135884189254767 ], [ 79.371592352428664, 31.113462766608897 ], [ 79.403357004574175, 31.113778561294048 ], [ 79.413567071335223, 31.095778264240323 ], [ 79.407516661402752, 31.073988430964761 ] ] ] } },
{ "type": "Feature", "properties": { "dt_code": "057", "district": "Chamoli", "st_code": "05", "year": "2011_c", "st_nm": "Uttarakhand" }, "geometry": { "type": "Polygon", "coordinates": [ [ [ 79.274785793509039, 30.724403714500287 ], [ 79.289533667719454, 30.749983083997687 ], [ 79.225248062186893, 30.81156304760254 ], [ 79.240752237638858, 30.824826424378973 ], [ 79.236592580810282, 30.839037185210859 ], [ 79.251340455020696, 30.843458310803005 ], [ 79.258903467436298, 30.869353474985559 ], [ 79.280836203441524, 30.876616752744077 ], [ 79.269869835438911, 30.906933042518773 ], [ 79.283483257786983, 30.913880525592141 ], [ 79.284617709649311, 30.935354564182553 ], [ 79.263441274885651, 30.954933834662043 ], [ 79.292180722064913, 30.968197211438476 ], [ 79.322054621106517, 30.961881317735411 ], [ 79.322432771727293, 30.961565523050261 ], [ 79.331508386626012, 30.995671349046795 ], [ 79.306550445654551, 31.013987440785673 ], [ 79.362516737529958, 31.036724658116697 ], [ 79.387096527880644, 31.067040947891392 ], [ 79.406382209540411, 31.07083048411323 ], [ 79.407516661402752, 31.073988430964761 ], [ 79.412432619472881, 31.07588319907568 ], [ 79.426424192441743, 31.024092870710572 ], [ 79.469911513831406, 31.035461479376082 ], [ 79.506970274667836, 31.031987737839398 ], [ 79.516045889566541, 30.99725032247256 ], [ 79.547810541712053, 30.989671250028884 ], [ 79.539113077434109, 30.97482889982669 ], [ 79.552726499782182, 30.958091781513573 ], [ 79.591676013722505, 30.945459994107452 ], [ 79.601129779242001, 30.933144001386481 ], [ 79.663524631670668, 30.965670853957249 ], [ 79.665415384774562, 30.982723766955516 ], [ 79.699070790023967, 30.970723568919698 ], [ 79.731969894031806, 30.978618436048528 ], [ 79.753146328795467, 31.006408368341997 ], [ 79.775457215421483, 30.986829097862508 ], [ 79.817053783707252, 30.97167095297516 ], [ 79.864700761925505, 30.972618337030617 ], [ 79.882095690481378, 30.953986450606585 ], [ 79.888902401655415, 30.918301651184287 ], [ 79.910835137660641, 30.913248936221837 ], [ 79.932389723045091, 30.880090494280761 ], [ 79.962641772707471, 30.888616950779895 ], [ 79.997053479198428, 30.866195528134025 ], [ 80.009532449684173, 30.868721885615251 ], [ 80.032599637551741, 30.842510926747543 ], [ 80.053776072315401, 30.844089900173309 ], [ 80.10180120115443, 30.788194240901213 ], [ 80.085540724460898, 30.772404506643557 ], [ 80.093481887497276, 30.747140931831311 ], [ 80.10180120115443, 30.727877456036971 ], [ 80.099532297429761, 30.728193250722125 ], [ 80.025792926377704, 30.734509144425189 ], [ 79.979658550642569, 30.709245569612939 ], [ 79.98306190622958, 30.689350504448296 ], [ 80.033355938793292, 30.635981202657423 ], [ 80.029952583206281, 30.615138753437318 ], [ 80.042809704312788, 30.598401635124205 ], [ 80.012557654650408, 30.575664417793181 ], [ 79.995162726094534, 30.536821671519352 ], [ 80.020120667065996, 30.48124180693241 ], [ 80.008776148442607, 30.469241608896592 ], [ 80.020120667065996, 30.449030749046795 ], [ 80.037515595621869, 30.443978034084346 ], [ 80.029952583206281, 30.413345949624492 ], [ 80.037893746242645, 30.407030055921432 ], [ 79.997431629819218, 30.365660952166376 ], [ 79.9959190273361, 30.335028867706527 ], [ 79.987221563058156, 30.318607544078567 ], [ 79.979658550642569, 30.304396783246677 ], [ 79.977011496297109, 30.299028273599074 ], [ 79.964910676432154, 30.293975558636625 ], [ 79.959994718362012, 30.292080790525706 ], [ 79.955078760291883, 30.29018602241479 ], [ 79.931633421803525, 30.29839668422877 ], [ 79.873398226203449, 30.271238341305605 ], [ 79.844280628403396, 30.288291254303871 ], [ 79.80079330701372, 30.281027976545349 ], [ 79.821969741777394, 30.226711290699019 ], [ 79.801549608255286, 30.212816324552282 ], [ 79.782642077216295, 30.180921061351818 ], [ 79.782263926595519, 30.152499539688041 ], [ 79.762978244935752, 30.133236063893701 ], [ 79.781885775974729, 30.113025204043904 ], [ 79.777347968525376, 30.097867059156556 ], [ 79.788692487148779, 30.080498351473135 ], [ 79.811003373774781, 30.076393020566147 ], [ 79.829154603572206, 30.059024312882727 ], [ 79.8162974824657, 30.047655704217213 ], [ 79.812894126878675, 30.02270792409012 ], [ 79.778104269766942, 30.005970805777007 ], [ 79.720625375408417, 30.001549680184866 ], [ 79.610205394140706, 30.020181566608898 ], [ 79.547810541712053, 29.995865375852109 ], [ 79.484281237421044, 30.023339513460428 ], [ 79.471802266935313, 29.979444052224146 ], [ 79.469911513831406, 29.977865078798381 ], [ 79.424533439337836, 29.93460120693241 ], [ 79.404869607057293, 29.942496074061236 ], [ 79.373861256153347, 29.927022134488734 ], [ 79.3390713990416, 29.972812363835931 ], [ 79.325079826072752, 29.972812363835931 ], [ 79.335289892833813, 29.943127663431543 ], [ 79.325079826072752, 29.929232697284807 ], [ 79.282348805924642, 29.925758955748123 ], [ 79.284617709649311, 29.951654119930677 ], [ 79.238105183293399, 29.972180774465627 ], [ 79.230164020257021, 29.975654516002312 ], [ 79.224869911566117, 29.978180873483534 ], [ 79.217685049771291, 30.02270792409012 ], [ 79.188945602592028, 30.037234479607164 ], [ 79.189323753212804, 30.037866068977468 ], [ 79.202937175560876, 30.063129643789715 ], [ 79.193105259420605, 30.084287887694973 ], [ 79.192348958179053, 30.084603682380127 ], [ 79.160206155412766, 30.09313013887926 ], [ 79.151130540514046, 30.112077819988446 ], [ 79.134491913199739, 30.118393713691507 ], [ 79.137895268786764, 30.151552155632583 ], [ 79.139407871269881, 30.162604969612939 ], [ 79.097433152363323, 30.196710795609473 ], [ 79.101214658571124, 30.211237351126517 ], [ 79.076256717599648, 30.221026986366262 ], [ 79.075878566978872, 30.221342781051415 ], [ 79.103483562295793, 30.256080196418253 ], [ 79.106886917882818, 30.288922843674175 ], [ 79.137138967545198, 30.285449102137491 ], [ 79.170416222173827, 30.29555453206239 ], [ 79.14432382934001, 30.300923041709993 ], [ 79.159449854171214, 30.328081384633158 ], [ 79.110290273469829, 30.381134891738878 ], [ 79.162475059137449, 30.385556017331023 ], [ 79.174575879002404, 30.428504094511844 ], [ 79.166634715966026, 30.446188596880415 ], [ 79.191592656937488, 30.477136476025418 ], [ 79.221844706599867, 30.490399852801847 ], [ 79.229029568394694, 30.527032036279607 ], [ 79.245290045088225, 30.537769055574813 ], [ 79.245668195709001, 30.558927299480068 ], [ 79.265332027989544, 30.566822166608898 ], [ 79.295205927031148, 30.561137862276141 ], [ 79.306928596275327, 30.589243589254764 ], [ 79.306928596275327, 30.589559383939918 ], [ 79.308441198758445, 30.589559383939918 ], [ 79.335289892833813, 30.595875277642982 ], [ 79.341340302766284, 30.602191171346043 ], [ 79.348903315181886, 30.617033521548237 ], [ 79.352306670768897, 30.640402328249564 ], [ 79.34814701394032, 30.650191963489313 ], [ 79.303903391309092, 30.678297690467936 ], [ 79.29634037889349, 30.718719410167534 ], [ 79.288399215857112, 30.720614178278453 ], [ 79.274785793509039, 30.724403714500287 ] ] ] } },
{ "type": "Feature", "properties": { "dt_code": "060", "district": "Dehradun", "st_code": "05", "year": "2011_c", "st_nm": "Uttarakhand" }, "geometry": { "type": "Polygon", "coordinates": [ [ [ 77.829494120888697, 31.029461380358175 ], [ 77.83176302461338, 31.028829790987867 ], [ 77.832141175234156, 31.028829790987867 ], [ 77.839326037028968, 30.980828998844597 ], [ 77.853695760618606, 30.953986450606585 ], [ 77.854073911239382, 30.953354861236278 ], [ 77.867309182966679, 30.950196914384748 ], [ 77.87714109910695, 30.947354762218371 ], [ 77.884325960901762, 30.945775788792606 ], [ 77.927056981049887, 30.97198674766031 ], [ 77.963359440644737, 30.977039462622763 ], [ 77.979619917338269, 30.965986648642403 ], [ 78.014409774450016, 30.928722875794339 ], [ 78.018947581899369, 30.921459598035817 ], [ 78.018191280657817, 30.917038472443675 ], [ 77.998149297756484, 30.904722479722704 ], [ 77.978485465475941, 30.899985559445408 ], [ 77.973947658026574, 30.889564334835356 ], [ 77.994745942169473, 30.837458211785094 ], [ 77.99890559899805, 30.826721192489892 ], [ 78.027266895556522, 30.804299769844022 ], [ 78.023107238727945, 30.789457419641824 ], [ 78.079073530603353, 30.74082503812825 ], [ 78.083233187431929, 30.720929972963603 ], [ 78.062434903289045, 30.666613287117272 ], [ 78.032939154868231, 30.645139248526863 ], [ 78.011006418862991, 30.65113934754477 ], [ 78.008359364517545, 30.620507263084921 ], [ 78.012519021346122, 30.618296700288852 ], [ 78.012897171966898, 30.616401932177933 ], [ 78.012519021346122, 30.616717726863083 ], [ 78.004577858309744, 30.568401140034663 ], [ 78.003065255826627, 30.565558987868283 ], [ 77.980376218579835, 30.55513776325823 ], [ 77.983023272925294, 30.539348029000578 ], [ 77.97470395926814, 30.537769055574813 ], [ 77.986048477891529, 30.525768857538996 ], [ 77.975460260509692, 30.522295116002311 ], [ 77.987939230995437, 30.51503183824379 ], [ 77.96827539871488, 30.509347533911033 ], [ 77.949367867675889, 30.517873990410166 ], [ 77.9380233490525, 30.505242203004045 ], [ 77.9380233490525, 30.504926408318891 ], [ 77.938401499673276, 30.504610613633737 ], [ 77.973191356785023, 30.486294521894859 ], [ 77.987561080374647, 30.467031046100519 ], [ 78.000040050860378, 30.468610019526285 ], [ 77.997771147135708, 30.479978628191795 ], [ 78.008737515138321, 30.483768164413632 ], [ 78.036720661076018, 30.465452072674754 ], [ 78.039367715421477, 30.482189190987867 ], [ 78.082098735569602, 30.467346840785673 ], [ 78.105544074057946, 30.478399654766029 ], [ 78.164157420278812, 30.445872802195261 ], [ 78.197812825528217, 30.446820186250722 ], [ 78.238653092572434, 30.423767174234545 ], [ 78.223148917120454, 30.40576687718082 ], [ 78.161888516554129, 30.382398070479493 ], [ 78.133527219995642, 30.343871118890814 ], [ 78.142602834894362, 30.325555027151935 ], [ 78.200081729252886, 30.293975558636625 ], [ 78.209157344151606, 30.293343969266321 ], [ 78.214451452842525, 30.309449498209126 ], [ 78.237140490089303, 30.299344068284228 ], [ 78.236762339468527, 30.287659664933564 ], [ 78.258316924852977, 30.285449102137491 ], [ 78.268148840993248, 30.302186220450608 ], [ 78.27835890775431, 30.295870326747544 ], [ 78.276846305271192, 30.271869930675908 ], [ 78.298779041276418, 30.245658971808204 ], [ 78.293863083206276, 30.231448210976314 ], [ 78.291594179481592, 30.229553442865395 ], [ 78.23903124319321, 30.189447517850951 ], [ 78.233737134502292, 30.185657981629117 ], [ 78.234115285123067, 30.185026392258809 ], [ 78.24167829753867, 30.16576291646447 ], [ 78.261342129819212, 30.161025996187174 ], [ 78.254535418645176, 30.13828877885615 ], [ 78.301426095621878, 30.111446230618139 ], [ 78.302560547484205, 30.1123936146736 ], [ 78.307854656175124, 30.10955146250722 ], [ 78.307476505554348, 30.107025105025997 ], [ 78.291216028860816, 30.100077621952629 ], [ 78.281005962099769, 30.060919080993646 ], [ 78.247350556850364, 30.03407653275563 ], [ 78.245081653125681, 30.017655209127671 ], [ 78.227308573949031, 30.015760441016752 ], [ 78.231468230777608, 29.992707429000578 ], [ 78.201972482356794, 29.966180675447717 ], [ 78.18722460814638, 29.962075344540729 ], [ 78.197812825528217, 29.987970508723279 ], [ 78.189115361250273, 29.997444349277874 ], [ 78.1717204326944, 29.963970112651644 ], [ 78.148653244826846, 29.967759648873482 ], [ 78.129745713787855, 30.001233885499712 ], [ 78.09609030853845, 30.01133931542461 ], [ 78.099115513504685, 30.028076433737724 ], [ 78.069241614463081, 30.04197139988446 ], [ 78.069619765083857, 30.075445636510686 ], [ 78.03558620921369, 30.103551363489313 ], [ 78.004577858309744, 30.176184141074522 ], [ 77.955796428229149, 30.230500826920853 ], [ 77.959956085057726, 30.240922051530905 ], [ 77.961090536920068, 30.241869435586366 ], [ 77.96184683816162, 30.24250102495667 ], [ 77.961090536920068, 30.24250102495667 ], [ 77.961090536920068, 30.24250102495667 ], [ 77.960334235678502, 30.24218523027152 ], [ 77.941426704639511, 30.239974667475447 ], [ 77.894157877042048, 30.265554036972848 ], [ 77.846510898823794, 30.271554135990755 ], [ 77.721721193966459, 30.330291947429231 ], [ 77.690334692441738, 30.376082176776428 ], [ 77.690334692441738, 30.376082176776428 ], [ 77.678233872576783, 30.375766382091275 ], [ 77.676721270093665, 30.387766580127092 ], [ 77.657813739054674, 30.398819394107452 ], [ 77.657057437813123, 30.400714162218371 ], [ 77.654032232846873, 30.401029956903525 ], [ 77.625292785667611, 30.403556314384748 ], [ 77.592015531038996, 30.406398466551124 ], [ 77.5825617655195, 30.401029956903525 ], [ 77.574998753103898, 30.400714162218371 ], [ 77.574620602483122, 30.400714162218371 ], [ 77.574242451862347, 30.404503698440209 ], [ 77.573108, 30.411766976198727 ], [ 77.573108, 30.412398565569035 ], [ 77.588990326072761, 30.422503995493933 ], [ 77.595040736005231, 30.426609326400925 ], [ 77.596175187867573, 30.427240915771229 ], [ 77.64306586484426, 30.431977836048528 ], [ 77.652519630363756, 30.448083364991334 ], [ 77.690334692441738, 30.448083364991334 ], [ 77.720964892724908, 30.473031145118426 ], [ 77.816258849161414, 30.505873792374349 ], [ 77.823821861577002, 30.521979321317158 ], [ 77.826468915922462, 30.528295215020218 ], [ 77.817771451644532, 30.561137862276141 ], [ 77.773905979634065, 30.55797991542461 ], [ 77.74327577935091, 30.593033125476602 ], [ 77.74327577935091, 30.593348920161755 ], [ 77.745922833696369, 30.604085939456962 ], [ 77.771637075909396, 30.59682266169844 ], [ 77.771258925288606, 30.616401932177933 ], [ 77.795838715639306, 30.614507164067014 ], [ 77.781090841428892, 30.646718221952629 ], [ 77.791300908189939, 30.65935000935875 ], [ 77.747435436179487, 30.679876663893701 ], [ 77.75575474983664, 30.706719212131716 ], [ 77.754620297974299, 30.708613980242635 ], [ 77.742897628730134, 30.722824741074522 ], [ 77.726259001415812, 30.73766709127672 ], [ 77.717183386517107, 30.74082503812825 ], [ 77.706595169135269, 30.744614574350088 ], [ 77.702435512306693, 30.745877753090699 ], [ 77.703569964169034, 30.764193844829578 ], [ 77.70394811478981, 30.764193844829578 ], [ 77.761427009148335, 30.826089603119584 ], [ 77.744032080592461, 30.846616257654535 ], [ 77.758023653561324, 30.876932547429231 ], [ 77.77352782901329, 30.877564136799538 ], [ 77.779200088324984, 30.860511223801272 ], [ 77.805670631779577, 30.85324794604275 ], [ 77.801510974951, 30.893353871057194 ], [ 77.815124397299073, 30.90440668503755 ], [ 77.813233644195165, 30.922091187406124 ], [ 77.762939611631452, 30.918301651184287 ], [ 77.74932618928338, 30.952723271865974 ], [ 77.759158105423666, 30.962512907105719 ], [ 77.772015226530172, 30.973881515771229 ], [ 77.78600679949902, 30.967565622068168 ], [ 77.813989945436731, 30.953986450606585 ], [ 77.817015150402966, 30.953670655921432 ], [ 77.837435283925075, 30.953354861236278 ], [ 77.814368096057507, 30.961881317735411 ], [ 77.83176302461338, 30.99409237562103 ], [ 77.824956313439344, 31.009882109878681 ], [ 77.807561384883471, 31.016198003581742 ], [ 77.816258849161414, 31.03104035378394 ], [ 77.829872271509473, 31.028829790987867 ], [ 77.829494120888697, 31.029461380358175 ] ] ] } },
{ "type": "Feature", "properties": { "dt_code": "059", "district": "Tehri Garhwal", "st_code": "05", "year": "2011_c", "st_nm": "Uttarakhand" }, "geometry": { "type": "Polygon", "coordinates": [ [ [ 78.012897171966898, 30.616401932177933 ], [ 78.042392920387726, 30.602191171346043 ], [ 78.045418125353962, 30.602506966031196 ], [ 78.046552577216303, 30.602191171346043 ], [ 78.052602987148774, 30.6031385554015 ], [ 78.073023120670882, 30.606928091623338 ], [ 78.075292024395566, 30.607243886308492 ], [ 78.075292024395566, 30.607559680993646 ], [ 78.065081957634504, 30.623665209936451 ], [ 78.103275170333262, 30.634718023916811 ], [ 78.139577629928127, 30.635349613287119 ], [ 78.157728859725552, 30.628717924898901 ], [ 78.170585980832072, 30.604717528827265 ], [ 78.164535570899588, 30.58861199988446 ], [ 78.205375837943805, 30.578190775274408 ], [ 78.235249736985409, 30.586401437088387 ], [ 78.249241309954257, 30.610717627845176 ], [ 78.27798075713352, 30.611665011900634 ], [ 78.302182396863429, 30.587033026458695 ], [ 78.288568974515357, 30.572190676256497 ], [ 78.301804246242654, 30.564295809127671 ], [ 78.286300070790688, 30.563664219757364 ], [ 78.286300070790688, 30.552611405777007 ], [ 78.313905066107608, 30.561137862276141 ], [ 78.307854656175124, 30.572506470941651 ], [ 78.318064722936185, 30.57440123905257 ], [ 78.327896639076457, 30.558295710109764 ], [ 78.33886300707907, 30.562716835701906 ], [ 78.349073073840131, 30.533663724667822 ], [ 78.393694847092135, 30.506189587059502 ], [ 78.404661215094748, 30.471452171692661 ], [ 78.413736829993468, 30.468610019526285 ], [ 78.425459499237647, 30.516610811669555 ], [ 78.443232578414296, 30.523874089428077 ], [ 78.453820795796133, 30.542505975852109 ], [ 78.450795590829884, 30.563664219757364 ], [ 78.43642586724026, 30.573769649682266 ], [ 78.447014084622097, 30.61419136938186 ], [ 78.468190519385757, 30.613875574696706 ], [ 78.47915688738837, 30.625244183362216 ], [ 78.501845924635163, 30.608507065049103 ], [ 78.513568593879327, 30.595559482957828 ], [ 78.499577020910479, 30.58071713275563 ], [ 78.496551815944244, 30.530821572501445 ], [ 78.538904685471579, 30.527032036279607 ], [ 78.547223999128732, 30.533347929982668 ], [ 78.549492902853416, 30.573453854997112 ], [ 78.597139881071669, 30.630612693009819 ], [ 78.599786935417129, 30.672297591450029 ], [ 78.58806426617295, 30.687455736337377 ], [ 78.656131377913312, 30.689666299133449 ], [ 78.661047335983454, 30.70735080150202 ], [ 78.699996849923764, 30.715561463316003 ], [ 78.719282531583531, 30.733877555054882 ], [ 78.751803484970594, 30.710508748353554 ], [ 78.770332865388809, 30.720929972963603 ], [ 78.808147927466791, 30.719035204852688 ], [ 78.847853742648667, 30.73766709127672 ], [ 78.853904152581137, 30.806826127325245 ], [ 78.862601616859081, 30.815984173194686 ], [ 78.849366345131784, 30.847563641709993 ], [ 78.87999654541494, 30.875985163373773 ], [ 78.884912503485083, 30.876300958058927 ], [ 78.89550072086692, 30.870932448411324 ], [ 78.922727565563065, 30.877564136799538 ], [ 78.945416602809843, 30.853879535413057 ], [ 79.002895497168382, 30.858616455690353 ], [ 79.027853438139843, 30.81156304760254 ], [ 79.033147546830762, 30.809668279491625 ], [ 79.035416450555431, 30.806194537954937 ], [ 79.02596268503595, 30.797668081455804 ], [ 79.028231588760619, 30.767667586366262 ], [ 79.018399672620347, 30.749667289312537 ], [ 79.000248442822922, 30.74903569994223 ], [ 78.991929129165769, 30.731666992258809 ], [ 78.960164477020257, 30.734824939110339 ], [ 78.923862017425407, 30.714298284575388 ], [ 78.91062674569811, 30.690613683188907 ], [ 78.909492293835768, 30.629665308954362 ], [ 78.8864251059682, 30.603454350086654 ], [ 78.88907216031366, 30.586085642403233 ], [ 78.862979767479857, 30.566822166608898 ], [ 78.866383123066868, 30.509031739225879 ], [ 78.823652102918757, 30.478399654766029 ], [ 78.850500796994126, 30.456294026805313 ], [ 78.844072236440866, 30.430083067937609 ], [ 78.816845391744721, 30.401029956903525 ], [ 78.834996621542146, 30.39155611634893 ], [ 78.834996621542146, 30.357450290352396 ], [ 78.858063809409714, 30.347029065742344 ], [ 78.855038604443479, 30.332818304910457 ], [ 78.869030177412327, 30.322081285615251 ], [ 78.858441960030504, 30.302186220450608 ], [ 78.873567984861694, 30.275659466897746 ], [ 78.917811607492922, 30.262080295436164 ], [ 78.920080511217606, 30.261448706065856 ], [ 78.90155113079939, 30.242816819641824 ], [ 78.899282227074721, 30.244395793067589 ], [ 78.895878871487696, 30.246922150548816 ], [ 78.897391473970814, 30.251027481455804 ], [ 78.88037469603573, 30.260185527325245 ], [ 78.879240244173388, 30.259553937954941 ], [ 78.878105792311047, 30.260185527325245 ], [ 78.855794905685045, 30.244395793067589 ], [ 78.847475592027891, 30.246606355863662 ], [ 78.844450387061642, 30.236500925938763 ], [ 78.826677307884992, 30.243448409012132 ], [ 78.806635324983674, 30.21976380762565 ], [ 78.787349643323893, 30.228606058809937 ], [ 78.748400129383583, 30.213132119237436 ], [ 78.716257326617296, 30.236816720623917 ], [ 78.68298007198868, 30.238711488734836 ], [ 78.680333017643221, 30.210289967071056 ], [ 78.647055763014592, 30.207447814904679 ], [ 78.644786859289923, 30.194500232813404 ], [ 78.620585219560013, 30.178394703870595 ], [ 78.617181863972988, 30.150920566262275 ], [ 78.597518031692445, 30.144920467244368 ], [ 78.601299537900246, 30.12692017019064 ], [ 78.586929814310608, 30.122183249913345 ], [ 78.58806426617295, 30.107972489081455 ], [ 78.57898865127423, 30.103867158174467 ], [ 78.592223923001526, 30.08713003986135 ], [ 78.582392006861255, 30.072287689659156 ], [ 78.602055839141798, 30.068182358752168 ], [ 78.591089471139185, 30.066287590641249 ], [ 78.58806426617295, 30.05334000854997 ], [ 78.532476124918318, 30.07576143119584 ], [ 78.511299690154658, 30.054918981975735 ], [ 78.497308117185796, 30.075445636510686 ], [ 78.479913188629936, 30.056182160716347 ], [ 78.476887983663687, 30.066919180011553 ], [ 78.434913264757142, 30.080498351473135 ], [ 78.438694770964929, 30.111130435932985 ], [ 78.425459499237647, 30.113025204043904 ], [ 78.409955323785667, 30.135446626689774 ], [ 78.40617381757788, 30.135446626689774 ], [ 78.401636010128513, 30.135446626689774 ], [ 78.391804093988242, 30.135446626689774 ], [ 78.391425943367466, 30.128499143616406 ], [ 78.374787316053158, 30.117446329636049 ], [ 78.374031014811592, 30.117130534950896 ], [ 78.374031014811592, 30.116814740265742 ], [ 78.333568898388151, 30.134183447949162 ], [ 78.332812597146599, 30.134499242634316 ], [ 78.309745409279031, 30.119972687117272 ], [ 78.309367258658256, 30.117446329636049 ], [ 78.302560547484205, 30.1123936146736 ], [ 78.301426095621878, 30.111446230618139 ], [ 78.254535418645176, 30.13828877885615 ], [ 78.261342129819212, 30.161025996187174 ], [ 78.24167829753867, 30.16576291646447 ], [ 78.234115285123067, 30.185026392258809 ], [ 78.233737134502292, 30.185657981629117 ], [ 78.23903124319321, 30.189447517850951 ], [ 78.291594179481592, 30.229553442865395 ], [ 78.293863083206276, 30.231448210976314 ], [ 78.298779041276418, 30.245658971808204 ], [ 78.276846305271192, 30.271869930675908 ], [ 78.27835890775431, 30.295870326747544 ], [ 78.268148840993248, 30.302186220450608 ], [ 78.258316924852977, 30.285449102137491 ], [ 78.236762339468527, 30.287659664933564 ], [ 78.237140490089303, 30.299344068284228 ], [ 78.214451452842525, 30.309449498209126 ], [ 78.209157344151606, 30.293343969266321 ], [ 78.200081729252886, 30.293975558636625 ], [ 78.142602834894362, 30.325555027151935 ], [ 78.133527219995642, 30.343871118890814 ], [ 78.161888516554129, 30.382398070479493 ], [ 78.223148917120454, 30.40576687718082 ], [ 78.238653092572434, 30.423767174234545 ], [ 78.197812825528217, 30.446820186250722 ], [ 78.164157420278812, 30.445872802195261 ], [ 78.105544074057946, 30.478399654766029 ], [ 78.082098735569602, 30.467346840785673 ], [ 78.039367715421477, 30.482189190987867 ], [ 78.036720661076018, 30.465452072674754 ], [ 78.008737515138321, 30.483768164413632 ], [ 77.997771147135708, 30.479978628191795 ], [ 78.000040050860378, 30.468610019526285 ], [ 77.987561080374647, 30.467031046100519 ], [ 77.973191356785023, 30.486294521894859 ], [ 77.938401499673276, 30.504610613633737 ], [ 77.9380233490525, 30.504926408318891 ], [ 77.9380233490525, 30.505242203004045 ], [ 77.949367867675889, 30.517873990410166 ], [ 77.96827539871488, 30.509347533911033 ], [ 77.987939230995437, 30.51503183824379 ], [ 77.975460260509692, 30.522295116002311 ], [ 77.986048477891529, 30.525768857538996 ], [ 77.97470395926814, 30.537769055574813 ], [ 77.983023272925294, 30.539348029000578 ], [ 77.980376218579835, 30.55513776325823 ], [ 78.003065255826627, 30.565558987868283 ], [ 78.004577858309744, 30.568401140034663 ], [ 78.012519021346122, 30.616717726863083 ], [ 78.012897171966898, 30.616401932177933 ] ] ] } },
{ "type": "Feature", "properties": { "dt_code": "058", "district": "Rudraprayag", "st_code": "05", "year": "2011_c", "st_nm": "Uttarakhand" }, "geometry": { "type": "Polygon", "coordinates": [ [ [ 79.033147546830762, 30.809668279491625 ], [ 79.067937403942494, 30.798299670826111 ], [ 79.091760893051628, 30.775878248180241 ], [ 79.126928900784151, 30.769246559792027 ], [ 79.142811226856892, 30.747456726516464 ], [ 79.169281770311486, 30.755983183015598 ], [ 79.199533819973865, 30.73293017099942 ], [ 79.244533743846659, 30.734509144425189 ], [ 79.255878262470048, 30.722824741074522 ], [ 79.274785793509039, 30.724403714500287 ], [ 79.288399215857112, 30.720614178278453 ], [ 79.29634037889349, 30.718719410167534 ], [ 79.303903391309092, 30.678297690467936 ], [ 79.34814701394032, 30.650191963489313 ], [ 79.352306670768897, 30.640402328249564 ], [ 79.348903315181886, 30.617033521548237 ], [ 79.341340302766284, 30.602191171346043 ], [ 79.335289892833813, 30.595875277642982 ], [ 79.308441198758445, 30.589559383939918 ], [ 79.306928596275327, 30.589559383939918 ], [ 79.306928596275327, 30.589243589254764 ], [ 79.295205927031148, 30.561137862276141 ], [ 79.265332027989544, 30.566822166608898 ], [ 79.245668195709001, 30.558927299480068 ], [ 79.245290045088225, 30.537769055574813 ], [ 79.229029568394694, 30.527032036279607 ], [ 79.221844706599867, 30.490399852801847 ], [ 79.191592656937488, 30.477136476025418 ], [ 79.166634715966026, 30.446188596880415 ], [ 79.174575879002404, 30.428504094511844 ], [ 79.162475059137449, 30.385556017331023 ], [ 79.110290273469829, 30.381134891738878 ], [ 79.159449854171214, 30.328081384633158 ], [ 79.14432382934001, 30.300923041709993 ], [ 79.170416222173827, 30.29555453206239 ], [ 79.137138967545198, 30.285449102137491 ], [ 79.106886917882818, 30.288922843674175 ], [ 79.103483562295793, 30.256080196418253 ], [ 79.075878566978872, 30.221342781051415 ], [ 79.076256717599648, 30.221026986366262 ], [ 79.075878566978872, 30.220395396995954 ], [ 79.038819806142456, 30.216290066088966 ], [ 79.022181178828149, 30.189131723165801 ], [ 79.003273647789158, 30.182184240092433 ], [ 78.982475363646273, 30.179026293240902 ], [ 78.898904076453931, 30.17997367729636 ], [ 78.902307432040956, 30.209658377700752 ], [ 78.914786402526687, 30.204289868053149 ], [ 78.915164553147463, 30.230185032235703 ], [ 78.890962913417553, 30.235869336568456 ], [ 78.890962913417553, 30.23618513125361 ], [ 78.899282227074721, 30.244395793067589 ], [ 78.90155113079939, 30.242816819641824 ], [ 78.920080511217606, 30.261448706065856 ], [ 78.917811607492922, 30.262080295436164 ], [ 78.873567984861694, 30.275659466897746 ], [ 78.858441960030504, 30.302186220450608 ], [ 78.869030177412327, 30.322081285615251 ], [ 78.855038604443479, 30.332818304910457 ], [ 78.858063809409714, 30.347029065742344 ], [ 78.834996621542146, 30.357450290352396 ], [ 78.834996621542146, 30.39155611634893 ], [ 78.816845391744721, 30.401029956903525 ], [ 78.844072236440866, 30.430083067937609 ], [ 78.850500796994126, 30.456294026805313 ], [ 78.823652102918757, 30.478399654766029 ], [ 78.866383123066868, 30.509031739225879 ], [ 78.862979767479857, 30.566822166608898 ], [ 78.88907216031366, 30.586085642403233 ], [ 78.8864251059682, 30.603454350086654 ], [ 78.909492293835768, 30.629665308954362 ], [ 78.91062674569811, 30.690613683188907 ], [ 78.923862017425407, 30.714298284575388 ], [ 78.960164477020257, 30.734824939110339 ], [ 78.991929129165769, 30.731666992258809 ], [ 79.000248442822922, 30.74903569994223 ], [ 79.018399672620347, 30.749667289312537 ], [ 79.028231588760619, 30.767667586366262 ], [ 79.02596268503595, 30.797668081455804 ], [ 79.035416450555431, 30.806194537954937 ], [ 79.033147546830762, 30.809668279491625 ] ] ] } },
{ "type": "Feature", "properties": { "dt_code": "062", "district": "Pithoragarh", "st_code": "05", "year": "2011_c", "st_nm": "Uttarakhand" }, "geometry": { "type": "Polygon", "coordinates": [ [ [ 79.987221563058156, 30.318607544078567 ], [ 79.9959190273361, 30.335028867706527 ], [ 79.997431629819218, 30.365660952166376 ], [ 80.037893746242645, 30.407030055921432 ], [ 80.029952583206281, 30.413345949624492 ], [ 80.037515595621869, 30.443978034084346 ], [ 80.020120667065996, 30.449030749046795 ], [ 80.008776148442607, 30.469241608896592 ], [ 80.020120667065996, 30.48124180693241 ], [ 79.995162726094534, 30.536821671519352 ], [ 80.012557654650408, 30.575664417793181 ], [ 80.042809704312788, 30.598401635124205 ], [ 80.029952583206281, 30.615138753437318 ], [ 80.033355938793292, 30.635981202657423 ], [ 79.98306190622958, 30.689350504448296 ], [ 79.979658550642569, 30.709245569612939 ], [ 80.025792926377704, 30.734509144425189 ], [ 80.099532297429761, 30.728193250722125 ], [ 80.10180120115443, 30.727877456036971 ], [ 80.093481887497276, 30.747140931831311 ], [ 80.085540724460898, 30.772404506643557 ], [ 80.10180120115443, 30.788194240901213 ], [ 80.118439828468752, 30.779983579087233 ], [ 80.151717083097367, 30.78914162495667 ], [ 80.155498589305168, 30.804931359214326 ], [ 80.172893517861041, 30.80840510075101 ], [ 80.19936406131562, 30.779036195031772 ], [ 80.197851458832503, 30.761667487348355 ], [ 80.212977483663693, 30.751246262738302 ], [ 80.234910219668919, 30.759772719237436 ], [ 80.249279943258557, 30.744298779664934 ], [ 80.248901792637767, 30.719982588908145 ], [ 80.233397617185801, 30.709245569612939 ], [ 80.232641315944235, 30.691245272559215 ], [ 80.198229609453278, 30.686508352281919 ], [ 80.19331365138315, 30.667560671172733 ], [ 80.219784194837729, 30.642612891045637 ], [ 80.212599333042917, 30.584190874292315 ], [ 80.235288370289695, 30.581348722125938 ], [ 80.254574051949476, 30.564611603812825 ], [ 80.315456301895011, 30.564927398497979 ], [ 80.346842803419733, 30.520716142576546 ], [ 80.365750334458724, 30.528295215020218 ], [ 80.385792317360057, 30.51818978509532 ], [ 80.41793512012633, 30.524505678798381 ], [ 80.444783814201699, 30.497347335875215 ], [ 80.498481202352437, 30.487241905950317 ], [ 80.540834071879772, 30.448399159676487 ], [ 80.607388581137016, 30.471767966377815 ], [ 80.613060840448711, 30.458504589601386 ], [ 80.624027208451324, 30.462609920508378 ], [ 80.689825416467002, 30.414293333679954 ], [ 80.708354796885217, 30.417451280531484 ], [ 80.73444718971902, 30.39976677816291 ], [ 80.786631975386626, 30.353976548815712 ], [ 80.803648753321724, 30.323660259041016 ], [ 80.863774702025708, 30.314186418486422 ], [ 80.884572986168592, 30.299659862969381 ], [ 80.908396475277726, 30.303765193876373 ], [ 80.935623319973857, 30.263027679491621 ], [ 80.999530774885642, 30.267448805083767 ], [ 81.032051728272705, 30.246922150548816 ], [ 81.026757619581787, 30.227342880069322 ], [ 81.045287, 30.209658377700752 ], [ 81.028648372685694, 30.195447616868861 ], [ 80.994614816815513, 30.186289570999421 ], [ 80.974194683293405, 30.192605464702485 ], [ 80.928438458179045, 30.174920962333911 ], [ 80.91633763831409, 30.187868544425186 ], [ 80.919740993901115, 30.215658476718659 ], [ 80.907262023415385, 30.222605959792027 ], [ 80.86226209954259, 30.169552452686307 ], [ 80.87700997375299, 30.128499143616406 ], [ 80.842976417882809, 30.115235766839977 ], [ 80.836547857329563, 30.09818285384171 ], [ 80.815371422565889, 30.096919675101098 ], [ 80.761674034415165, 30.049866267013286 ], [ 80.743900955238516, 30.004391832351242 ], [ 80.71894301426704, 30.000602296129404 ], [ 80.675455692877364, 29.95733842426343 ], [ 80.629321317142242, 29.963970112651644 ], [ 80.602094472446097, 29.95702262957828 ], [ 80.572598724025269, 29.917548293934143 ], [ 80.553691192986278, 29.849336641941075 ], [ 80.507178666630367, 29.82249409370306 ], [ 80.493565244282294, 29.794704161409591 ], [ 80.435330048682204, 29.804809591334489 ], [ 80.407346902744507, 29.794388366724437 ], [ 80.397893137225012, 29.759019361987292 ], [ 80.3661284850795, 29.74070327024841 ], [ 80.39033012480941, 29.66712310860774 ], [ 80.416044367022437, 29.652280758405546 ], [ 80.420582174471789, 29.629543541074522 ], [ 80.406212450882165, 29.613122217446563 ], [ 80.408481354606835, 29.596069304448296 ], [ 80.379363756806796, 29.561331889081455 ], [ 80.34495205031584, 29.552173843212017 ], [ 80.341548694728814, 29.541121029231658 ], [ 80.357809171422346, 29.531331393991913 ], [ 80.341926845349604, 29.510804739456962 ], [ 80.315078151274236, 29.500067720161756 ], [ 80.312431096928776, 29.483014807163489 ], [ 80.297305072097586, 29.488067522125938 ], [ 80.285582402853407, 29.475435734719813 ], [ 80.300330277063821, 29.45048795459272 ], [ 80.27537233609236, 29.457119642980935 ], [ 80.271968980505335, 29.448593186481801 ], [ 80.242851382705297, 29.443540471519352 ], [ 80.183481735242864, 29.457435437666089 ], [ 80.161170848616862, 29.474804145349509 ], [ 80.149826329993473, 29.471330403812825 ], [ 80.12600284088434, 29.499436130791448 ], [ 80.10822976170769, 29.52091016938186 ], [ 80.106339008603797, 29.522173348122472 ], [ 80.098019694946643, 29.522173348122472 ], [ 80.076465109562193, 29.521857553437318 ], [ 80.074952507079075, 29.521857553437318 ], [ 80.074196205837509, 29.523120732177933 ], [ 80.067011344042697, 29.53733149300982 ], [ 79.999322382923111, 29.55975291565569 ], [ 79.988734165541274, 29.613753806816867 ], [ 79.95886026649967, 29.656701883997687 ], [ 79.958103965258118, 29.66996526077412 ], [ 79.952053555325634, 29.68133386943963 ], [ 79.944490542910046, 29.686070789716926 ], [ 79.909700685798299, 29.701228934604273 ], [ 79.88928055227619, 29.704071086770654 ], [ 79.890036853517756, 29.709439596418257 ], [ 79.890415004138532, 29.712281748584633 ], [ 79.890793154759308, 29.715439695436164 ], [ 79.868482268133306, 29.738808502137491 ], [ 79.832557959159232, 29.750177110803005 ], [ 79.820835289915053, 29.773230122819179 ], [ 79.823104193639736, 29.778282837781628 ], [ 79.824238645502078, 29.781124989948008 ], [ 79.824616796122854, 29.781756579318312 ], [ 79.869994870616424, 29.767545818486425 ], [ 79.90440657710738, 29.798493697631425 ], [ 79.909322535177523, 29.789335651761988 ], [ 79.931255271182749, 29.789967241132292 ], [ 79.931633421803525, 29.766598434430964 ], [ 79.987599713678947, 29.764703666320045 ], [ 80.000456834785453, 29.770072175967648 ], [ 80.003482039751688, 29.777967043096474 ], [ 80.037515595621869, 29.787440883651069 ], [ 80.032977788172516, 29.805756975389947 ], [ 80.032599637551741, 29.806388564760255 ], [ 80.018986215203668, 29.810809690352396 ], [ 80.01974251644522, 29.828809987406125 ], [ 79.993650123611417, 29.845231311034084 ], [ 79.977011496297109, 29.8417575694974 ], [ 79.978145948159451, 29.852494588792606 ], [ 80.006507244717923, 29.851231410051994 ], [ 80.012935805271184, 29.887547798844597 ], [ 80.053397921694625, 29.902705943731945 ], [ 80.085540724460898, 29.886916209474293 ], [ 80.107473460466139, 29.906495479953783 ], [ 80.148691878131132, 29.89796902345465 ], [ 80.158523794271403, 29.904600711842864 ], [ 80.13848181137007, 29.941548690005778 ], [ 80.090834833151817, 29.969022827614097 ], [ 80.067389494663473, 30.018918387868283 ], [ 80.084784423219347, 30.062498054419411 ], [ 80.082515519494663, 30.111762025303292 ], [ 80.104070104879114, 30.148394208781053 ], [ 80.116170924744068, 30.226711290699019 ], [ 80.077599561424535, 30.237764104679375 ], [ 80.073061753975168, 30.263027679491621 ], [ 80.060582783489437, 30.270922546620451 ], [ 80.067767645284249, 30.281343771230503 ], [ 80.041675252450446, 30.291449201155402 ], [ 80.025036625136138, 30.313870623801272 ], [ 79.996675328577652, 30.315765391912191 ], [ 79.986843412437381, 30.316396981282494 ], [ 79.987221563058156, 30.318607544078567 ] ] ] } },
{ "type": "Feature", "properties": { "dt_code": "063", "district": "Bageshwar", "st_code": "05", "year": "2011_c", "st_nm": "Uttarakhand" }, "geometry": { "type": "Polygon", "coordinates": [ [ [ 79.471802266935313, 29.979444052224146 ], [ 79.484281237421044, 30.023339513460428 ], [ 79.547810541712053, 29.995865375852109 ], [ 79.610205394140706, 30.020181566608898 ], [ 79.720625375408417, 30.001549680184866 ], [ 79.778104269766942, 30.005970805777007 ], [ 79.812894126878675, 30.02270792409012 ], [ 79.8162974824657, 30.047655704217213 ], [ 79.829154603572206, 30.059024312882727 ], [ 79.811003373774781, 30.076393020566147 ], [ 79.788692487148779, 30.080498351473135 ], [ 79.777347968525376, 30.097867059156556 ], [ 79.781885775974729, 30.113025204043904 ], [ 79.762978244935752, 30.133236063893701 ], [ 79.782263926595519, 30.152499539688041 ], [ 79.782642077216295, 30.180921061351818 ], [ 79.801549608255286, 30.212816324552282 ], [ 79.821969741777394, 30.226711290699019 ], [ 79.80079330701372, 30.281027976545349 ], [ 79.844280628403396, 30.288291254303871 ], [ 79.873398226203449, 30.271238341305605 ], [ 79.931633421803525, 30.29839668422877 ], [ 79.955078760291883, 30.29018602241479 ], [ 79.959994718362012, 30.292080790525706 ], [ 79.964910676432154, 30.293975558636625 ], [ 79.977011496297109, 30.299028273599074 ], [ 79.979658550642569, 30.304396783246677 ], [ 79.987221563058156, 30.318607544078567 ], [ 79.986843412437381, 30.316396981282494 ], [ 79.996675328577652, 30.315765391912191 ], [ 80.025036625136138, 30.313870623801272 ], [ 80.041675252450446, 30.291449201155402 ], [ 80.067767645284249, 30.281343771230503 ], [ 80.060582783489437, 30.270922546620451 ], [ 80.073061753975168, 30.263027679491621 ], [ 80.077599561424535, 30.237764104679375 ], [ 80.116170924744068, 30.226711290699019 ], [ 80.104070104879114, 30.148394208781053 ], [ 80.082515519494663, 30.111762025303292 ], [ 80.084784423219347, 30.062498054419411 ], [ 80.067389494663473, 30.018918387868283 ], [ 80.090834833151817, 29.969022827614097 ], [ 80.13848181137007, 29.941548690005778 ], [ 80.158523794271403, 29.904600711842864 ], [ 80.148691878131132, 29.89796902345465 ], [ 80.107473460466139, 29.906495479953783 ], [ 80.085540724460898, 29.886916209474293 ], [ 80.053397921694625, 29.902705943731945 ], [ 80.012935805271184, 29.887547798844597 ], [ 80.006507244717923, 29.851231410051994 ], [ 79.978145948159451, 29.852494588792606 ], [ 79.977011496297109, 29.8417575694974 ], [ 79.993650123611417, 29.845231311034084 ], [ 80.01974251644522, 29.828809987406125 ], [ 80.018986215203668, 29.810809690352396 ], [ 80.032599637551741, 29.806388564760255 ], [ 80.032977788172516, 29.805756975389947 ], [ 80.037515595621869, 29.787440883651069 ], [ 80.003482039751688, 29.777967043096474 ], [ 80.000456834785453, 29.770072175967648 ], [ 79.987599713678947, 29.764703666320045 ], [ 79.931633421803525, 29.766598434430964 ], [ 79.931255271182749, 29.789967241132292 ], [ 79.909322535177523, 29.789335651761988 ], [ 79.90440657710738, 29.798493697631425 ], [ 79.869994870616424, 29.767545818486425 ], [ 79.824616796122854, 29.781756579318312 ], [ 79.824238645502078, 29.781124989948008 ], [ 79.823104193639736, 29.778282837781628 ], [ 79.820835289915053, 29.773230122819179 ], [ 79.832557959159232, 29.750177110803005 ], [ 79.868482268133306, 29.738808502137491 ], [ 79.890793154759308, 29.715439695436164 ], [ 79.890415004138532, 29.712281748584633 ], [ 79.882473841102154, 29.712913337954937 ], [ 79.876423431169684, 29.715439695436164 ], [ 79.804574813221521, 29.716071284806471 ], [ 79.758440437486385, 29.700913139919123 ], [ 79.696423735678508, 29.765651050375507 ], [ 79.70360859747332, 29.797230518890814 ], [ 79.688860723262906, 29.810493895667243 ], [ 79.707768254301897, 29.825967835239744 ], [ 79.670331342844705, 29.843336542923165 ], [ 79.640835594423876, 29.840810185441942 ], [ 79.635163335112182, 29.849652436626226 ], [ 79.610583544761496, 29.841125980127092 ], [ 79.575037386408198, 29.863863197458116 ], [ 79.559911361577008, 29.859442071865974 ], [ 79.507726575909388, 29.873652832697861 ], [ 79.494113153561315, 29.896390050028884 ], [ 79.487306442387279, 29.953864682726746 ], [ 79.485793839904161, 29.965864880762563 ], [ 79.48503753866261, 29.973128158521085 ], [ 79.48465938804182, 29.975022926632004 ], [ 79.477852676867784, 29.976286105372616 ], [ 79.471802266935313, 29.979444052224146 ] ] ] } },
{ "type": "Feature", "properties": { "dt_code": "068", "district": "Haridwar", "st_code": "05", "year": "2011_c", "st_nm": "Uttarakhand" }, "geometry": { "type": "Polygon", "coordinates": [ [ [ 77.959956085057726, 30.240922051530905 ], [ 77.955796428229149, 30.230500826920853 ], [ 78.004577858309744, 30.176184141074522 ], [ 78.03558620921369, 30.103551363489313 ], [ 78.069619765083857, 30.075445636510686 ], [ 78.069241614463081, 30.04197139988446 ], [ 78.099115513504685, 30.028076433737724 ], [ 78.09609030853845, 30.01133931542461 ], [ 78.129745713787855, 30.001233885499712 ], [ 78.148653244826846, 29.967759648873482 ], [ 78.1717204326944, 29.963970112651644 ], [ 78.189115361250273, 29.997444349277874 ], [ 78.197812825528217, 29.987970508723279 ], [ 78.18722460814638, 29.962075344540729 ], [ 78.201972482356794, 29.966180675447717 ], [ 78.201972482356794, 29.966180675447717 ], [ 78.249997611195823, 29.929864286655111 ], [ 78.274955552167285, 29.922601008896592 ], [ 78.266636238510131, 29.90428491715771 ], [ 78.315417668590726, 29.862284224032351 ], [ 78.331678145284258, 29.799125287001733 ], [ 78.335459651492059, 29.797546313575968 ], [ 78.335837802112835, 29.796598929520506 ], [ 78.259829527336095, 29.738492707452338 ], [ 78.203863235460688, 29.737229528711726 ], [ 78.19592207242431, 29.69270247810514 ], [ 78.1717204326944, 29.691755094049682 ], [ 78.130502015029407, 29.652596553090699 ], [ 78.081342434328036, 29.635227845407279 ], [ 78.086636543018955, 29.62512241548238 ], [ 78.057518945218916, 29.630806719815137 ], [ 78.048821480940973, 29.614701190872328 ], [ 78.018191280657817, 29.598279867244369 ], [ 78.020460184382486, 29.581542748931252 ], [ 77.995124092790249, 29.595753509763142 ], [ 77.967140946852538, 29.58027957019064 ], [ 77.933107390982357, 29.600490430040438 ], [ 77.948233415813547, 29.616911753668401 ], [ 77.977729164234376, 29.613438012131716 ], [ 77.98340142354607, 29.643754301906412 ], [ 77.983779574166846, 29.64470168596187 ], [ 77.966384645610987, 29.650070195609473 ], [ 77.969788001197998, 29.666491519237436 ], [ 77.939914102156393, 29.696176219641824 ], [ 77.949746018296665, 29.704702676140958 ], [ 77.95314937388369, 29.707544828307338 ], [ 77.948611566434337, 29.708492212362795 ], [ 77.927056981049887, 29.713860722010399 ], [ 77.912687257460249, 29.69586042495667 ], [ 77.882813358418645, 29.702492113344888 ], [ 77.874872195382281, 29.687333968457537 ], [ 77.862771375517326, 29.68954453125361 ], [ 77.83441007895884, 29.671228439514731 ], [ 77.820796656610767, 29.673754796995954 ], [ 77.820418505989991, 29.673754796995954 ], [ 77.798863920605541, 29.686386584402079 ], [ 77.810586589849706, 29.702492113344888 ], [ 77.772393377150948, 29.716702874176775 ], [ 77.782603443912009, 29.736282144656268 ], [ 77.769368172184713, 29.745440190525706 ], [ 77.780334540187326, 29.765019461005199 ], [ 77.774662280875631, 29.791230419872907 ], [ 77.751595093008063, 29.810809690352396 ], [ 77.759158105423666, 29.818704557481226 ], [ 77.740250574384675, 29.834810086424032 ], [ 77.741763176867792, 29.851862999422298 ], [ 77.719074139621, 29.861968429347197 ], [ 77.716048934654765, 29.867021144309646 ], [ 77.715292633413199, 29.879021342345464 ], [ 77.716048934654765, 29.885021441363374 ], [ 77.747813586800262, 29.911232400231079 ], [ 77.730418658244389, 29.931759054766029 ], [ 77.748191737421052, 29.951654119930677 ], [ 77.733443863210638, 29.956075245522818 ], [ 77.761805159769125, 30.009444547313691 ], [ 77.781847142670443, 30.018602593183132 ], [ 77.771258925288606, 30.047971498902367 ], [ 77.80113282433021, 30.095656496360483 ], [ 77.827981518405579, 30.085866861120738 ], [ 77.836678982683509, 30.103551363489313 ], [ 77.860502471792643, 30.113340998729058 ], [ 77.911930956218697, 30.182500034777586 ], [ 77.918737667392733, 30.211237351126517 ], [ 77.959956085057726, 30.240922051530905 ] ] ] } },
{ "type": "Feature", "properties": { "dt_code": "061", "district": "Pauri Garhwal", "st_code": "05", "year": "2011_c", "st_nm": "Uttarakhand" }, "geometry": { "type": "Polygon", "coordinates": [ [ [ 79.076256717599648, 30.221026986366262 ], [ 79.101214658571124, 30.211237351126517 ], [ 79.097433152363323, 30.196710795609473 ], [ 79.139407871269881, 30.162604969612939 ], [ 79.137895268786764, 30.151552155632583 ], [ 79.134491913199739, 30.118393713691507 ], [ 79.151130540514046, 30.112077819988446 ], [ 79.160206155412766, 30.09313013887926 ], [ 79.192348958179053, 30.084603682380127 ], [ 79.193105259420605, 30.084287887694973 ], [ 79.202937175560876, 30.063129643789715 ], [ 79.189323753212804, 30.037866068977468 ], [ 79.188945602592028, 30.037234479607164 ], [ 79.217685049771291, 30.02270792409012 ], [ 79.224869911566117, 29.978180873483534 ], [ 79.230164020257021, 29.975654516002312 ], [ 79.229785869636245, 29.966812264818024 ], [ 79.232054773360929, 29.963022728596187 ], [ 79.229029568394694, 29.953233093356442 ], [ 79.227138815290786, 29.946917199653377 ], [ 79.22676066467001, 29.945338226227612 ], [ 79.192348958179053, 29.944390842172155 ], [ 79.176844782727073, 29.907758658694394 ], [ 79.158693552929648, 29.915653525823224 ], [ 79.09894575484644, 29.893547897862508 ], [ 79.084576031256816, 29.888179388214905 ], [ 79.069071855804836, 29.866389554939342 ], [ 79.067937403942494, 29.863863197458116 ], [ 79.067181102700943, 29.862600018717504 ], [ 79.103483562295793, 29.837336443905258 ], [ 79.110290273469829, 29.832599523627959 ], [ 79.116340683402314, 29.815862405314846 ], [ 79.124281846438691, 29.792809393298672 ], [ 79.126928900784151, 29.784598731484692 ], [ 79.126550750163361, 29.783651347429231 ], [ 79.12314739457635, 29.777967043096474 ], [ 79.120122189610115, 29.772598533448871 ], [ 79.117853285885431, 29.772914328134025 ], [ 79.109155821607501, 29.775124890930098 ], [ 79.108399520365936, 29.738808502137491 ], [ 79.12050034023089, 29.718913436972848 ], [ 79.121256641472456, 29.71828184760254 ], [ 79.120878490851666, 29.71796605291739 ], [ 79.104618014158135, 29.699018371808204 ], [ 79.116340683402314, 29.682912842865395 ], [ 79.107265068503594, 29.664280956441363 ], [ 79.1053743153997, 29.660491420219525 ], [ 79.104239863537359, 29.663017777700752 ], [ 79.098189453604888, 29.673754796995954 ], [ 79.096676851121757, 29.672491618255343 ], [ 79.094029796776312, 29.66996526077412 ], [ 79.083063428773684, 29.651333374350088 ], [ 79.080416374428239, 29.643122712536105 ], [ 79.094407947397087, 29.627648772963603 ], [ 79.080794525049015, 29.615964369612939 ], [ 79.067181102700943, 29.620701289890235 ], [ 79.060752542147682, 29.588174437319466 ], [ 79.008945907100852, 29.585963874523397 ], [ 78.998357689719015, 29.562279273136916 ], [ 79.006298852755393, 29.554384406008086 ], [ 78.969996393160528, 29.536384108954362 ], [ 78.952223313983879, 29.4586986164067 ], [ 78.926130921150076, 29.438171961871749 ], [ 78.920836812459157, 29.434382425649915 ], [ 78.799828613809638, 29.46469871542461 ], [ 78.744996773796558, 29.500699309532063 ], [ 78.710963217926377, 29.500383514846909 ], [ 78.704534657373131, 29.505436229809359 ], [ 78.700375000544554, 29.505752024494512 ], [ 78.627013780113273, 29.555015995378394 ], [ 78.616803713352212, 29.558805531600232 ], [ 78.605837345349599, 29.569226756210284 ], [ 78.534745028643002, 29.636806818833044 ], [ 78.532854275539108, 29.638701586943963 ], [ 78.521509756915705, 29.657965062738302 ], [ 78.513190443258551, 29.723018767879839 ], [ 78.511299690154658, 29.724913535990755 ], [ 78.372140261707699, 29.78238816868862 ], [ 78.335459651492059, 29.797546313575968 ], [ 78.331678145284258, 29.799125287001733 ], [ 78.315417668590726, 29.862284224032351 ], [ 78.266636238510131, 29.90428491715771 ], [ 78.274955552167285, 29.922601008896592 ], [ 78.249997611195823, 29.929864286655111 ], [ 78.201972482356794, 29.966180675447717 ], [ 78.201972482356794, 29.966180675447717 ], [ 78.231468230777608, 29.992707429000578 ], [ 78.227308573949031, 30.015760441016752 ], [ 78.245081653125681, 30.017655209127671 ], [ 78.247350556850364, 30.03407653275563 ], [ 78.281005962099769, 30.060919080993646 ], [ 78.291216028860816, 30.100077621952629 ], [ 78.307476505554348, 30.107025105025997 ], [ 78.307854656175124, 30.10955146250722 ], [ 78.302560547484205, 30.1123936146736 ], [ 78.309367258658256, 30.117446329636049 ], [ 78.309745409279031, 30.119972687117272 ], [ 78.332812597146599, 30.134499242634316 ], [ 78.333568898388151, 30.134183447949162 ], [ 78.374031014811592, 30.116814740265742 ], [ 78.374031014811592, 30.117130534950896 ], [ 78.374787316053158, 30.117446329636049 ], [ 78.391425943367466, 30.128499143616406 ], [ 78.391804093988242, 30.135446626689774 ], [ 78.401636010128513, 30.135446626689774 ], [ 78.40617381757788, 30.135446626689774 ], [ 78.409955323785667, 30.135446626689774 ], [ 78.425459499237647, 30.113025204043904 ], [ 78.438694770964929, 30.111130435932985 ], [ 78.434913264757142, 30.080498351473135 ], [ 78.476887983663687, 30.066919180011553 ], [ 78.479913188629936, 30.056182160716347 ], [ 78.497308117185796, 30.075445636510686 ], [ 78.511299690154658, 30.054918981975735 ], [ 78.532476124918318, 30.07576143119584 ], [ 78.58806426617295, 30.05334000854997 ], [ 78.591089471139185, 30.066287590641249 ], [ 78.602055839141798, 30.068182358752168 ], [ 78.582392006861255, 30.072287689659156 ], [ 78.592223923001526, 30.08713003986135 ], [ 78.57898865127423, 30.103867158174467 ], [ 78.58806426617295, 30.107972489081455 ], [ 78.586929814310608, 30.122183249913345 ], [ 78.601299537900246, 30.12692017019064 ], [ 78.597518031692445, 30.144920467244368 ], [ 78.617181863972988, 30.150920566262275 ], [ 78.620585219560013, 30.178394703870595 ], [ 78.644786859289923, 30.194500232813404 ], [ 78.647055763014592, 30.207447814904679 ], [ 78.680333017643221, 30.210289967071056 ], [ 78.68298007198868, 30.238711488734836 ], [ 78.716257326617296, 30.236816720623917 ], [ 78.748400129383583, 30.213132119237436 ], [ 78.787349643323893, 30.228606058809937 ], [ 78.806635324983674, 30.21976380762565 ], [ 78.826677307884992, 30.243448409012132 ], [ 78.844450387061642, 30.236500925938763 ], [ 78.847475592027891, 30.246606355863662 ], [ 78.855794905685045, 30.244395793067589 ], [ 78.878105792311047, 30.260185527325245 ], [ 78.879240244173388, 30.259553937954941 ], [ 78.88037469603573, 30.260185527325245 ], [ 78.897391473970814, 30.251027481455804 ], [ 78.895878871487696, 30.246922150548816 ], [ 78.899282227074721, 30.244395793067589 ], [ 78.890962913417553, 30.23618513125361 ], [ 78.890962913417553, 30.235869336568456 ], [ 78.915164553147463, 30.230185032235703 ], [ 78.914786402526687, 30.204289868053149 ], [ 78.902307432040956, 30.209658377700752 ], [ 78.898904076453931, 30.17997367729636 ], [ 78.982475363646273, 30.179026293240902 ], [ 79.003273647789158, 30.182184240092433 ], [ 79.022181178828149, 30.189131723165801 ], [ 79.038819806142456, 30.216290066088966 ], [ 79.075878566978872, 30.220395396995954 ], [ 79.076256717599648, 30.221026986366262 ] ] ] } },
{ "type": "Feature", "properties": { "dt_code": "064", "district": "Almora", "st_code": "05", "year": "2011_c", "st_nm": "Uttarakhand" }, "geometry": { "type": "Polygon", "coordinates": [ [ [ 79.230164020257021, 29.975654516002312 ], [ 79.238105183293399, 29.972180774465627 ], [ 79.284617709649311, 29.951654119930677 ], [ 79.282348805924642, 29.925758955748123 ], [ 79.325079826072752, 29.929232697284807 ], [ 79.335289892833813, 29.943127663431543 ], [ 79.325079826072752, 29.972812363835931 ], [ 79.3390713990416, 29.972812363835931 ], [ 79.373861256153347, 29.927022134488734 ], [ 79.404869607057293, 29.942496074061236 ], [ 79.424533439337836, 29.93460120693241 ], [ 79.469911513831406, 29.977865078798381 ], [ 79.471802266935313, 29.979444052224146 ], [ 79.477852676867784, 29.976286105372616 ], [ 79.48465938804182, 29.975022926632004 ], [ 79.48503753866261, 29.973128158521085 ], [ 79.485793839904161, 29.965864880762563 ], [ 79.487306442387279, 29.953864682726746 ], [ 79.494113153561315, 29.896390050028884 ], [ 79.507726575909388, 29.873652832697861 ], [ 79.559911361577008, 29.859442071865974 ], [ 79.575037386408198, 29.863863197458116 ], [ 79.610583544761496, 29.841125980127092 ], [ 79.635163335112182, 29.849652436626226 ], [ 79.640835594423876, 29.840810185441942 ], [ 79.670331342844705, 29.843336542923165 ], [ 79.707768254301897, 29.825967835239744 ], [ 79.688860723262906, 29.810493895667243 ], [ 79.70360859747332, 29.797230518890814 ], [ 79.696423735678508, 29.765651050375507 ], [ 79.758440437486385, 29.700913139919123 ], [ 79.804574813221521, 29.716071284806471 ], [ 79.876423431169684, 29.715439695436164 ], [ 79.882473841102154, 29.712913337954937 ], [ 79.890415004138532, 29.712281748584633 ], [ 79.890036853517756, 29.709439596418257 ], [ 79.88928055227619, 29.704071086770654 ], [ 79.909700685798299, 29.701228934604273 ], [ 79.944490542910046, 29.686070789716926 ], [ 79.952053555325634, 29.68133386943963 ], [ 79.958103965258118, 29.66996526077412 ], [ 79.95886026649967, 29.656701883997687 ], [ 79.988734165541274, 29.613753806816867 ], [ 79.999322382923111, 29.55975291565569 ], [ 80.067011344042697, 29.53733149300982 ], [ 80.074196205837509, 29.523120732177933 ], [ 80.074952507079075, 29.521857553437318 ], [ 80.076465109562193, 29.521857553437318 ], [ 80.07797771204531, 29.52091016938186 ], [ 80.061339084731003, 29.5145942756788 ], [ 80.025036625136138, 29.500383514846909 ], [ 79.956969513395777, 29.474172555979202 ], [ 79.961129170224353, 29.494383415828999 ], [ 79.953188007187975, 29.499436130791448 ], [ 79.946003145393163, 29.477014708145582 ], [ 79.927095614354172, 29.472593582553436 ], [ 79.909700685798299, 29.489962290236857 ], [ 79.887011648551521, 29.483646396533796 ], [ 79.86167555695927, 29.448908981166955 ], [ 79.850709188956657, 29.452382722703639 ], [ 79.848440285231973, 29.432171862853842 ], [ 79.831801657917666, 29.426487558521085 ], [ 79.829154603572206, 29.425540174465628 ], [ 79.778104269766942, 29.451435338648182 ], [ 79.763734546177304, 29.433435041594453 ], [ 79.735751400239607, 29.431540273483535 ], [ 79.726675785340888, 29.446698418370882 ], [ 79.7338606471357, 29.46154076857308 ], [ 79.71003715802658, 29.459646000462161 ], [ 79.689617024504471, 29.473856761294048 ], [ 79.6797851083642, 29.527226063084921 ], [ 79.648020456218688, 29.547752717619872 ], [ 79.632138130145947, 29.542384207972269 ], [ 79.621171762143334, 29.555963379433852 ], [ 79.572012181441949, 29.539542055805892 ], [ 79.550457596057512, 29.54048943986135 ], [ 79.549701294815947, 29.551226459156556 ], [ 79.527390408189945, 29.549015896360483 ], [ 79.516802190808107, 29.512067918197573 ], [ 79.501298015356141, 29.496909773310225 ], [ 79.48201233369636, 29.496593978625071 ], [ 79.380289816706608, 29.588174437319466 ], [ 79.350037767044213, 29.594174536337377 ], [ 79.348525164561096, 29.606806323743502 ], [ 79.336046194075365, 29.611859038705951 ], [ 79.335668043454589, 29.611543244020798 ], [ 79.28726476399477, 29.590069205430385 ], [ 79.286508462753218, 29.578384802079722 ], [ 79.219197652254408, 29.523120732177933 ], [ 79.151508691134836, 29.538910466435585 ], [ 79.146970883685469, 29.539857850491046 ], [ 79.140920473752999, 29.552805432582321 ], [ 79.108777670986711, 29.544278976083188 ], [ 79.109912122849053, 29.558489736915078 ], [ 79.077013018841214, 29.582174338301559 ], [ 79.036929053038563, 29.584700695782786 ], [ 79.060752542147682, 29.588174437319466 ], [ 79.067181102700943, 29.620701289890235 ], [ 79.080794525049015, 29.615964369612939 ], [ 79.094407947397087, 29.627648772963603 ], [ 79.080416374428239, 29.643122712536105 ], [ 79.083063428773684, 29.651333374350088 ], [ 79.094029796776312, 29.66996526077412 ], [ 79.096676851121757, 29.672491618255343 ], [ 79.098189453604888, 29.673754796995954 ], [ 79.104239863537359, 29.663017777700752 ], [ 79.1053743153997, 29.660491420219525 ], [ 79.107265068503594, 29.664280956441363 ], [ 79.116340683402314, 29.682912842865395 ], [ 79.104618014158135, 29.699018371808204 ], [ 79.120878490851666, 29.71796605291739 ], [ 79.121256641472456, 29.71828184760254 ], [ 79.12050034023089, 29.718913436972848 ], [ 79.108399520365936, 29.738808502137491 ], [ 79.109155821607501, 29.775124890930098 ], [ 79.117853285885431, 29.772914328134025 ], [ 79.120122189610115, 29.772598533448871 ], [ 79.12314739457635, 29.777967043096474 ], [ 79.126550750163361, 29.783651347429231 ], [ 79.126928900784151, 29.784598731484692 ], [ 79.124281846438691, 29.792809393298672 ], [ 79.116340683402314, 29.815862405314846 ], [ 79.110290273469829, 29.832599523627959 ], [ 79.103483562295793, 29.837336443905258 ], [ 79.067181102700943, 29.862600018717504 ], [ 79.067937403942494, 29.863863197458116 ], [ 79.069071855804836, 29.866389554939342 ], [ 79.084576031256816, 29.888179388214905 ], [ 79.09894575484644, 29.893547897862508 ], [ 79.158693552929648, 29.915653525823224 ], [ 79.176844782727073, 29.907758658694394 ], [ 79.192348958179053, 29.944390842172155 ], [ 79.22676066467001, 29.945338226227612 ], [ 79.227138815290786, 29.946917199653377 ], [ 79.229029568394694, 29.953233093356442 ], [ 79.232054773360929, 29.963022728596187 ], [ 79.229785869636245, 29.966812264818024 ], [ 79.230164020257021, 29.975654516002312 ] ] ] } },
{ "type": "Feature", "properties": { "dt_code": "066", "district": "Nainital", "st_code": "05", "year": "2011_c", "st_nm": "Uttarakhand" }, "geometry": { "type": "Polygon", "coordinates": [ [ [ 78.926130921150076, 29.438171961871749 ], [ 78.952223313983879, 29.4586986164067 ], [ 78.969996393160528, 29.536384108954362 ], [ 79.006298852755393, 29.554384406008086 ], [ 78.998357689719015, 29.562279273136916 ], [ 79.008945907100852, 29.585963874523397 ], [ 79.060752542147682, 29.588174437319466 ], [ 79.036929053038563, 29.584700695782786 ], [ 79.077013018841214, 29.582174338301559 ], [ 79.109912122849053, 29.558489736915078 ], [ 79.108777670986711, 29.544278976083188 ], [ 79.140920473752999, 29.552805432582321 ], [ 79.146970883685469, 29.539857850491046 ], [ 79.151508691134836, 29.538910466435585 ], [ 79.219197652254408, 29.523120732177933 ], [ 79.286508462753218, 29.578384802079722 ], [ 79.28726476399477, 29.590069205430385 ], [ 79.335668043454589, 29.611543244020798 ], [ 79.336046194075365, 29.611859038705951 ], [ 79.348525164561096, 29.606806323743502 ], [ 79.350037767044213, 29.594174536337377 ], [ 79.380289816706608, 29.588174437319466 ], [ 79.48201233369636, 29.496593978625071 ], [ 79.501298015356141, 29.496909773310225 ], [ 79.516802190808107, 29.512067918197573 ], [ 79.527390408189945, 29.549015896360483 ], [ 79.549701294815947, 29.551226459156556 ], [ 79.550457596057512, 29.54048943986135 ], [ 79.572012181441949, 29.539542055805892 ], [ 79.621171762143334, 29.555963379433852 ], [ 79.632138130145947, 29.542384207972269 ], [ 79.648020456218688, 29.547752717619872 ], [ 79.6797851083642, 29.527226063084921 ], [ 79.689617024504471, 29.473856761294048 ], [ 79.71003715802658, 29.459646000462161 ], [ 79.7338606471357, 29.46154076857308 ], [ 79.726675785340888, 29.446698418370882 ], [ 79.735751400239607, 29.431540273483535 ], [ 79.763734546177304, 29.433435041594453 ], [ 79.778104269766942, 29.451435338648182 ], [ 79.829154603572206, 29.425540174465628 ], [ 79.831801657917666, 29.426487558521085 ], [ 79.848440285231973, 29.432171862853842 ], [ 79.856381448268351, 29.432803452224146 ], [ 79.833314260400783, 29.397750242172155 ], [ 79.859406653234586, 29.379749945118427 ], [ 79.857894050751469, 29.369960309878682 ], [ 79.89192760662165, 29.369644515193528 ], [ 79.899868769658028, 29.348170476603119 ], [ 79.871129322478765, 29.345012529751589 ], [ 79.857894050751469, 29.310906703755055 ], [ 79.831801657917666, 29.323222696476027 ], [ 79.832179808538442, 29.338065046678221 ], [ 79.793608445218908, 29.336486073252455 ], [ 79.818188235569593, 29.308064551588675 ], [ 79.812137825637123, 29.292590612016177 ], [ 79.818944536811159, 29.271432368110919 ], [ 79.856003297647575, 29.276800877758522 ], [ 79.868482268133306, 29.260379554130559 ], [ 79.906675480832064, 29.249958329520506 ], [ 79.926717463733397, 29.214273530098207 ], [ 79.900625070899594, 29.182062472212593 ], [ 79.880583087998261, 29.173536015713459 ], [ 79.877936033652801, 29.158062076140958 ], [ 79.910456987039865, 29.12869317042172 ], [ 79.941087187323021, 29.132798501328711 ], [ 79.974742592572426, 29.12048250860774 ], [ 79.97436444195165, 29.120166713922586 ], [ 79.973229990089308, 29.117956151126517 ], [ 79.953944308429541, 29.081955557019064 ], [ 79.964910676432154, 29.060797313113806 ], [ 79.971339236985415, 29.055744598151357 ], [ 79.972473688847742, 29.054797214095899 ], [ 79.912347740143758, 29.033323175505487 ], [ 79.896087263450227, 28.9935330451762 ], [ 79.879448636135919, 28.9935330451762 ], [ 79.876045280548908, 28.978374900288848 ], [ 79.857515900130693, 29.01311231565569 ], [ 79.811759675016333, 28.985006588677066 ], [ 79.812515976257899, 28.992585661120739 ], [ 79.793230294598132, 28.998269965453495 ], [ 79.806465566325429, 29.01627026250722 ], [ 79.800415156392944, 29.025112513691507 ], [ 79.773566462317575, 29.025428308376661 ], [ 79.76411269679808, 29.037112711727325 ], [ 79.74633961762143, 29.025744103061815 ], [ 79.710415308647356, 29.031112612709418 ], [ 79.682810313330435, 29.063007875909879 ], [ 79.651801962426489, 29.077534431426919 ], [ 79.62760032269658, 29.0500602938186 ], [ 79.415835975059906, 29.051639267244369 ], [ 79.435499807340449, 29.08353453044483 ], [ 79.383693172293619, 29.144167109994221 ], [ 79.277054697233723, 29.239537104910458 ], [ 79.134491913199739, 29.275221904332756 ], [ 79.10802136974516, 29.255326839168109 ], [ 79.075878566978872, 29.278064056499133 ], [ 79.041845011108691, 29.254379455112652 ], [ 79.012349262687877, 29.289748459849797 ], [ 79.029366040622961, 29.305538194107452 ], [ 79.018777823241123, 29.325433259272096 ], [ 78.956382970812456, 29.317854186828423 ], [ 78.927265373012418, 29.341222993529751 ], [ 78.926130921150076, 29.341222993529751 ], [ 78.881509147898072, 29.348170476603119 ], [ 78.868652026791551, 29.350065244714038 ], [ 78.850122646373336, 29.347538887232812 ], [ 78.852013399477244, 29.360486469324091 ], [ 78.871677231757786, 29.362381237435009 ], [ 78.877727641690271, 29.375013024841131 ], [ 78.902307432040956, 29.38511845476603 ], [ 78.9257527705293, 29.425855969150781 ], [ 78.943147699085173, 29.434698220335065 ], [ 78.926130921150076, 29.438171961871749 ] ] ] } },
{ "type": "Feature", "properties": { "dt_code": "065", "district": "Champawat", "st_code": "05", "year": "2011_c", "st_nm": "Uttarakhand" }, "geometry": { "type": "Polygon", "coordinates": [ [ [ 80.076465109562193, 29.521857553437318 ], [ 80.098019694946643, 29.522173348122472 ], [ 80.106339008603797, 29.522173348122472 ], [ 80.10822976170769, 29.52091016938186 ], [ 80.12600284088434, 29.499436130791448 ], [ 80.149826329993473, 29.471330403812825 ], [ 80.161170848616862, 29.474804145349509 ], [ 80.183481735242864, 29.457435437666089 ], [ 80.242851382705297, 29.443540471519352 ], [ 80.242851382705297, 29.411013618948584 ], [ 80.27499418547157, 29.391434348469094 ], [ 80.271590829884559, 29.363012826805313 ], [ 80.318481506861247, 29.302064452570768 ], [ 80.305246235133964, 29.287222102368574 ], [ 80.290876511544326, 29.233221211207393 ], [ 80.292010963406668, 29.19690482241479 ], [ 80.258733708778053, 29.207010252339689 ], [ 80.254195901328686, 29.220905218486422 ], [ 80.243985834567638, 29.212694556672442 ], [ 80.241338780222179, 29.201010153321779 ], [ 80.258355558157263, 29.18774677654535 ], [ 80.271212679263783, 29.140377573772387 ], [ 80.233775767806577, 29.119219329867128 ], [ 80.18423803648443, 29.136588037550549 ], [ 80.165708656066215, 29.125851018255343 ], [ 80.144532221302555, 29.102482211554015 ], [ 80.129406196471365, 29.062060491854417 ], [ 80.138103660749294, 29.060165723743502 ], [ 80.124868389021998, 29.011533342229924 ], [ 80.135834757024611, 29.007428011322933 ], [ 80.118061677847962, 28.981532847140382 ], [ 80.100666749292103, 28.986901356787982 ], [ 80.073439904595958, 28.938584769959562 ], [ 80.073818055216734, 28.940795332755631 ], [ 80.077221410803745, 28.946795431773541 ], [ 80.073818055216734, 28.949637583939918 ], [ 80.061339084731003, 28.959427219179666 ], [ 80.059448331627095, 28.961006192605431 ], [ 80.059070181006319, 28.961953576660889 ], [ 80.051885319211507, 28.986585562102832 ], [ 80.058313879764754, 29.004585859156556 ], [ 80.015204708995867, 29.092692576314271 ], [ 80.014826558375091, 29.093008370999421 ], [ 80.007263545959489, 29.074060689890235 ], [ 79.971339236985415, 29.055744598151357 ], [ 79.964910676432154, 29.060797313113806 ], [ 79.953944308429541, 29.081955557019064 ], [ 79.973229990089308, 29.117956151126517 ], [ 79.97436444195165, 29.120166713922586 ], [ 79.974742592572426, 29.12048250860774 ], [ 79.941087187323021, 29.132798501328711 ], [ 79.910456987039865, 29.12869317042172 ], [ 79.877936033652801, 29.158062076140958 ], [ 79.880583087998261, 29.173536015713459 ], [ 79.900625070899594, 29.182062472212593 ], [ 79.926717463733397, 29.214273530098207 ], [ 79.906675480832064, 29.249958329520506 ], [ 79.868482268133306, 29.260379554130559 ], [ 79.856003297647575, 29.276800877758522 ], [ 79.818944536811159, 29.271432368110919 ], [ 79.812137825637123, 29.292590612016177 ], [ 79.818188235569593, 29.308064551588675 ], [ 79.793608445218908, 29.336486073252455 ], [ 79.832179808538442, 29.338065046678221 ], [ 79.831801657917666, 29.323222696476027 ], [ 79.857894050751469, 29.310906703755055 ], [ 79.871129322478765, 29.345012529751589 ], [ 79.899868769658028, 29.348170476603119 ], [ 79.89192760662165, 29.369644515193528 ], [ 79.857894050751469, 29.369960309878682 ], [ 79.859406653234586, 29.379749945118427 ], [ 79.833314260400783, 29.397750242172155 ], [ 79.856381448268351, 29.432803452224146 ], [ 79.848440285231973, 29.432171862853842 ], [ 79.850709188956657, 29.452382722703639 ], [ 79.86167555695927, 29.448908981166955 ], [ 79.887011648551521, 29.483646396533796 ], [ 79.909700685798299, 29.489962290236857 ], [ 79.927095614354172, 29.472593582553436 ], [ 79.946003145393163, 29.477014708145582 ], [ 79.953188007187975, 29.499436130791448 ], [ 79.961129170224353, 29.494383415828999 ], [ 79.956969513395777, 29.474172555979202 ], [ 80.025036625136138, 29.500383514846909 ], [ 80.061339084731003, 29.5145942756788 ], [ 80.07797771204531, 29.52091016938186 ], [ 80.076465109562193, 29.521857553437318 ] ] ] } },
{ "type": "Feature", "properties": { "dt_code": "067", "district": "Udham Singh Nagar", "st_code": "05", "year": "2011_c", "st_nm": "Uttarakhand" }, "geometry": { "type": "Polygon", "coordinates": [ [ [ 78.850122646373336, 29.347538887232812 ], [ 78.868652026791551, 29.350065244714038 ], [ 78.881509147898072, 29.348170476603119 ], [ 78.926130921150076, 29.341222993529751 ], [ 78.927265373012418, 29.341222993529751 ], [ 78.956382970812456, 29.317854186828423 ], [ 79.018777823241123, 29.325433259272096 ], [ 79.029366040622961, 29.305538194107452 ], [ 79.012349262687877, 29.289748459849797 ], [ 79.041845011108691, 29.254379455112652 ], [ 79.075878566978872, 29.278064056499133 ], [ 79.10802136974516, 29.255326839168109 ], [ 79.134491913199739, 29.275221904332756 ], [ 79.277054697233723, 29.239537104910458 ], [ 79.383693172293619, 29.144167109994221 ], [ 79.435499807340449, 29.08353453044483 ], [ 79.415835975059906, 29.051639267244369 ], [ 79.62760032269658, 29.0500602938186 ], [ 79.651801962426489, 29.077534431426919 ], [ 79.682810313330435, 29.063007875909879 ], [ 79.710415308647356, 29.031112612709418 ], [ 79.74633961762143, 29.025744103061815 ], [ 79.76411269679808, 29.037112711727325 ], [ 79.773566462317575, 29.025428308376661 ], [ 79.800415156392944, 29.025112513691507 ], [ 79.806465566325429, 29.01627026250722 ], [ 79.793230294598132, 28.998269965453495 ], [ 79.812515976257899, 28.992585661120739 ], [ 79.811759675016333, 28.985006588677066 ], [ 79.857515900130693, 29.01311231565569 ], [ 79.876045280548908, 28.978374900288848 ], [ 79.879448636135919, 28.9935330451762 ], [ 79.896087263450227, 28.9935330451762 ], [ 79.912347740143758, 29.033323175505487 ], [ 79.972473688847742, 29.054797214095899 ], [ 79.971339236985415, 29.055744598151357 ], [ 80.007263545959489, 29.074060689890235 ], [ 80.014826558375091, 29.093008370999421 ], [ 80.015204708995867, 29.092692576314271 ], [ 80.058313879764754, 29.004585859156556 ], [ 80.051885319211507, 28.986585562102832 ], [ 80.059070181006319, 28.961953576660889 ], [ 80.059448331627095, 28.961006192605431 ], [ 80.061339084731003, 28.959427219179666 ], [ 80.073818055216734, 28.949637583939918 ], [ 80.077221410803745, 28.946795431773541 ], [ 80.073818055216734, 28.940795332755631 ], [ 80.059070181006319, 28.915847552628538 ], [ 80.06512059093879, 28.836583086655111 ], [ 80.051885319211507, 28.820477557712305 ], [ 80.068145795905039, 28.802793055343731 ], [ 80.061717235351779, 28.783213784864241 ], [ 80.029952583206281, 28.748792164182554 ], [ 79.954322459050317, 28.722897 ], [ 79.938818283598351, 28.750371137608319 ], [ 79.943356091047704, 28.75984497816291 ], [ 79.924070409387937, 28.773108354939342 ], [ 79.939952735460693, 28.787634910456383 ], [ 79.901381372141145, 28.781950606123626 ], [ 79.873020075582659, 28.797424545696128 ], [ 79.869616719995648, 28.808477359676488 ], [ 79.878314184273577, 28.814793253379548 ], [ 79.915372945109993, 28.804372028769496 ], [ 79.914616643868442, 28.818582789601386 ], [ 79.894196510346333, 28.820477557712305 ], [ 79.888146100413849, 28.836583086655111 ], [ 79.878314184273577, 28.83026719295205 ], [ 79.863188159442387, 28.840372622876949 ], [ 79.846171381507304, 28.823319709878682 ], [ 79.849196586473539, 28.7996351084922 ], [ 79.808734470050098, 28.799950903177354 ], [ 79.8162974824657, 28.817003816175621 ], [ 79.824238645502078, 28.807214180935876 ], [ 79.837095766608584, 28.832477755748123 ], [ 79.823860494881288, 28.839109444136337 ], [ 79.836717615987808, 28.840056828191795 ], [ 79.830667206055324, 28.855214973079146 ], [ 79.84049912219561, 28.847635900635471 ], [ 79.849574737094315, 28.859320303986134 ], [ 79.844658779024186, 28.87511003824379 ], [ 79.832936109780007, 28.870688912651644 ], [ 79.819700838052711, 28.887110236279607 ], [ 79.818566386190369, 28.887426030964761 ], [ 79.813272277499465, 28.887426030964761 ], [ 79.799658855151392, 28.887426030964761 ], [ 79.797768102047485, 28.885531262853842 ], [ 79.783398378457861, 28.871320502021952 ], [ 79.74898667196689, 28.871952091392259 ], [ 79.745583316379879, 28.859951893356442 ], [ 79.726297634720112, 28.8608992774119 ], [ 79.706633802439555, 28.841004212247256 ], [ 79.682810313330435, 28.854583383708839 ], [ 79.683566614571987, 28.855530767764296 ], [ 79.655961619255066, 28.869741528596187 ], [ 79.584491151927693, 28.846372721894859 ], [ 79.57352478392508, 28.854583383708839 ], [ 79.584113001306903, 28.879215369150778 ], [ 79.556508005989983, 28.899426229000579 ], [ 79.52171814887825, 28.864688813633737 ], [ 79.466508158244395, 28.87005732328134 ], [ 79.45176028403398, 28.871636296707106 ], [ 79.447978777826179, 28.868478349855575 ], [ 79.425667891200177, 28.866583581744656 ], [ 79.425667891200177, 28.866583581744656 ], [ 79.425667891200177, 28.867215171114964 ], [ 79.430961999891096, 28.886794441594454 ], [ 79.426802343062519, 28.891847156556903 ], [ 79.421886384992376, 28.897215666204506 ], [ 79.427558644304071, 28.912689605777008 ], [ 79.427558644304071, 28.912689605777008 ], [ 79.407894812023528, 28.95184814673599 ], [ 79.385205774776736, 28.95184814673599 ], [ 79.37234865367023, 28.987532946158289 ], [ 79.362138586909168, 28.981532847140382 ], [ 79.364785641254628, 28.96826947036395 ], [ 79.311844554345456, 28.977111721548237 ], [ 79.307306746896103, 28.966374702253031 ], [ 79.259281618057074, 28.992585661120739 ], [ 79.25096230439992, 29.010270163489313 ], [ 79.21163463983882, 29.027638871172734 ], [ 79.171172523415379, 29.011849136915078 ], [ 79.162475059137449, 29.029217844598499 ], [ 79.17495402962318, 29.046270757596766 ], [ 79.142433076236117, 29.06711320681687 ], [ 79.15339944423873, 29.115113998960137 ], [ 79.120122189610115, 29.130587938532639 ], [ 79.111802875952961, 29.128061581051416 ], [ 79.036550902417773, 29.169114890121318 ], [ 79.028987890002185, 29.164062175158868 ], [ 79.039197956763232, 29.158377870826111 ], [ 79.037685354280114, 29.145746083419986 ], [ 79.037307203659338, 29.144798699364529 ], [ 79.018777823241123, 29.153640950548816 ], [ 79.017643371378782, 29.147956646216059 ], [ 79.01688707013723, 29.133430090699019 ], [ 79.040332408625574, 29.127745786366262 ], [ 79.040332408625574, 29.127745786366262 ], [ 79.040710559246349, 29.127745786366262 ], [ 79.039954258004798, 29.127114196995954 ], [ 79.030878643106078, 29.117008767071056 ], [ 79.026718986277501, 29.112587641478914 ], [ 79.0081896058593, 29.111956052108606 ], [ 78.987391321716402, 29.136903832235703 ], [ 78.980584610542365, 29.141324957827845 ], [ 78.979072008059248, 29.140377573772387 ], [ 78.974912351230671, 29.130903733217792 ], [ 78.974534200609895, 29.131219527902946 ], [ 78.956382970812456, 29.119850919237436 ], [ 78.93482838542802, 29.129640554477181 ], [ 78.926887222391642, 29.117956151126517 ], [ 78.906845239490309, 29.124903634199885 ], [ 78.906467088869533, 29.124903634199885 ], [ 78.918946059355264, 29.135640653495088 ], [ 78.90155113079939, 29.169746479491621 ], [ 78.908735992594217, 29.178588730675909 ], [ 78.875080587344812, 29.20511548422877 ], [ 78.883399901001965, 29.211431377931831 ], [ 78.874324286103246, 29.230379059041017 ], [ 78.858441960030504, 29.23290541652224 ], [ 78.858441960030504, 29.241747667706527 ], [ 78.849366345131784, 29.23290541652224 ], [ 78.838021826508395, 29.242695051761988 ], [ 78.819870596710956, 29.231958032466782 ], [ 78.819114295469404, 29.232273827151936 ], [ 78.818736144848614, 29.232589621837089 ], [ 78.807769776846001, 29.236694952744077 ], [ 78.803610120017424, 29.240800283651069 ], [ 78.760122798627748, 29.264169090352397 ], [ 78.771467317251151, 29.264800679722704 ], [ 78.765038756697891, 29.279327235239744 ], [ 78.724954790895239, 29.30332763131138 ], [ 78.734408556414735, 29.303011836626226 ], [ 78.733652255173169, 29.321959517735412 ], [ 78.750290882487477, 29.31753839214327 ], [ 78.766551359181008, 29.337433457307913 ], [ 78.777517727183621, 29.325749053957249 ], [ 78.793400053256377, 29.328275411438476 ], [ 78.796047107601837, 29.311854087810513 ], [ 78.804744571879766, 29.319433160254189 ], [ 78.799828613809638, 29.334591305141537 ], [ 78.825921006643441, 29.363644416175621 ], [ 78.827433609126558, 29.355117959676488 ], [ 78.827433609126558, 29.35448637030618 ], [ 78.827433609126558, 29.354170575621026 ], [ 78.8285680609889, 29.353854780935876 ], [ 78.845206688303207, 29.346907297862508 ], [ 78.84974449575256, 29.345012529751589 ], [ 78.850122646373336, 29.347538887232812 ] ] ] } }
]
}
